Average_Download_Speed,Maximum_Download_Speed,Postcode,Partial_Postcode,Town,District,County
119.9,200,BS10 5DL,BS10 ,BRISTOL,CITY OF BRISTOL,CITY OF BRISTOL
60,200,BS10 5DX,BS10 ,BRISTOL,CITY OF BRISTOL,CITY OF BRISTOL
60,200,BS10 5DX,BS10 ,BRISTOL,CITY OF BRISTOL,CITY OF BRISTOL
60,200,BS10 5DX,BS10 ,BRISTOL,CITY OF BRISTOL,CITY OF BRISTOL
60.2,152,BS10 5EL,BS10 ,BRISTOL,CITY OF BRISTOL,CITY OF BRISTOL
78.2,150,BS10 5LG,BS10 ,BRISTOL,CITY OF BRISTOL,CITY OF BRISTOL
78.2,150,BS10 5LG,BS10 ,BRISTOL,CITY OF BRISTOL,CITY OF BRISTOL
62.7,200,BS10 5LZ,BS10 ,BRISTOL,CITY OF BRISTOL,CITY OF BRISTOL
84.2,200,BS10 5NG,BS10 ,BRISTOL,CITY OF BRISTOL,CITY OF BRISTOL
73.4,200,BS10 7AA,BS10 ,BRISTOL,CITY OF BRISTOL,CITY OF BRISTOL
79.3,150,BS10 7AD,BS10 ,BRISTOL,CITY OF BRISTOL,CITY OF BRISTOL
79.3,150,BS10 7AD,BS10 ,BRISTOL,CITY OF BRISTOL,CITY OF BRISTOL
79.3,150,BS10 7AD,BS10 ,BRISTOL,CITY OF BRISTOL,CITY OF BRISTOL
79.3,150,BS10 7AD,BS10 ,BRISTOL,CITY OF BRISTOL,CITY OF BRISTOL
79.3,150,BS10 7AD,BS10 ,BRISTOL,CITY OF BRISTOL,CITY OF BRISTOL
97.8,200,BS10 7AE,BS10 ,BRISTOL,CITY OF BRISTOL,CITY OF BRISTOL
97.8,200,BS10 7AE,BS10 ,BRISTOL,CITY OF BRISTOL,CITY OF BRISTOL
89.2,200,BS10 7DG,BS10 ,BRISTOL,CITY OF BRISTOL,CITY OF BRISTOL
16.9,42.3,BS10 7FG,BS10 ,BRISTOL,CITY OF BRISTOL,CITY OF BRISTOL
16.9,42.3,BS10 7FG,BS10 ,BRISTOL,CITY OF BRISTOL,CITY OF BRISTOL
16.9,42.3,BS10 7FG,BS10 ,BRISTOL,CITY OF BRISTOL,CITY OF BRISTOL
16.9,42.3,BS10 7FG,BS10 ,BRISTOL,CITY OF BRISTOL,CITY OF BRISTOL
16.9,42.3,BS10 7FG,BS10 ,BRISTOL,CITY OF BRISTOL,CITY OF BRISTOL
16.9,42.3,BS10 7FG,BS10 ,BRISTOL,CITY OF BRISTOL,CITY OF BRISTOL
89,200,BS10 7QX,BS10 ,BRISTOL,CITY OF BRISTOL,CITY OF BRISTOL
89,200,BS10 7QX,BS10 ,BRISTOL,CITY OF BRISTOL,CITY OF BRISTOL
67.7,200,BS11 0BZ,BS11 ,BRISTOL,CITY OF BRISTOL,CITY OF BRISTOL
54.2,200,BS11 0DE,BS11 ,BRISTOL,CITY OF BRISTOL,CITY OF BRISTOL
44.2,200,BS11 0DJ,BS11 ,BRISTOL,CITY OF BRISTOL,CITY OF BRISTOL
32.1,106.3,BS11 0FH,BS11 ,BRISTOL,CITY OF BRISTOL,CITY OF BRISTOL
32.1,106.3,BS11 0FH,BS11 ,BRISTOL,CITY OF BRISTOL,CITY OF BRISTOL
32.1,106.3,BS11 0FH,BS11 ,BRISTOL,CITY OF BRISTOL,CITY OF BRISTOL
32.1,106.3,BS11 0FH,BS11 ,BRISTOL,CITY OF BRISTOL,CITY OF BRISTOL
32.1,106.3,BS11 0FH,BS11 ,BRISTOL,CITY OF BRISTOL,CITY OF BRISTOL
32.1,106.3,BS11 0FH,BS11 ,BRISTOL,CITY OF BRISTOL,CITY OF BRISTOL
32.1,106.3,BS11 0FH,BS11 ,BRISTOL,CITY OF BRISTOL,CITY OF BRISTOL
33.9,100,BS11 0QE,BS11 ,BRISTOL,CITY OF BRISTOL,CITY OF BRISTOL
84.9,200,BS11 0RJ,BS11 ,BRISTOL,CITY OF BRISTOL,CITY OF BRISTOL
20.8,70,BS11 0UT,BS11 ,BRISTOL,CITY OF BRISTOL,CITY OF BRISTOL
20.8,70,BS11 0UT,BS11 ,BRISTOL,CITY OF BRISTOL,CITY OF BRISTOL
20.8,70,BS11 0UT,BS11 ,BRISTOL,CITY OF BRISTOL,CITY OF BRISTOL
66.6,152,BS11 9AH,BS11 ,BRISTOL,CITY OF BRISTOL,CITY OF BRISTOL
66.6,152,BS11 9AH,BS11 ,BRISTOL,CITY OF BRISTOL,CITY OF BRISTOL
66.6,152,BS11 9AH,BS11 ,BRISTOL,CITY OF BRISTOL,CITY OF BRISTOL
66.6,152,BS11 9AH,BS11 ,BRISTOL,CITY OF BRISTOL,CITY OF BRISTOL
22.9,50,BS11 9AQ,BS11 ,BRISTOL,CITY OF BRISTOL,CITY OF BRISTOL
22.9,50,BS11 9AQ,BS11 ,BRISTOL,CITY OF BRISTOL,CITY OF BRISTOL
22.9,50,BS11 9AQ,BS11 ,BRISTOL,CITY OF BRISTOL,CITY OF BRISTOL
22.9,50,BS11 9AQ,BS11 ,BRISTOL,CITY OF BRISTOL,CITY OF BRISTOL
54.1,200,BS11 9AR,BS11 ,BRISTOL,CITY OF BRISTOL,CITY OF BRISTOL
54.1,200,BS11 9AR,BS11 ,BRISTOL,CITY OF BRISTOL,CITY OF BRISTOL
54.1,200,BS11 9AR,BS11 ,BRISTOL,CITY OF BRISTOL,CITY OF BRISTOL
54.1,200,BS11 9AR,BS11 ,BRISTOL,CITY OF BRISTOL,CITY OF BRISTOL
77.8,200,BS11 9AS,BS11 ,BRISTOL,CITY OF BRISTOL,CITY OF BRISTOL
77.8,200,BS11 9AS,BS11 ,BRISTOL,CITY OF BRISTOL,CITY OF BRISTOL
77.8,200,BS11 9AS,BS11 ,BRISTOL,CITY OF BRISTOL,CITY OF BRISTOL
15.1,80,BS11 9DB,BS11 ,BRISTOL,CITY OF BRISTOL,CITY OF BRISTOL
101.5,200,BS11 9EU,BS11 ,BRISTOL,CITY OF BRISTOL,CITY OF BRISTOL
19.7,22.6,BS11 9FP,BS11 ,BRISTOL,CITY OF BRISTOL,CITY OF BRISTOL
19.7,22.6,BS11 9FP,BS11 ,BRISTOL,CITY OF BRISTOL,CITY OF BRISTOL
17.8,55,BS11 9HS,BS11 ,BRISTOL,CITY OF BRISTOL,CITY OF BRISTOL
17.8,55,BS11 9HS,BS11 ,BRISTOL,CITY OF BRISTOL,CITY OF BRISTOL
17.8,55,BS11 9HS,BS11 ,BRISTOL,CITY OF BRISTOL,CITY OF BRISTOL
7.4,40,BS11 9QB,BS11 ,BRISTOL,CITY OF BRISTOL,CITY OF BRISTOL
7.4,40,BS11 9QB,BS11 ,BRISTOL,CITY OF BRISTOL,CITY OF BRISTOL
7.4,40,BS11 9QB,BS11 ,BRISTOL,CITY OF BRISTOL,CITY OF BRISTOL
7.4,40,BS11 9QB,BS11 ,BRISTOL,CITY OF BRISTOL,CITY OF BRISTOL
7.4,40,BS11 9QB,BS11 ,BRISTOL,CITY OF BRISTOL,CITY OF BRISTOL
7.4,40,BS11 9QB,BS11 ,BRISTOL,CITY OF BRISTOL,CITY OF BRISTOL
7.4,40,BS11 9QB,BS11 ,BRISTOL,CITY OF BRISTOL,CITY OF BRISTOL
7.4,40,BS11 9QB,BS11 ,BRISTOL,CITY OF BRISTOL,CITY OF BRISTOL
7.4,40,BS11 9QB,BS11 ,BRISTOL,CITY OF BRISTOL,CITY OF BRISTOL
7.4,40,BS11 9QB,BS11 ,BRISTOL,CITY OF BRISTOL,CITY OF BRISTOL
91.6,200,BS11 9SA,BS11 ,BRISTOL,CITY OF BRISTOL,CITY OF BRISTOL
91.6,200,BS11 9SA,BS11 ,BRISTOL,CITY OF BRISTOL,CITY OF BRISTOL
91.6,200,BS11 9SA,BS11 ,BRISTOL,CITY OF BRISTOL,CITY OF BRISTOL
100.3,200,BS11 9TN,BS11 ,BRISTOL,CITY OF BRISTOL,CITY OF BRISTOL
100.3,200,BS11 9TN,BS11 ,BRISTOL,CITY OF BRISTOL,CITY OF BRISTOL
100.3,200,BS11 9TN,BS11 ,BRISTOL,CITY OF BRISTOL,CITY OF BRISTOL
77.5,200,BS11 9TX,BS11 ,BRISTOL,CITY OF BRISTOL,CITY OF BRISTOL
77.5,200,BS11 9TX,BS11 ,BRISTOL,CITY OF BRISTOL,CITY OF BRISTOL
77.5,200,BS11 9TX,BS11 ,BRISTOL,CITY OF BRISTOL,CITY OF BRISTOL
77.5,200,BS11 9TX,BS11 ,BRISTOL,CITY OF BRISTOL,CITY OF BRISTOL
77.5,200,BS11 9TX,BS11 ,BRISTOL,CITY OF BRISTOL,CITY OF BRISTOL
77.5,200,BS11 9TX,BS11 ,BRISTOL,CITY OF BRISTOL,CITY OF BRISTOL
77.5,200,BS11 9TX,BS11 ,BRISTOL,CITY OF BRISTOL,CITY OF BRISTOL
40.2,100,BS13 7SP,BS13 ,BRISTOL,CITY OF BRISTOL,CITY OF BRISTOL
40.2,100,BS13 7SP,BS13 ,BRISTOL,CITY OF BRISTOL,CITY OF BRISTOL
40.2,100,BS13 7SP,BS13 ,BRISTOL,CITY OF BRISTOL,CITY OF BRISTOL
22.1,24,BS13 7SR,BS13 ,BRISTOL,CITY OF BRISTOL,CITY OF BRISTOL
22.1,24,BS13 7SR,BS13 ,BRISTOL,CITY OF BRISTOL,CITY OF BRISTOL
16.9,22.5,BS13 7TT,BS13 ,BRISTOL,CITY OF BRISTOL,CITY OF BRISTOL
22.6,67.4,BS13 8BT,BS13 ,BRISTOL,CITY OF BRISTOL,CITY OF BRISTOL
16.1,40,BS13 8EX,BS13 ,BRISTOL,CITY OF BRISTOL,CITY OF BRISTOL
16.1,40,BS13 8EX,BS13 ,BRISTOL,CITY OF BRISTOL,CITY OF BRISTOL
16.1,40,BS13 8EX,BS13 ,BRISTOL,CITY OF BRISTOL,CITY OF BRISTOL
16.1,40,BS13 8EX,BS13 ,BRISTOL,CITY OF BRISTOL,CITY OF BRISTOL
68,200,BS13 8JL,BS13 ,BRISTOL,CITY OF BRISTOL,CITY OF BRISTOL
84.4,200,BS13 8JY,BS13 ,BRISTOL,CITY OF BRISTOL,CITY OF BRISTOL
84.4,200,BS13 8JY,BS13 ,BRISTOL,CITY OF BRISTOL,CITY OF BRISTOL
84.4,200,BS13 8JY,BS13 ,BRISTOL,CITY OF BRISTOL,CITY OF BRISTOL
84.4,200,BS13 8JY,BS13 ,BRISTOL,CITY OF BRISTOL,CITY OF BRISTOL
71.5,200,BS13 8LD,BS13 ,BRISTOL,CITY OF BRISTOL,CITY OF BRISTOL
32.9,100,BS13 8PG,BS13 ,BRISTOL,CITY OF BRISTOL,CITY OF BRISTOL
32.9,100,BS13 8PG,BS13 ,BRISTOL,CITY OF BRISTOL,CITY OF BRISTOL
32.9,100,BS13 8PG,BS13 ,BRISTOL,CITY OF BRISTOL,CITY OF BRISTOL
32.9,100,BS13 8PG,BS13 ,BRISTOL,CITY OF BRISTOL,CITY OF BRISTOL
32.9,100,BS13 8PG,BS13 ,BRISTOL,CITY OF BRISTOL,CITY OF BRISTOL
32.9,100,BS13 8PG,BS13 ,BRISTOL,CITY OF BRISTOL,CITY OF BRISTOL
32.9,100,BS13 8PG,BS13 ,BRISTOL,CITY OF BRISTOL,CITY OF BRISTOL
32.9,100,BS13 8PG,BS13 ,BRISTOL,CITY OF BRISTOL,CITY OF BRISTOL
15.8,20.8,BS14 0BB,BS14 ,BRISTOL,CITY OF BRISTOL,CITY OF BRISTOL
15.8,20.8,BS14 0BB,BS14 ,BRISTOL,CITY OF BRISTOL,CITY OF BRISTOL
15.8,20.8,BS14 0BB,BS14 ,BRISTOL,CITY OF BRISTOL,CITY OF BRISTOL
18.5,20.2,BS14 0BN,BS14 ,BRISTOL,CITY OF BRISTOL,CITY OF BRISTOL
18.5,20.2,BS14 0BN,BS14 ,BRISTOL,CITY OF BRISTOL,CITY OF BRISTOL
36.1,100,BS14 0TA,BS14 ,BRISTOL,CITY OF BRISTOL,CITY OF BRISTOL
94.6,200,BS15 1LY,BS15 ,BRISTOL,CITY OF BRISTOL,CITY OF BRISTOL
94.6,200,BS15 1LY,BS15 ,BRISTOL,CITY OF BRISTOL,CITY OF BRISTOL
10.5,15.7,BS15 1PB,BS15 ,BRISTOL,CITY OF BRISTOL,CITY OF BRISTOL
10.5,15.7,BS15 1PB,BS15 ,BRISTOL,CITY OF BRISTOL,CITY OF BRISTOL
10.5,15.7,BS15 1PB,BS15 ,BRISTOL,CITY OF BRISTOL,CITY OF BRISTOL
10.5,15.7,BS15 1PB,BS15 ,BRISTOL,CITY OF BRISTOL,CITY OF BRISTOL
10.5,15.7,BS15 1PB,BS15 ,BRISTOL,CITY OF BRISTOL,CITY OF BRISTOL
10.5,15.7,BS15 1PB,BS15 ,BRISTOL,CITY OF BRISTOL,CITY OF BRISTOL
10.5,15.7,BS15 1PB,BS15 ,BRISTOL,CITY OF BRISTOL,CITY OF BRISTOL
10.5,15.7,BS15 1PB,BS15 ,BRISTOL,CITY OF BRISTOL,CITY OF BRISTOL
29.7,80,BS15 1TB,BS15 ,BRISTOL,CITY OF BRISTOL,CITY OF BRISTOL
29.7,80,BS15 1TB,BS15 ,BRISTOL,CITY OF BRISTOL,CITY OF BRISTOL
29.7,80,BS15 1TB,BS15 ,BRISTOL,CITY OF BRISTOL,CITY OF BRISTOL
29.7,80,BS15 1TB,BS15 ,BRISTOL,CITY OF BRISTOL,CITY OF BRISTOL
29.7,80,BS15 1TB,BS15 ,BRISTOL,CITY OF BRISTOL,CITY OF BRISTOL
29.7,80,BS15 1TB,BS15 ,BRISTOL,CITY OF BRISTOL,CITY OF BRISTOL
29.7,80,BS15 1TB,BS15 ,BRISTOL,CITY OF BRISTOL,CITY OF BRISTOL
29.7,80,BS15 1TB,BS15 ,BRISTOL,CITY OF BRISTOL,CITY OF BRISTOL
29.7,80,BS15 1TB,BS15 ,BRISTOL,CITY OF BRISTOL,CITY OF BRISTOL
29.7,80,BS15 1TB,BS15 ,BRISTOL,CITY OF BRISTOL,CITY OF BRISTOL
64.7,200,BS15 8AF,BS15 ,BRISTOL,CITY OF BRISTOL,CITY OF BRISTOL
66.7,200,BS15 8AZ,BS15 ,BRISTOL,CITY OF BRISTOL,CITY OF BRISTOL
66.7,200,BS15 8AZ,BS15 ,BRISTOL,CITY OF BRISTOL,CITY OF BRISTOL
66.7,200,BS15 8AZ,BS15 ,BRISTOL,CITY OF BRISTOL,CITY OF BRISTOL
96.3,300,BS15 8BA,BS15 ,BRISTOL,CITY OF BRISTOL,CITY OF BRISTOL
65,200,BS15 8EE,BS15 ,BRISTOL,CITY OF BRISTOL,CITY OF BRISTOL
7.1,10.2,BS1 5AL,BS1 5,BRISTOL,CITY OF BRISTOL,CITY OF BRISTOL
56.6,200,BS16 1DT,BS16 ,BRISTOL,CITY OF BRISTOL,CITY OF BRISTOL
56.6,200,BS16 1DT,BS16 ,BRISTOL,CITY OF BRISTOL,CITY OF BRISTOL
56.6,200,BS16 1DT,BS16 ,BRISTOL,CITY OF BRISTOL,CITY OF BRISTOL
19.4,24,BS16 2BQ,BS16 ,BRISTOL,CITY OF BRISTOL,CITY OF BRISTOL
19.4,24,BS16 2BQ,BS16 ,BRISTOL,CITY OF BRISTOL,CITY OF BRISTOL
19.4,24,BS16 2BQ,BS16 ,BRISTOL,CITY OF BRISTOL,CITY OF BRISTOL
19.4,24,BS16 2BQ,BS16 ,BRISTOL,CITY OF BRISTOL,CITY OF BRISTOL
19.4,24,BS16 2BQ,BS16 ,BRISTOL,CITY OF BRISTOL,CITY OF BRISTOL
51,150,BS16 2EN,BS16 ,BRISTOL,CITY OF BRISTOL,CITY OF BRISTOL
51,150,BS16 2EN,BS16 ,BRISTOL,CITY OF BRISTOL,CITY OF BRISTOL
51,150,BS16 2EN,BS16 ,BRISTOL,CITY OF BRISTOL,CITY OF BRISTOL
51,150,BS16 2EN,BS16 ,BRISTOL,CITY OF BRISTOL,CITY OF BRISTOL
51,150,BS16 2EN,BS16 ,BRISTOL,CITY OF BRISTOL,CITY OF BRISTOL
97.9,200,BS16 2HJ,BS16 ,BRISTOL,CITY OF BRISTOL,CITY OF BRISTOL
97.9,200,BS16 2HJ,BS16 ,BRISTOL,CITY OF BRISTOL,CITY OF BRISTOL
97.9,200,BS16 2HJ,BS16 ,BRISTOL,CITY OF BRISTOL,CITY OF BRISTOL
65.6,200,BS16 2HN,BS16 ,BRISTOL,CITY OF BRISTOL,CITY OF BRISTOL
65.6,200,BS16 2HN,BS16 ,BRISTOL,CITY OF BRISTOL,CITY OF BRISTOL
65.6,200,BS16 2HN,BS16 ,BRISTOL,CITY OF BRISTOL,CITY OF BRISTOL
65.6,200,BS16 2HN,BS16 ,BRISTOL,CITY OF BRISTOL,CITY OF BRISTOL
65.6,200,BS16 2HN,BS16 ,BRISTOL,CITY OF BRISTOL,CITY OF BRISTOL
65.6,200,BS16 2HN,BS16 ,BRISTOL,CITY OF BRISTOL,CITY OF BRISTOL
65.6,200,BS16 2HN,BS16 ,BRISTOL,CITY OF BRISTOL,CITY OF BRISTOL
65.6,200,BS16 2HN,BS16 ,BRISTOL,CITY OF BRISTOL,CITY OF BRISTOL
65.6,200,BS16 2HN,BS16 ,BRISTOL,CITY OF BRISTOL,CITY OF BRISTOL
65.6,200,BS16 2HN,BS16 ,BRISTOL,CITY OF BRISTOL,CITY OF BRISTOL
60.5,106.3,BS16 2HX,BS16 ,BRISTOL,CITY OF BRISTOL,CITY OF BRISTOL
60.5,106.3,BS16 2HX,BS16 ,BRISTOL,CITY OF BRISTOL,CITY OF BRISTOL
60.5,106.3,BS16 2HX,BS16 ,BRISTOL,CITY OF BRISTOL,CITY OF BRISTOL
60.5,106.3,BS16 2HX,BS16 ,BRISTOL,CITY OF BRISTOL,CITY OF BRISTOL
60.5,106.3,BS16 2HX,BS16 ,BRISTOL,CITY OF BRISTOL,CITY OF BRISTOL
60.5,106.3,BS16 2HX,BS16 ,BRISTOL,CITY OF BRISTOL,CITY OF BRISTOL
60.5,106.3,BS16 2HX,BS16 ,BRISTOL,CITY OF BRISTOL,CITY OF BRISTOL
60.5,106.3,BS16 2HX,BS16 ,BRISTOL,CITY OF BRISTOL,CITY OF BRISTOL
60.5,106.3,BS16 2HX,BS16 ,BRISTOL,CITY OF BRISTOL,CITY OF BRISTOL
60.5,106.3,BS16 2HX,BS16 ,BRISTOL,CITY OF BRISTOL,CITY OF BRISTOL
60.5,106.3,BS16 2HX,BS16 ,BRISTOL,CITY OF BRISTOL,CITY OF BRISTOL
60.5,106.3,BS16 2HX,BS16 ,BRISTOL,CITY OF BRISTOL,CITY OF BRISTOL
61.4,200,BS16 3AA,BS16 ,BRISTOL,CITY OF BRISTOL,CITY OF BRISTOL
61.4,200,BS16 3AA,BS16 ,BRISTOL,CITY OF BRISTOL,CITY OF BRISTOL
46,80,BS16 3AH,BS16 ,BRISTOL,CITY OF BRISTOL,CITY OF BRISTOL
46,80,BS16 3AH,BS16 ,BRISTOL,CITY OF BRISTOL,CITY OF BRISTOL
46,80,BS16 3AH,BS16 ,BRISTOL,CITY OF BRISTOL,CITY OF BRISTOL
17.3,20.8,BS16 3AT,BS16 ,BRISTOL,CITY OF BRISTOL,CITY OF BRISTOL
17.3,20.8,BS16 3AT,BS16 ,BRISTOL,CITY OF BRISTOL,CITY OF BRISTOL
27.3,200,BS16 3BG,BS16 ,BRISTOL,CITY OF BRISTOL,CITY OF BRISTOL
27.3,200,BS16 3BG,BS16 ,BRISTOL,CITY OF BRISTOL,CITY OF BRISTOL
27.3,200,BS16 3BG,BS16 ,BRISTOL,CITY OF BRISTOL,CITY OF BRISTOL
27.3,200,BS16 3BG,BS16 ,BRISTOL,CITY OF BRISTOL,CITY OF BRISTOL
27.3,200,BS16 3BG,BS16 ,BRISTOL,CITY OF BRISTOL,CITY OF BRISTOL
14.3,23.7,BS16 3BS,BS16 ,BRISTOL,CITY OF BRISTOL,CITY OF BRISTOL
76.6,200,BS16 3DU,BS16 ,BRISTOL,CITY OF BRISTOL,CITY OF BRISTOL
76.6,200,BS16 3DU,BS16 ,BRISTOL,CITY OF BRISTOL,CITY OF BRISTOL
53.1,200,BS16 3DW,BS16 ,BRISTOL,CITY OF BRISTOL,CITY OF BRISTOL
53.1,200,BS16 3DW,BS16 ,BRISTOL,CITY OF BRISTOL,CITY OF BRISTOL
53.1,200,BS16 3DW,BS16 ,BRISTOL,CITY OF BRISTOL,CITY OF BRISTOL
53.1,200,BS16 3DW,BS16 ,BRISTOL,CITY OF BRISTOL,CITY OF BRISTOL
53.1,200,BS16 3DW,BS16 ,BRISTOL,CITY OF BRISTOL,CITY OF BRISTOL
53.1,200,BS16 3DW,BS16 ,BRISTOL,CITY OF BRISTOL,CITY OF BRISTOL
19.6,53,BS16 3HQ,BS16 ,BRISTOL,CITY OF BRISTOL,CITY OF BRISTOL
19.6,53,BS16 3HQ,BS16 ,BRISTOL,CITY OF BRISTOL,CITY OF BRISTOL
22.6,50.1,BS16 3TT,BS16 ,BRISTOL,CITY OF BRISTOL,CITY OF BRISTOL
22.6,50.1,BS16 3TT,BS16 ,BRISTOL,CITY OF BRISTOL,CITY OF BRISTOL
76.6,300,BS16 3UA,BS16 ,BRISTOL,CITY OF BRISTOL,CITY OF BRISTOL
76.6,300,BS16 3UA,BS16 ,BRISTOL,CITY OF BRISTOL,CITY OF BRISTOL
54,106.3,BS16 3UH,BS16 ,BRISTOL,CITY OF BRISTOL,CITY OF BRISTOL
79.4,200,BS16 3UN,BS16 ,BRISTOL,CITY OF BRISTOL,CITY OF BRISTOL
79.4,200,BS16 3UN,BS16 ,BRISTOL,CITY OF BRISTOL,CITY OF BRISTOL
87.8,200,BS16 3XB,BS16 ,BRISTOL,CITY OF BRISTOL,CITY OF BRISTOL
59.8,200,BS16 3XL,BS16 ,BRISTOL,CITY OF BRISTOL,CITY OF BRISTOL
69.9,100,BS16 5BD,BS16 ,BRISTOL,CITY OF BRISTOL,CITY OF BRISTOL
71.7,200,BS1 6DD,BS1 6,BRISTOL,CITY OF BRISTOL,CITY OF BRISTOL
71.7,200,BS1 6DD,BS1 6,BRISTOL,CITY OF BRISTOL,CITY OF BRISTOL
71.7,200,BS1 6DD,BS1 6,BRISTOL,CITY OF BRISTOL,CITY OF BRISTOL
64.6,200,BS1 6FF,BS1 6,BRISTOL,CITY OF BRISTOL,CITY OF BRISTOL
64.6,200,BS1 6FF,BS1 6,BRISTOL,CITY OF BRISTOL,CITY OF BRISTOL
54.2,152,BS1 6FH,BS1 6,BRISTOL,CITY OF BRISTOL,CITY OF BRISTOL
54.2,152,BS1 6FH,BS1 6,BRISTOL,CITY OF BRISTOL,CITY OF BRISTOL
54.2,152,BS1 6FH,BS1 6,BRISTOL,CITY OF BRISTOL,CITY OF BRISTOL
54.2,152,BS1 6FH,BS1 6,BRISTOL,CITY OF BRISTOL,CITY OF BRISTOL
54.2,152,BS1 6FH,BS1 6,BRISTOL,CITY OF BRISTOL,CITY OF BRISTOL
17.8,80,BS1 6HL,BS1 6,BRISTOL,CITY OF BRISTOL,CITY OF BRISTOL
17.8,80,BS1 6HL,BS1 6,BRISTOL,CITY OF BRISTOL,CITY OF BRISTOL
17.8,80,BS1 6HL,BS1 6,BRISTOL,CITY OF BRISTOL,CITY OF BRISTOL
17.8,80,BS1 6HL,BS1 6,BRISTOL,CITY OF BRISTOL,CITY OF BRISTOL
15.9,21.8,BS1 6LA,BS1 6,BRISTOL,CITY OF BRISTOL,CITY OF BRISTOL
15.9,21.8,BS1 6LA,BS1 6,BRISTOL,CITY OF BRISTOL,CITY OF BRISTOL
15.9,21.8,BS1 6LA,BS1 6,BRISTOL,CITY OF BRISTOL,CITY OF BRISTOL
15.9,21.8,BS1 6LA,BS1 6,BRISTOL,CITY OF BRISTOL,CITY OF BRISTOL
15.9,21.8,BS1 6LA,BS1 6,BRISTOL,CITY OF BRISTOL,CITY OF BRISTOL
14.3,23,BS1 6LB,BS1 6,BRISTOL,CITY OF BRISTOL,CITY OF BRISTOL
14.3,23,BS1 6LB,BS1 6,BRISTOL,CITY OF BRISTOL,CITY OF BRISTOL
14.3,23,BS1 6LB,BS1 6,BRISTOL,CITY OF BRISTOL,CITY OF BRISTOL
14.3,23,BS1 6LB,BS1 6,BRISTOL,CITY OF BRISTOL,CITY OF BRISTOL
42.3,106.3,BS2 0BW,BS2 0,BRISTOL,CITY OF BRISTOL,CITY OF BRISTOL
55.2,106.3,BS2 0BX,BS2 0,BRISTOL,CITY OF BRISTOL,CITY OF BRISTOL
55.2,106.3,BS2 0BX,BS2 0,BRISTOL,CITY OF BRISTOL,CITY OF BRISTOL
55.2,106.3,BS2 0BX,BS2 0,BRISTOL,CITY OF BRISTOL,CITY OF BRISTOL
40.1,100,BS2 0BZ,BS2 0,BRISTOL,CITY OF BRISTOL,CITY OF BRISTOL
40.1,100,BS2 0BZ,BS2 0,BRISTOL,CITY OF BRISTOL,CITY OF BRISTOL
48.6,152,BS2 0DF,BS2 0,BRISTOL,CITY OF BRISTOL,CITY OF BRISTOL
48.6,152,BS2 0DF,BS2 0,BRISTOL,CITY OF BRISTOL,CITY OF BRISTOL
48.6,152,BS2 0DF,BS2 0,BRISTOL,CITY OF BRISTOL,CITY OF BRISTOL
48.6,152,BS2 0DF,BS2 0,BRISTOL,CITY OF BRISTOL,CITY OF BRISTOL
48.6,152,BS2 0DF,BS2 0,BRISTOL,CITY OF BRISTOL,CITY OF BRISTOL
48.6,152,BS2 0DF,BS2 0,BRISTOL,CITY OF BRISTOL,CITY OF BRISTOL
48.6,152,BS2 0DF,BS2 0,BRISTOL,CITY OF BRISTOL,CITY OF BRISTOL
48.6,152,BS2 0DF,BS2 0,BRISTOL,CITY OF BRISTOL,CITY OF BRISTOL
48.6,152,BS2 0DF,BS2 0,BRISTOL,CITY OF BRISTOL,CITY OF BRISTOL
48.6,152,BS2 0DF,BS2 0,BRISTOL,CITY OF BRISTOL,CITY OF BRISTOL
48.6,152,BS2 0DF,BS2 0,BRISTOL,CITY OF BRISTOL,CITY OF BRISTOL
48.6,152,BS2 0DF,BS2 0,BRISTOL,CITY OF BRISTOL,CITY OF BRISTOL
48.6,152,BS2 0DF,BS2 0,BRISTOL,CITY OF BRISTOL,CITY OF BRISTOL
48.6,152,BS2 0DF,BS2 0,BRISTOL,CITY OF BRISTOL,CITY OF BRISTOL
16.9,22.1,BS2 0JB,BS2 0,BRISTOL,CITY OF BRISTOL,CITY OF BRISTOL
16.9,22.1,BS2 0JB,BS2 0,BRISTOL,CITY OF BRISTOL,CITY OF BRISTOL
16.9,22.1,BS2 0JB,BS2 0,BRISTOL,CITY OF BRISTOL,CITY OF BRISTOL
16.9,22.1,BS2 0JB,BS2 0,BRISTOL,CITY OF BRISTOL,CITY OF BRISTOL
16.9,22.1,BS2 0JB,BS2 0,BRISTOL,CITY OF BRISTOL,CITY OF BRISTOL
52.1,200,BS2 0JT,BS2 0,BRISTOL,CITY OF BRISTOL,CITY OF BRISTOL
52.1,200,BS2 0JT,BS2 0,BRISTOL,CITY OF BRISTOL,CITY OF BRISTOL
52.1,200,BS2 0JT,BS2 0,BRISTOL,CITY OF BRISTOL,CITY OF BRISTOL
16.5,70.9,BS2 0NR,BS2 0,BRISTOL,CITY OF BRISTOL,CITY OF BRISTOL
16.5,70.9,BS2 0NR,BS2 0,BRISTOL,CITY OF BRISTOL,CITY OF BRISTOL
17,20.6,BS2 0QF,BS2 0,BRISTOL,CITY OF BRISTOL,CITY OF BRISTOL
17.5,23.4,BS2 0XA,BS2 0,BRISTOL,CITY OF BRISTOL,CITY OF BRISTOL
25.1,55,BS2 0XS,BS2 0,BRISTOL,CITY OF BRISTOL,CITY OF BRISTOL
39.2,200,BS2 8HL,BS2 8,BRISTOL,CITY OF BRISTOL,CITY OF BRISTOL
39.2,200,BS2 8HL,BS2 8,BRISTOL,CITY OF BRISTOL,CITY OF BRISTOL
39.2,200,BS2 8HL,BS2 8,BRISTOL,CITY OF BRISTOL,CITY OF BRISTOL
59.6,106.3,BS2 8HS,BS2 8,BRISTOL,CITY OF BRISTOL,CITY OF BRISTOL
59.6,106.3,BS2 8HS,BS2 8,BRISTOL,CITY OF BRISTOL,CITY OF BRISTOL
60.8,200,BS2 8HT,BS2 8,BRISTOL,CITY OF BRISTOL,CITY OF BRISTOL
60.8,200,BS2 8HT,BS2 8,BRISTOL,CITY OF BRISTOL,CITY OF BRISTOL
60.8,200,BS2 8HT,BS2 8,BRISTOL,CITY OF BRISTOL,CITY OF BRISTOL
60.8,200,BS2 8HT,BS2 8,BRISTOL,CITY OF BRISTOL,CITY OF BRISTOL
74.2,200,BS2 8NB,BS2 8,BRISTOL,CITY OF BRISTOL,CITY OF BRISTOL
74.2,200,BS2 8NB,BS2 8,BRISTOL,CITY OF BRISTOL,CITY OF BRISTOL
53.2,106.3,BS2 8NE,BS2 8,BRISTOL,CITY OF BRISTOL,CITY OF BRISTOL
15.2,20,BS2 8PN,BS2 8,BRISTOL,CITY OF BRISTOL,CITY OF BRISTOL
67,200,BS2 8UY,BS2 8,BRISTOL,CITY OF BRISTOL,CITY OF BRISTOL
67,200,BS2 8UY,BS2 8,BRISTOL,CITY OF BRISTOL,CITY OF BRISTOL
21.9,69.6,BS2 9DB,BS2 9,BRISTOL,CITY OF BRISTOL,CITY OF BRISTOL
21.9,69.6,BS2 9DB,BS2 9,BRISTOL,CITY OF BRISTOL,CITY OF BRISTOL
60.7,200,BS2 9LL,BS2 9,BRISTOL,CITY OF BRISTOL,CITY OF BRISTOL
60.7,200,BS2 9LL,BS2 9,BRISTOL,CITY OF BRISTOL,CITY OF BRISTOL
60.7,200,BS2 9LL,BS2 9,BRISTOL,CITY OF BRISTOL,CITY OF BRISTOL
60.7,200,BS2 9LL,BS2 9,BRISTOL,CITY OF BRISTOL,CITY OF BRISTOL
60.7,200,BS2 9LL,BS2 9,BRISTOL,CITY OF BRISTOL,CITY OF BRISTOL
60.7,200,BS2 9LL,BS2 9,BRISTOL,CITY OF BRISTOL,CITY OF BRISTOL
60.7,200,BS2 9LL,BS2 9,BRISTOL,CITY OF BRISTOL,CITY OF BRISTOL
60.7,200,BS2 9LL,BS2 9,BRISTOL,CITY OF BRISTOL,CITY OF BRISTOL
60.7,200,BS2 9LL,BS2 9,BRISTOL,CITY OF BRISTOL,CITY OF BRISTOL
60.7,200,BS2 9LL,BS2 9,BRISTOL,CITY OF BRISTOL,CITY OF BRISTOL
60.7,200,BS2 9LL,BS2 9,BRISTOL,CITY OF BRISTOL,CITY OF BRISTOL
74.6,200,BS3 1AR,BS3 1,BRISTOL,CITY OF BRISTOL,CITY OF BRISTOL
74.6,200,BS3 1AR,BS3 1,BRISTOL,CITY OF BRISTOL,CITY OF BRISTOL
74.6,200,BS3 1AR,BS3 1,BRISTOL,CITY OF BRISTOL,CITY OF BRISTOL
74.6,200,BS3 1AR,BS3 1,BRISTOL,CITY OF BRISTOL,CITY OF BRISTOL
74.6,200,BS3 1AR,BS3 1,BRISTOL,CITY OF BRISTOL,CITY OF BRISTOL
74.6,200,BS3 1AR,BS3 1,BRISTOL,CITY OF BRISTOL,CITY OF BRISTOL
74.6,200,BS3 1AR,BS3 1,BRISTOL,CITY OF BRISTOL,CITY OF BRISTOL
66.7,200,BS3 1AS,BS3 1,BRISTOL,CITY OF BRISTOL,CITY OF BRISTOL
70.7,200,BS3 1AT,BS3 1,BRISTOL,CITY OF BRISTOL,CITY OF BRISTOL
70.7,200,BS3 1AT,BS3 1,BRISTOL,CITY OF BRISTOL,CITY OF BRISTOL
70.7,200,BS3 1AT,BS3 1,BRISTOL,CITY OF BRISTOL,CITY OF BRISTOL
70.7,200,BS3 1AT,BS3 1,BRISTOL,CITY OF BRISTOL,CITY OF BRISTOL
70.7,200,BS3 1AT,BS3 1,BRISTOL,CITY OF BRISTOL,CITY OF BRISTOL
70.7,200,BS3 1AT,BS3 1,BRISTOL,CITY OF BRISTOL,CITY OF BRISTOL
70.7,200,BS3 1AT,BS3 1,BRISTOL,CITY OF BRISTOL,CITY OF BRISTOL
70.7,200,BS3 1AT,BS3 1,BRISTOL,CITY OF BRISTOL,CITY OF BRISTOL
83.1,200,BS3 1AX,BS3 1,BRISTOL,CITY OF BRISTOL,CITY OF BRISTOL
83.1,200,BS3 1AX,BS3 1,BRISTOL,CITY OF BRISTOL,CITY OF BRISTOL
83.1,200,BS3 1AX,BS3 1,BRISTOL,CITY OF BRISTOL,CITY OF BRISTOL
83.1,200,BS3 1AX,BS3 1,BRISTOL,CITY OF BRISTOL,CITY OF BRISTOL
83.3,200,BS3 1AZ,BS3 1,BRISTOL,CITY OF BRISTOL,CITY OF BRISTOL
83.3,200,BS3 1AZ,BS3 1,BRISTOL,CITY OF BRISTOL,CITY OF BRISTOL
83.3,200,BS3 1AZ,BS3 1,BRISTOL,CITY OF BRISTOL,CITY OF BRISTOL
31.4,106.3,BS3 1BH,BS3 1,BRISTOL,CITY OF BRISTOL,CITY OF BRISTOL
31.4,106.3,BS3 1BH,BS3 1,BRISTOL,CITY OF BRISTOL,CITY OF BRISTOL
31.4,106.3,BS3 1BH,BS3 1,BRISTOL,CITY OF BRISTOL,CITY OF BRISTOL
31.4,106.3,BS3 1BH,BS3 1,BRISTOL,CITY OF BRISTOL,CITY OF BRISTOL
31.4,106.3,BS3 1BH,BS3 1,BRISTOL,CITY OF BRISTOL,CITY OF BRISTOL
49.6,100,BS3 1BN,BS3 1,BRISTOL,CITY OF BRISTOL,CITY OF BRISTOL
60,100,BS3 1DL,BS3 1,BRISTOL,CITY OF BRISTOL,CITY OF BRISTOL
60,100,BS3 1DL,BS3 1,BRISTOL,CITY OF BRISTOL,CITY OF BRISTOL
60,100,BS3 1DL,BS3 1,BRISTOL,CITY OF BRISTOL,CITY OF BRISTOL
60,100,BS3 1DL,BS3 1,BRISTOL,CITY OF BRISTOL,CITY OF BRISTOL
60,100,BS3 1DL,BS3 1,BRISTOL,CITY OF BRISTOL,CITY OF BRISTOL
69.5,200,BS3 1EE,BS3 1,BRISTOL,CITY OF BRISTOL,CITY OF BRISTOL
51.4,106.3,BS3 1EN,BS3 1,BRISTOL,CITY OF BRISTOL,CITY OF BRISTOL
66.4,200,BS3 1ES,BS3 1,BRISTOL,CITY OF BRISTOL,CITY OF BRISTOL
66.4,200,BS3 1ES,BS3 1,BRISTOL,CITY OF BRISTOL,CITY OF BRISTOL
26.9,48.1,BS3 1FE,BS3 1,BRISTOL,CITY OF BRISTOL,CITY OF BRISTOL
26.9,48.1,BS3 1FE,BS3 1,BRISTOL,CITY OF BRISTOL,CITY OF BRISTOL
70.9,100,BS3 1HA,BS3 1,BRISTOL,CITY OF BRISTOL,CITY OF BRISTOL
61.9,200,BS3 1HF,BS3 1,BRISTOL,CITY OF BRISTOL,CITY OF BRISTOL
61.9,200,BS3 1HF,BS3 1,BRISTOL,CITY OF BRISTOL,CITY OF BRISTOL
61.9,200,BS3 1HF,BS3 1,BRISTOL,CITY OF BRISTOL,CITY OF BRISTOL
61.9,200,BS3 1HF,BS3 1,BRISTOL,CITY OF BRISTOL,CITY OF BRISTOL
85.1,200,BS3 1HJ,BS3 1,BRISTOL,CITY OF BRISTOL,CITY OF BRISTOL
85.1,200,BS3 1HJ,BS3 1,BRISTOL,CITY OF BRISTOL,CITY OF BRISTOL
85.1,200,BS3 1HJ,BS3 1,BRISTOL,CITY OF BRISTOL,CITY OF BRISTOL
85.1,200,BS3 1HJ,BS3 1,BRISTOL,CITY OF BRISTOL,CITY OF BRISTOL
73.1,200,BS3 1HT,BS3 1,BRISTOL,CITY OF BRISTOL,CITY OF BRISTOL
65.1,200,BS3 1JD,BS3 1,BRISTOL,CITY OF BRISTOL,CITY OF BRISTOL
65.1,200,BS3 1JD,BS3 1,BRISTOL,CITY OF BRISTOL,CITY OF BRISTOL
65.1,200,BS3 1JD,BS3 1,BRISTOL,CITY OF BRISTOL,CITY OF BRISTOL
65.1,200,BS3 1JD,BS3 1,BRISTOL,CITY OF BRISTOL,CITY OF BRISTOL
75,200,BS3 1JF,BS3 1,BRISTOL,CITY OF BRISTOL,CITY OF BRISTOL
51.3,200,BS3 1JQ,BS3 1,BRISTOL,CITY OF BRISTOL,CITY OF BRISTOL
51.3,200,BS3 1JQ,BS3 1,BRISTOL,CITY OF BRISTOL,CITY OF BRISTOL
51.3,200,BS3 1JQ,BS3 1,BRISTOL,CITY OF BRISTOL,CITY OF BRISTOL
77.9,200,BS3 1LJ,BS3 1,BRISTOL,CITY OF BRISTOL,CITY OF BRISTOL
77.9,200,BS3 1LJ,BS3 1,BRISTOL,CITY OF BRISTOL,CITY OF BRISTOL
77.9,200,BS3 1LJ,BS3 1,BRISTOL,CITY OF BRISTOL,CITY OF BRISTOL
119.1,200,BS3 1NT,BS3 1,BRISTOL,CITY OF BRISTOL,CITY OF BRISTOL
68.9,150,BS3 1PA,BS3 1,BRISTOL,CITY OF BRISTOL,CITY OF BRISTOL
68.9,150,BS3 1PA,BS3 1,BRISTOL,CITY OF BRISTOL,CITY OF BRISTOL
64.5,200,BS3 1PD,BS3 1,BRISTOL,CITY OF BRISTOL,CITY OF BRISTOL
64.5,200,BS3 1PD,BS3 1,BRISTOL,CITY OF BRISTOL,CITY OF BRISTOL
41.7,74.7,BS3 1PJ,BS3 1,BRISTOL,CITY OF BRISTOL,CITY OF BRISTOL
41.7,74.7,BS3 1PJ,BS3 1,BRISTOL,CITY OF BRISTOL,CITY OF BRISTOL
76.2,200,BS3 1PR,BS3 1,BRISTOL,CITY OF BRISTOL,CITY OF BRISTOL
66.5,200,BS3 1RE,BS3 1,BRISTOL,CITY OF BRISTOL,CITY OF BRISTOL
66.5,200,BS3 1RE,BS3 1,BRISTOL,CITY OF BRISTOL,CITY OF BRISTOL
66.5,200,BS3 1RE,BS3 1,BRISTOL,CITY OF BRISTOL,CITY OF BRISTOL
66.5,200,BS3 1RE,BS3 1,BRISTOL,CITY OF BRISTOL,CITY OF BRISTOL
66.5,200,BS3 1RE,BS3 1,BRISTOL,CITY OF BRISTOL,CITY OF BRISTOL
66.5,200,BS3 1RE,BS3 1,BRISTOL,CITY OF BRISTOL,CITY OF BRISTOL
62.5,200,BS3 1RF,BS3 1,BRISTOL,CITY OF BRISTOL,CITY OF BRISTOL
62.5,200,BS3 1RF,BS3 1,BRISTOL,CITY OF BRISTOL,CITY OF BRISTOL
62.5,200,BS3 1RF,BS3 1,BRISTOL,CITY OF BRISTOL,CITY OF BRISTOL
62.5,200,BS3 1RF,BS3 1,BRISTOL,CITY OF BRISTOL,CITY OF BRISTOL
62.5,200,BS3 1RF,BS3 1,BRISTOL,CITY OF BRISTOL,CITY OF BRISTOL
62.5,200,BS3 1RF,BS3 1,BRISTOL,CITY OF BRISTOL,CITY OF BRISTOL
62.5,200,BS3 1RF,BS3 1,BRISTOL,CITY OF BRISTOL,CITY OF BRISTOL
62.5,200,BS3 1RF,BS3 1,BRISTOL,CITY OF BRISTOL,CITY OF BRISTOL
71.4,200,BS3 1RH,BS3 1,BRISTOL,CITY OF BRISTOL,CITY OF BRISTOL
84.4,200,BS3 1RL,BS3 1,BRISTOL,CITY OF BRISTOL,CITY OF BRISTOL
72.5,200,BS3 1RS,BS3 1,BRISTOL,CITY OF BRISTOL,CITY OF BRISTOL
72.5,200,BS3 1RS,BS3 1,BRISTOL,CITY OF BRISTOL,CITY OF BRISTOL
72.5,200,BS3 1RS,BS3 1,BRISTOL,CITY OF BRISTOL,CITY OF BRISTOL
72.5,200,BS3 1RS,BS3 1,BRISTOL,CITY OF BRISTOL,CITY OF BRISTOL
72.5,200,BS3 1RS,BS3 1,BRISTOL,CITY OF BRISTOL,CITY OF BRISTOL
67.2,200,BS3 3JF,BS3 3,BRISTOL,CITY OF BRISTOL,CITY OF BRISTOL
78.2,200,BS3 3LH,BS3 3,BRISTOL,CITY OF BRISTOL,CITY OF BRISTOL
78.2,200,BS3 3LH,BS3 3,BRISTOL,CITY OF BRISTOL,CITY OF BRISTOL
78.2,200,BS3 3LH,BS3 3,BRISTOL,CITY OF BRISTOL,CITY OF BRISTOL
78.2,200,BS3 3LH,BS3 3,BRISTOL,CITY OF BRISTOL,CITY OF BRISTOL
78.2,200,BS3 3LH,BS3 3,BRISTOL,CITY OF BRISTOL,CITY OF BRISTOL
78.2,200,BS3 3LH,BS3 3,BRISTOL,CITY OF BRISTOL,CITY OF BRISTOL
78.2,200,BS3 3LH,BS3 3,BRISTOL,CITY OF BRISTOL,CITY OF BRISTOL
65.4,200,BS3 3LL,BS3 3,BRISTOL,CITY OF BRISTOL,CITY OF BRISTOL
65.4,200,BS3 3LL,BS3 3,BRISTOL,CITY OF BRISTOL,CITY OF BRISTOL
65.4,200,BS3 3LL,BS3 3,BRISTOL,CITY OF BRISTOL,CITY OF BRISTOL
65.4,200,BS3 3LL,BS3 3,BRISTOL,CITY OF BRISTOL,CITY OF BRISTOL
42.8,106.3,BS3 3NA,BS3 3,BRISTOL,CITY OF BRISTOL,CITY OF BRISTOL
42.8,106.3,BS3 3NA,BS3 3,BRISTOL,CITY OF BRISTOL,CITY OF BRISTOL
42.8,106.3,BS3 3NA,BS3 3,BRISTOL,CITY OF BRISTOL,CITY OF BRISTOL
42.8,106.3,BS3 3NA,BS3 3,BRISTOL,CITY OF BRISTOL,CITY OF BRISTOL
42.8,106.3,BS3 3NA,BS3 3,BRISTOL,CITY OF BRISTOL,CITY OF BRISTOL
42.8,106.3,BS3 3NA,BS3 3,BRISTOL,CITY OF BRISTOL,CITY OF BRISTOL
42.8,106.3,BS3 3NA,BS3 3,BRISTOL,CITY OF BRISTOL,CITY OF BRISTOL
42.8,106.3,BS3 3NA,BS3 3,BRISTOL,CITY OF BRISTOL,CITY OF BRISTOL
77.9,200,BS3 3NB,BS3 3,BRISTOL,CITY OF BRISTOL,CITY OF BRISTOL
77.9,200,BS3 3NB,BS3 3,BRISTOL,CITY OF BRISTOL,CITY OF BRISTOL
77.9,200,BS3 3NB,BS3 3,BRISTOL,CITY OF BRISTOL,CITY OF BRISTOL
77.9,200,BS3 3NB,BS3 3,BRISTOL,CITY OF BRISTOL,CITY OF BRISTOL
77.9,200,BS3 3NB,BS3 3,BRISTOL,CITY OF BRISTOL,CITY OF BRISTOL
77.9,200,BS3 3NB,BS3 3,BRISTOL,CITY OF BRISTOL,CITY OF BRISTOL
77.9,200,BS3 3NB,BS3 3,BRISTOL,CITY OF BRISTOL,CITY OF BRISTOL
77.7,200,BS3 3NE,BS3 3,BRISTOL,CITY OF BRISTOL,CITY OF BRISTOL
30.3,80,BS3 3NG,BS3 3,BRISTOL,CITY OF BRISTOL,CITY OF BRISTOL
30.3,80,BS3 3NG,BS3 3,BRISTOL,CITY OF BRISTOL,CITY OF BRISTOL
30.3,80,BS3 3NG,BS3 3,BRISTOL,CITY OF BRISTOL,CITY OF BRISTOL
30.3,80,BS3 3NG,BS3 3,BRISTOL,CITY OF BRISTOL,CITY OF BRISTOL
30.3,80,BS3 3NG,BS3 3,BRISTOL,CITY OF BRISTOL,CITY OF BRISTOL
30.3,80,BS3 3NG,BS3 3,BRISTOL,CITY OF BRISTOL,CITY OF BRISTOL
30.3,80,BS3 3NG,BS3 3,BRISTOL,CITY OF BRISTOL,CITY OF BRISTOL
32.8,80,BS3 3NL,BS3 3,BRISTOL,CITY OF BRISTOL,CITY OF BRISTOL
32.8,80,BS3 3NL,BS3 3,BRISTOL,CITY OF BRISTOL,CITY OF BRISTOL
32.8,80,BS3 3NL,BS3 3,BRISTOL,CITY OF BRISTOL,CITY OF BRISTOL
32.8,80,BS3 3NL,BS3 3,BRISTOL,CITY OF BRISTOL,CITY OF BRISTOL
32.8,80,BS3 3NL,BS3 3,BRISTOL,CITY OF BRISTOL,CITY OF BRISTOL
32.8,80,BS3 3NL,BS3 3,BRISTOL,CITY OF BRISTOL,CITY OF BRISTOL
32.8,80,BS3 3NL,BS3 3,BRISTOL,CITY OF BRISTOL,CITY OF BRISTOL
32.8,80,BS3 3NL,BS3 3,BRISTOL,CITY OF BRISTOL,CITY OF BRISTOL
32.8,80,BS3 3NL,BS3 3,BRISTOL,CITY OF BRISTOL,CITY OF BRISTOL
32.8,80,BS3 3NL,BS3 3,BRISTOL,CITY OF BRISTOL,CITY OF BRISTOL
27,72.6,BS3 3NQ,BS3 3,BRISTOL,CITY OF BRISTOL,CITY OF BRISTOL
27,72.6,BS3 3NQ,BS3 3,BRISTOL,CITY OF BRISTOL,CITY OF BRISTOL
27,72.6,BS3 3NQ,BS3 3,BRISTOL,CITY OF BRISTOL,CITY OF BRISTOL
27,72.6,BS3 3NQ,BS3 3,BRISTOL,CITY OF BRISTOL,CITY OF BRISTOL
27,72.6,BS3 3NQ,BS3 3,BRISTOL,CITY OF BRISTOL,CITY OF BRISTOL
27,72.6,BS3 3NQ,BS3 3,BRISTOL,CITY OF BRISTOL,CITY OF BRISTOL
48.3,200,BS3 3NU,BS3 3,BRISTOL,CITY OF BRISTOL,CITY OF BRISTOL
48.3,200,BS3 3NU,BS3 3,BRISTOL,CITY OF BRISTOL,CITY OF BRISTOL
48.3,200,BS3 3NU,BS3 3,BRISTOL,CITY OF BRISTOL,CITY OF BRISTOL
48.3,200,BS3 3NU,BS3 3,BRISTOL,CITY OF BRISTOL,CITY OF BRISTOL
48.3,200,BS3 3NU,BS3 3,BRISTOL,CITY OF BRISTOL,CITY OF BRISTOL
48.3,200,BS3 3NU,BS3 3,BRISTOL,CITY OF BRISTOL,CITY OF BRISTOL
48.3,200,BS3 3NU,BS3 3,BRISTOL,CITY OF BRISTOL,CITY OF BRISTOL
48.3,200,BS3 3NU,BS3 3,BRISTOL,CITY OF BRISTOL,CITY OF BRISTOL
48.3,200,BS3 3NU,BS3 3,BRISTOL,CITY OF BRISTOL,CITY OF BRISTOL
87.1,150,BS3 3PD,BS3 3,BRISTOL,CITY OF BRISTOL,CITY OF BRISTOL
87.1,150,BS3 3PD,BS3 3,BRISTOL,CITY OF BRISTOL,CITY OF BRISTOL
87.1,150,BS3 3PD,BS3 3,BRISTOL,CITY OF BRISTOL,CITY OF BRISTOL
87.1,150,BS3 3PD,BS3 3,BRISTOL,CITY OF BRISTOL,CITY OF BRISTOL
69.8,200,BS3 3PZ,BS3 3,BRISTOL,CITY OF BRISTOL,CITY OF BRISTOL
69.8,200,BS3 3PZ,BS3 3,BRISTOL,CITY OF BRISTOL,CITY OF BRISTOL
45.6,106.3,BS3 4AL,BS3 4,BRISTOL,CITY OF BRISTOL,CITY OF BRISTOL
45.6,106.3,BS3 4AL,BS3 4,BRISTOL,CITY OF BRISTOL,CITY OF BRISTOL
45.6,106.3,BS3 4AL,BS3 4,BRISTOL,CITY OF BRISTOL,CITY OF BRISTOL
30.2,80,BS3 4AP,BS3 4,BRISTOL,CITY OF BRISTOL,CITY OF BRISTOL
30.2,80,BS3 4AP,BS3 4,BRISTOL,CITY OF BRISTOL,CITY OF BRISTOL
30.2,80,BS3 4AP,BS3 4,BRISTOL,CITY OF BRISTOL,CITY OF BRISTOL
30.2,80,BS3 4AP,BS3 4,BRISTOL,CITY OF BRISTOL,CITY OF BRISTOL
30.2,80,BS3 4AP,BS3 4,BRISTOL,CITY OF BRISTOL,CITY OF BRISTOL
30.2,80,BS3 4AP,BS3 4,BRISTOL,CITY OF BRISTOL,CITY OF BRISTOL
30.2,80,BS3 4AP,BS3 4,BRISTOL,CITY OF BRISTOL,CITY OF BRISTOL
30.2,80,BS3 4AP,BS3 4,BRISTOL,CITY OF BRISTOL,CITY OF BRISTOL
30.2,80,BS3 4AP,BS3 4,BRISTOL,CITY OF BRISTOL,CITY OF BRISTOL
30.2,80,BS3 4AP,BS3 4,BRISTOL,CITY OF BRISTOL,CITY OF BRISTOL
32.2,75.8,BS3 4BZ,BS3 4,BRISTOL,CITY OF BRISTOL,CITY OF BRISTOL
32.2,75.8,BS3 4BZ,BS3 4,BRISTOL,CITY OF BRISTOL,CITY OF BRISTOL
62.2,200,BS3 4DG,BS3 4,BRISTOL,CITY OF BRISTOL,CITY OF BRISTOL
58.4,200,BS3 4EJ,BS3 4,BRISTOL,CITY OF BRISTOL,CITY OF BRISTOL
53.3,200,BS3 4EX,BS3 4,BRISTOL,CITY OF BRISTOL,CITY OF BRISTOL
53.3,200,BS3 4EX,BS3 4,BRISTOL,CITY OF BRISTOL,CITY OF BRISTOL
53.3,200,BS3 4EX,BS3 4,BRISTOL,CITY OF BRISTOL,CITY OF BRISTOL
53.3,200,BS3 4EX,BS3 4,BRISTOL,CITY OF BRISTOL,CITY OF BRISTOL
53.3,200,BS3 4EX,BS3 4,BRISTOL,CITY OF BRISTOL,CITY OF BRISTOL
33.9,100,BS3 4HB,BS3 4,BRISTOL,CITY OF BRISTOL,CITY OF BRISTOL
33.9,100,BS3 4HB,BS3 4,BRISTOL,CITY OF BRISTOL,CITY OF BRISTOL
33.9,100,BS3 4HB,BS3 4,BRISTOL,CITY OF BRISTOL,CITY OF BRISTOL
56.8,200,BS3 4HH,BS3 4,BRISTOL,CITY OF BRISTOL,CITY OF BRISTOL
73,200,BS3 4NE,BS3 4,BRISTOL,CITY OF BRISTOL,CITY OF BRISTOL
57.3,100,BS3 4NR,BS3 4,BRISTOL,CITY OF BRISTOL,CITY OF BRISTOL
57.3,100,BS3 4NR,BS3 4,BRISTOL,CITY OF BRISTOL,CITY OF BRISTOL
79,200,BS3 4NS,BS3 4,BRISTOL,CITY OF BRISTOL,CITY OF BRISTOL
79,200,BS3 4NS,BS3 4,BRISTOL,CITY OF BRISTOL,CITY OF BRISTOL
76.8,150,BS3 4PD,BS3 4,BRISTOL,CITY OF BRISTOL,CITY OF BRISTOL
73.4,200,BS3 4RL,BS3 4,BRISTOL,CITY OF BRISTOL,CITY OF BRISTOL
78.2,200,BS3 4TR,BS3 4,BRISTOL,CITY OF BRISTOL,CITY OF BRISTOL
76.3,200,BS3 4TY,BS3 4,BRISTOL,CITY OF BRISTOL,CITY OF BRISTOL
76.3,200,BS3 4TY,BS3 4,BRISTOL,CITY OF BRISTOL,CITY OF BRISTOL
76.3,200,BS3 4TY,BS3 4,BRISTOL,CITY OF BRISTOL,CITY OF BRISTOL
76.3,200,BS3 4TY,BS3 4,BRISTOL,CITY OF BRISTOL,CITY OF BRISTOL
86.3,200,BS3 4UD,BS3 4,BRISTOL,CITY OF BRISTOL,CITY OF BRISTOL
73.4,200,BS3 4UF,BS3 4,BRISTOL,CITY OF BRISTOL,CITY OF BRISTOL
73.4,200,BS3 4UF,BS3 4,BRISTOL,CITY OF BRISTOL,CITY OF BRISTOL
15.7,17.7,BS3 5DP,BS3 5,BRISTOL,CITY OF BRISTOL,CITY OF BRISTOL
15.7,17.7,BS3 5DP,BS3 5,BRISTOL,CITY OF BRISTOL,CITY OF BRISTOL
15.7,17.7,BS3 5DP,BS3 5,BRISTOL,CITY OF BRISTOL,CITY OF BRISTOL
15.7,17.7,BS3 5DP,BS3 5,BRISTOL,CITY OF BRISTOL,CITY OF BRISTOL
15.7,17.7,BS3 5DP,BS3 5,BRISTOL,CITY OF BRISTOL,CITY OF BRISTOL
15.7,17.7,BS3 5DP,BS3 5,BRISTOL,CITY OF BRISTOL,CITY OF BRISTOL
15.7,17.7,BS3 5DP,BS3 5,BRISTOL,CITY OF BRISTOL,CITY OF BRISTOL
73.3,200,BS4 2BG,BS4 2,BRISTOL,CITY OF BRISTOL,CITY OF BRISTOL
73.3,200,BS4 2BG,BS4 2,BRISTOL,CITY OF BRISTOL,CITY OF BRISTOL
62.7,200,BS4 2JP,BS4 2,BRISTOL,CITY OF BRISTOL,CITY OF BRISTOL
69.9,200,BS4 2LR,BS4 2,BRISTOL,CITY OF BRISTOL,CITY OF BRISTOL
24.7,70.8,BS4 3AT,BS4 3,BRISTOL,CITY OF BRISTOL,CITY OF BRISTOL
24.7,70.8,BS4 3AT,BS4 3,BRISTOL,CITY OF BRISTOL,CITY OF BRISTOL
24.7,70.8,BS4 3AT,BS4 3,BRISTOL,CITY OF BRISTOL,CITY OF BRISTOL
24.7,70.8,BS4 3AT,BS4 3,BRISTOL,CITY OF BRISTOL,CITY OF BRISTOL
75.5,200,BS4 3BL,BS4 3,BRISTOL,CITY OF BRISTOL,CITY OF BRISTOL
84.7,200,BS4 3DF,BS4 3,BRISTOL,CITY OF BRISTOL,CITY OF BRISTOL
19.3,21.2,BS4 3DJ,BS4 3,BRISTOL,CITY OF BRISTOL,CITY OF BRISTOL
85.7,152,BS4 3EA,BS4 3,BRISTOL,CITY OF BRISTOL,CITY OF BRISTOL
85.7,152,BS4 3EA,BS4 3,BRISTOL,CITY OF BRISTOL,CITY OF BRISTOL
85.7,152,BS4 3EA,BS4 3,BRISTOL,CITY OF BRISTOL,CITY OF BRISTOL
85.7,152,BS4 3EA,BS4 3,BRISTOL,CITY OF BRISTOL,CITY OF BRISTOL
85.7,152,BS4 3EA,BS4 3,BRISTOL,CITY OF BRISTOL,CITY OF BRISTOL
42.1,200,BS4 3EF,BS4 3,BRISTOL,CITY OF BRISTOL,CITY OF BRISTOL
42.1,200,BS4 3EF,BS4 3,BRISTOL,CITY OF BRISTOL,CITY OF BRISTOL
59.1,200,BS4 3EN,BS4 3,BRISTOL,CITY OF BRISTOL,CITY OF BRISTOL
59.1,200,BS4 3EN,BS4 3,BRISTOL,CITY OF BRISTOL,CITY OF BRISTOL
59.1,200,BS4 3EN,BS4 3,BRISTOL,CITY OF BRISTOL,CITY OF BRISTOL
59.1,200,BS4 3EN,BS4 3,BRISTOL,CITY OF BRISTOL,CITY OF BRISTOL
59.1,200,BS4 3EN,BS4 3,BRISTOL,CITY OF BRISTOL,CITY OF BRISTOL
80.8,200,BS4 3EQ,BS4 3,BRISTOL,CITY OF BRISTOL,CITY OF BRISTOL
80.8,200,BS4 3EQ,BS4 3,BRISTOL,CITY OF BRISTOL,CITY OF BRISTOL
80.8,200,BS4 3EQ,BS4 3,BRISTOL,CITY OF BRISTOL,CITY OF BRISTOL
80.8,200,BS4 3EQ,BS4 3,BRISTOL,CITY OF BRISTOL,CITY OF BRISTOL
80.8,200,BS4 3EQ,BS4 3,BRISTOL,CITY OF BRISTOL,CITY OF BRISTOL
47.8,200,BS4 3EU,BS4 3,BRISTOL,CITY OF BRISTOL,CITY OF BRISTOL
47.8,200,BS4 3EU,BS4 3,BRISTOL,CITY OF BRISTOL,CITY OF BRISTOL
51.8,100,BS4 3EZ,BS4 3,BRISTOL,CITY OF BRISTOL,CITY OF BRISTOL
51.8,100,BS4 3EZ,BS4 3,BRISTOL,CITY OF BRISTOL,CITY OF BRISTOL
51.8,100,BS4 3EZ,BS4 3,BRISTOL,CITY OF BRISTOL,CITY OF BRISTOL
76.7,200,BS4 3JU,BS4 3,BRISTOL,CITY OF BRISTOL,CITY OF BRISTOL
76.7,200,BS4 3JU,BS4 3,BRISTOL,CITY OF BRISTOL,CITY OF BRISTOL
76.7,200,BS4 3JU,BS4 3,BRISTOL,CITY OF BRISTOL,CITY OF BRISTOL
76.7,200,BS4 3JU,BS4 3,BRISTOL,CITY OF BRISTOL,CITY OF BRISTOL
86.2,200,BS4 3JY,BS4 3,BRISTOL,CITY OF BRISTOL,CITY OF BRISTOL
88.7,200,BS4 3LB,BS4 3,BRISTOL,CITY OF BRISTOL,CITY OF BRISTOL
72.1,200,BS4 3LE,BS4 3,BRISTOL,CITY OF BRISTOL,CITY OF BRISTOL
72.1,200,BS4 3LE,BS4 3,BRISTOL,CITY OF BRISTOL,CITY OF BRISTOL
72.1,200,BS4 3LE,BS4 3,BRISTOL,CITY OF BRISTOL,CITY OF BRISTOL
72.1,200,BS4 3LE,BS4 3,BRISTOL,CITY OF BRISTOL,CITY OF BRISTOL
72.1,200,BS4 3LE,BS4 3,BRISTOL,CITY OF BRISTOL,CITY OF BRISTOL
78.8,150,BS4 3LF,BS4 3,BRISTOL,CITY OF BRISTOL,CITY OF BRISTOL
55,200,BS4 3LG,BS4 3,BRISTOL,CITY OF BRISTOL,CITY OF BRISTOL
77.1,200,BS4 3NQ,BS4 3,BRISTOL,CITY OF BRISTOL,CITY OF BRISTOL
77.1,200,BS4 3NQ,BS4 3,BRISTOL,CITY OF BRISTOL,CITY OF BRISTOL
21.6,80,BS4 3TA,BS4 3,BRISTOL,CITY OF BRISTOL,CITY OF BRISTOL
92.7,200,BS4 4ET,BS4 4,BRISTOL,CITY OF BRISTOL,CITY OF BRISTOL
69.3,150,BS4 4RQ,BS4 4,BRISTOL,CITY OF BRISTOL,CITY OF BRISTOL
69.3,150,BS4 4RQ,BS4 4,BRISTOL,CITY OF BRISTOL,CITY OF BRISTOL
78.7,200,BS4 5AW,BS4 5,BRISTOL,CITY OF BRISTOL,CITY OF BRISTOL
78.7,200,BS4 5AW,BS4 5,BRISTOL,CITY OF BRISTOL,CITY OF BRISTOL
78.7,200,BS4 5AW,BS4 5,BRISTOL,CITY OF BRISTOL,CITY OF BRISTOL
78.7,200,BS4 5AW,BS4 5,BRISTOL,CITY OF BRISTOL,CITY OF BRISTOL
78.7,200,BS4 5AW,BS4 5,BRISTOL,CITY OF BRISTOL,CITY OF BRISTOL
31,80,BS4 5RG,BS4 5,BRISTOL,CITY OF BRISTOL,CITY OF BRISTOL
25.9,40,BS4 5RT,BS4 5,BRISTOL,CITY OF BRISTOL,CITY OF BRISTOL
25.9,40,BS4 5RT,BS4 5,BRISTOL,CITY OF BRISTOL,CITY OF BRISTOL
25.9,40,BS4 5RT,BS4 5,BRISTOL,CITY OF BRISTOL,CITY OF BRISTOL
25.9,40,BS4 5RT,BS4 5,BRISTOL,CITY OF BRISTOL,CITY OF BRISTOL
25.9,40,BS4 5RT,BS4 5,BRISTOL,CITY OF BRISTOL,CITY OF BRISTOL
25.9,40,BS4 5RT,BS4 5,BRISTOL,CITY OF BRISTOL,CITY OF BRISTOL
25.9,40,BS4 5RT,BS4 5,BRISTOL,CITY OF BRISTOL,CITY OF BRISTOL
25.9,40,BS4 5RT,BS4 5,BRISTOL,CITY OF BRISTOL,CITY OF BRISTOL
25.9,40,BS4 5RT,BS4 5,BRISTOL,CITY OF BRISTOL,CITY OF BRISTOL
25.9,40,BS4 5RT,BS4 5,BRISTOL,CITY OF BRISTOL,CITY OF BRISTOL
25.9,40,BS4 5RT,BS4 5,BRISTOL,CITY OF BRISTOL,CITY OF BRISTOL
25.9,40,BS4 5RT,BS4 5,BRISTOL,CITY OF BRISTOL,CITY OF BRISTOL
25.9,40,BS4 5RT,BS4 5,BRISTOL,CITY OF BRISTOL,CITY OF BRISTOL
25.9,40,BS4 5RT,BS4 5,BRISTOL,CITY OF BRISTOL,CITY OF BRISTOL
60.5,200,BS5 0JG,BS5 0,BRISTOL,CITY OF BRISTOL,CITY OF BRISTOL
38.2,78.6,BS5 0RD,BS5 0,BRISTOL,CITY OF BRISTOL,CITY OF BRISTOL
38.2,78.6,BS5 0RD,BS5 0,BRISTOL,CITY OF BRISTOL,CITY OF BRISTOL
38.2,78.6,BS5 0RD,BS5 0,BRISTOL,CITY OF BRISTOL,CITY OF BRISTOL
48.1,152,BS5 0SQ,BS5 0,BRISTOL,CITY OF BRISTOL,CITY OF BRISTOL
48.1,152,BS5 0SQ,BS5 0,BRISTOL,CITY OF BRISTOL,CITY OF BRISTOL
48.1,152,BS5 0SQ,BS5 0,BRISTOL,CITY OF BRISTOL,CITY OF BRISTOL
48.1,152,BS5 0SQ,BS5 0,BRISTOL,CITY OF BRISTOL,CITY OF BRISTOL
48.1,152,BS5 0SQ,BS5 0,BRISTOL,CITY OF BRISTOL,CITY OF BRISTOL
48.1,152,BS5 0SQ,BS5 0,BRISTOL,CITY OF BRISTOL,CITY OF BRISTOL
48.1,152,BS5 0SQ,BS5 0,BRISTOL,CITY OF BRISTOL,CITY OF BRISTOL
50.8,200,BS5 0UN,BS5 0,BRISTOL,CITY OF BRISTOL,CITY OF BRISTOL
50.8,200,BS5 0UN,BS5 0,BRISTOL,CITY OF BRISTOL,CITY OF BRISTOL
50.8,200,BS5 0UN,BS5 0,BRISTOL,CITY OF BRISTOL,CITY OF BRISTOL
47.2,200,BS5 6BX,BS5 6,BRISTOL,CITY OF BRISTOL,CITY OF BRISTOL
47.2,200,BS5 6BX,BS5 6,BRISTOL,CITY OF BRISTOL,CITY OF BRISTOL
47.2,200,BS5 6BX,BS5 6,BRISTOL,CITY OF BRISTOL,CITY OF BRISTOL
47.2,200,BS5 6BX,BS5 6,BRISTOL,CITY OF BRISTOL,CITY OF BRISTOL
47.2,200,BS5 6BX,BS5 6,BRISTOL,CITY OF BRISTOL,CITY OF BRISTOL
47.2,200,BS5 6BX,BS5 6,BRISTOL,CITY OF BRISTOL,CITY OF BRISTOL
47.2,200,BS5 6BX,BS5 6,BRISTOL,CITY OF BRISTOL,CITY OF BRISTOL
47.2,200,BS5 6BX,BS5 6,BRISTOL,CITY OF BRISTOL,CITY OF BRISTOL
47.2,200,BS5 6BX,BS5 6,BRISTOL,CITY OF BRISTOL,CITY OF BRISTOL
47.2,200,BS5 6BX,BS5 6,BRISTOL,CITY OF BRISTOL,CITY OF BRISTOL
47.2,200,BS5 6BX,BS5 6,BRISTOL,CITY OF BRISTOL,CITY OF BRISTOL
47.2,200,BS5 6BX,BS5 6,BRISTOL,CITY OF BRISTOL,CITY OF BRISTOL
62.6,200,BS5 6HB,BS5 6,BRISTOL,CITY OF BRISTOL,CITY OF BRISTOL
55.5,200,BS5 6HE,BS5 6,BRISTOL,CITY OF BRISTOL,CITY OF BRISTOL
64.3,152,BS5 6HL,BS5 6,BRISTOL,CITY OF BRISTOL,CITY OF BRISTOL
47.9,106.3,BS5 6LW,BS5 6,BRISTOL,CITY OF BRISTOL,CITY OF BRISTOL
62.9,200,BS5 6PF,BS5 6,BRISTOL,CITY OF BRISTOL,CITY OF BRISTOL
82.8,200,BS5 6PX,BS5 6,BRISTOL,CITY OF BRISTOL,CITY OF BRISTOL
82.8,200,BS5 6PX,BS5 6,BRISTOL,CITY OF BRISTOL,CITY OF BRISTOL
82.8,200,BS5 6PX,BS5 6,BRISTOL,CITY OF BRISTOL,CITY OF BRISTOL
74,200,BS5 6RA,BS5 6,BRISTOL,CITY OF BRISTOL,CITY OF BRISTOL
76.6,300,BS5 6RB,BS5 6,BRISTOL,CITY OF BRISTOL,CITY OF BRISTOL
76.6,300,BS5 6RB,BS5 6,BRISTOL,CITY OF BRISTOL,CITY OF BRISTOL
53.3,106.3,BS5 6RQ,BS5 6,BRISTOL,CITY OF BRISTOL,CITY OF BRISTOL
53.3,106.3,BS5 6RQ,BS5 6,BRISTOL,CITY OF BRISTOL,CITY OF BRISTOL
53.3,106.3,BS5 6RQ,BS5 6,BRISTOL,CITY OF BRISTOL,CITY OF BRISTOL
53.3,106.3,BS5 6RQ,BS5 6,BRISTOL,CITY OF BRISTOL,CITY OF BRISTOL
59.3,200,BS5 6SB,BS5 6,BRISTOL,CITY OF BRISTOL,CITY OF BRISTOL
59.3,200,BS5 6SB,BS5 6,BRISTOL,CITY OF BRISTOL,CITY OF BRISTOL
59.3,200,BS5 6SB,BS5 6,BRISTOL,CITY OF BRISTOL,CITY OF BRISTOL
59.3,200,BS5 6SB,BS5 6,BRISTOL,CITY OF BRISTOL,CITY OF BRISTOL
59.3,200,BS5 6SB,BS5 6,BRISTOL,CITY OF BRISTOL,CITY OF BRISTOL
59.3,200,BS5 6SB,BS5 6,BRISTOL,CITY OF BRISTOL,CITY OF BRISTOL
62.8,200,BS5 6SD,BS5 6,BRISTOL,CITY OF BRISTOL,CITY OF BRISTOL
62.8,200,BS5 6SD,BS5 6,BRISTOL,CITY OF BRISTOL,CITY OF BRISTOL
62.8,200,BS5 6SD,BS5 6,BRISTOL,CITY OF BRISTOL,CITY OF BRISTOL
62.8,200,BS5 6SD,BS5 6,BRISTOL,CITY OF BRISTOL,CITY OF BRISTOL
62.8,200,BS5 6SD,BS5 6,BRISTOL,CITY OF BRISTOL,CITY OF BRISTOL
62.8,200,BS5 6SD,BS5 6,BRISTOL,CITY OF BRISTOL,CITY OF BRISTOL
62.8,200,BS5 6SD,BS5 6,BRISTOL,CITY OF BRISTOL,CITY OF BRISTOL
62.8,200,BS5 6SD,BS5 6,BRISTOL,CITY OF BRISTOL,CITY OF BRISTOL
62.8,200,BS5 6SD,BS5 6,BRISTOL,CITY OF BRISTOL,CITY OF BRISTOL
62.8,200,BS5 6SD,BS5 6,BRISTOL,CITY OF BRISTOL,CITY OF BRISTOL
92.7,200,BS5 6SE,BS5 6,BRISTOL,CITY OF BRISTOL,CITY OF BRISTOL
92.7,200,BS5 6SE,BS5 6,BRISTOL,CITY OF BRISTOL,CITY OF BRISTOL
19.4,80,BS5 6SH,BS5 6,BRISTOL,CITY OF BRISTOL,CITY OF BRISTOL
19.4,80,BS5 6SH,BS5 6,BRISTOL,CITY OF BRISTOL,CITY OF BRISTOL
19.4,80,BS5 6SH,BS5 6,BRISTOL,CITY OF BRISTOL,CITY OF BRISTOL
19.4,80,BS5 6SH,BS5 6,BRISTOL,CITY OF BRISTOL,CITY OF BRISTOL
19.4,80,BS5 6SH,BS5 6,BRISTOL,CITY OF BRISTOL,CITY OF BRISTOL
19.4,80,BS5 6SH,BS5 6,BRISTOL,CITY OF BRISTOL,CITY OF BRISTOL
76.6,200,BS5 6TH,BS5 6,BRISTOL,CITY OF BRISTOL,CITY OF BRISTOL
47,200,BS5 7DR,BS5 7,BRISTOL,CITY OF BRISTOL,CITY OF BRISTOL
47,200,BS5 7DR,BS5 7,BRISTOL,CITY OF BRISTOL,CITY OF BRISTOL
47,200,BS5 7DR,BS5 7,BRISTOL,CITY OF BRISTOL,CITY OF BRISTOL
56,200,BS5 7EE,BS5 7,BRISTOL,CITY OF BRISTOL,CITY OF BRISTOL
81.3,200,BS5 7HT,BS5 7,BRISTOL,CITY OF BRISTOL,CITY OF BRISTOL
90.8,200,BS5 7NB,BS5 7,BRISTOL,CITY OF BRISTOL,CITY OF BRISTOL
62.8,200,BS5 7PG,BS5 7,BRISTOL,CITY OF BRISTOL,CITY OF BRISTOL
62.8,200,BS5 7PG,BS5 7,BRISTOL,CITY OF BRISTOL,CITY OF BRISTOL
62.8,200,BS5 7PG,BS5 7,BRISTOL,CITY OF BRISTOL,CITY OF BRISTOL
62.8,200,BS5 7PG,BS5 7,BRISTOL,CITY OF BRISTOL,CITY OF BRISTOL
71.4,200,BS5 7XP,BS5 7,BRISTOL,CITY OF BRISTOL,CITY OF BRISTOL
31.4,200,BS5 8AA,BS5 8,BRISTOL,CITY OF BRISTOL,CITY OF BRISTOL
31.4,200,BS5 8AA,BS5 8,BRISTOL,CITY OF BRISTOL,CITY OF BRISTOL
48.5,200,BS5 8AF,BS5 8,BRISTOL,CITY OF BRISTOL,CITY OF BRISTOL
48.5,200,BS5 8AF,BS5 8,BRISTOL,CITY OF BRISTOL,CITY OF BRISTOL
48.5,200,BS5 8AF,BS5 8,BRISTOL,CITY OF BRISTOL,CITY OF BRISTOL
70.1,200,BS5 8AH,BS5 8,BRISTOL,CITY OF BRISTOL,CITY OF BRISTOL
70.1,200,BS5 8AH,BS5 8,BRISTOL,CITY OF BRISTOL,CITY OF BRISTOL
70.1,200,BS5 8AH,BS5 8,BRISTOL,CITY OF BRISTOL,CITY OF BRISTOL
55.5,200,BS5 8AJ,BS5 8,BRISTOL,CITY OF BRISTOL,CITY OF BRISTOL
55.5,200,BS5 8AJ,BS5 8,BRISTOL,CITY OF BRISTOL,CITY OF BRISTOL
55.5,200,BS5 8AJ,BS5 8,BRISTOL,CITY OF BRISTOL,CITY OF BRISTOL
55.5,200,BS5 8AJ,BS5 8,BRISTOL,CITY OF BRISTOL,CITY OF BRISTOL
55.5,200,BS5 8AJ,BS5 8,BRISTOL,CITY OF BRISTOL,CITY OF BRISTOL
55.5,200,BS5 8AJ,BS5 8,BRISTOL,CITY OF BRISTOL,CITY OF BRISTOL
55.5,200,BS5 8AJ,BS5 8,BRISTOL,CITY OF BRISTOL,CITY OF BRISTOL
55.5,200,BS5 8AJ,BS5 8,BRISTOL,CITY OF BRISTOL,CITY OF BRISTOL
55.5,200,BS5 8AJ,BS5 8,BRISTOL,CITY OF BRISTOL,CITY OF BRISTOL
55.5,200,BS5 8AJ,BS5 8,BRISTOL,CITY OF BRISTOL,CITY OF BRISTOL
55.5,200,BS5 8AJ,BS5 8,BRISTOL,CITY OF BRISTOL,CITY OF BRISTOL
55.5,200,BS5 8AJ,BS5 8,BRISTOL,CITY OF BRISTOL,CITY OF BRISTOL
55.5,200,BS5 8AJ,BS5 8,BRISTOL,CITY OF BRISTOL,CITY OF BRISTOL
31.1,152,BS5 8AL,BS5 8,BRISTOL,CITY OF BRISTOL,CITY OF BRISTOL
31.1,152,BS5 8AL,BS5 8,BRISTOL,CITY OF BRISTOL,CITY OF BRISTOL
31.1,152,BS5 8AL,BS5 8,BRISTOL,CITY OF BRISTOL,CITY OF BRISTOL
31.1,152,BS5 8AL,BS5 8,BRISTOL,CITY OF BRISTOL,CITY OF BRISTOL
31.1,152,BS5 8AL,BS5 8,BRISTOL,CITY OF BRISTOL,CITY OF BRISTOL
31.1,152,BS5 8AL,BS5 8,BRISTOL,CITY OF BRISTOL,CITY OF BRISTOL
31.1,152,BS5 8AL,BS5 8,BRISTOL,CITY OF BRISTOL,CITY OF BRISTOL
45.8,200,BS5 8AQ,BS5 8,BRISTOL,CITY OF BRISTOL,CITY OF BRISTOL
45.8,200,BS5 8AQ,BS5 8,BRISTOL,CITY OF BRISTOL,CITY OF BRISTOL
45.8,200,BS5 8AQ,BS5 8,BRISTOL,CITY OF BRISTOL,CITY OF BRISTOL
45.8,200,BS5 8AQ,BS5 8,BRISTOL,CITY OF BRISTOL,CITY OF BRISTOL
45.8,200,BS5 8AQ,BS5 8,BRISTOL,CITY OF BRISTOL,CITY OF BRISTOL
71.9,150,BS5 8EE,BS5 8,BRISTOL,CITY OF BRISTOL,CITY OF BRISTOL
71.9,150,BS5 8EE,BS5 8,BRISTOL,CITY OF BRISTOL,CITY OF BRISTOL
54.1,150,BS5 8ER,BS5 8,BRISTOL,CITY OF BRISTOL,CITY OF BRISTOL
17.9,67.5,BS5 8FG,BS5 8,BRISTOL,CITY OF BRISTOL,CITY OF BRISTOL
17.9,67.5,BS5 8FG,BS5 8,BRISTOL,CITY OF BRISTOL,CITY OF BRISTOL
17.9,67.5,BS5 8FG,BS5 8,BRISTOL,CITY OF BRISTOL,CITY OF BRISTOL
17.9,67.5,BS5 8FG,BS5 8,BRISTOL,CITY OF BRISTOL,CITY OF BRISTOL
62.1,150,BS5 8HB,BS5 8,BRISTOL,CITY OF BRISTOL,CITY OF BRISTOL
7,10.5,BS5 8HF,BS5 8,BRISTOL,CITY OF BRISTOL,CITY OF BRISTOL
77.5,200,BS5 8HJ,BS5 8,BRISTOL,CITY OF BRISTOL,CITY OF BRISTOL
77.5,200,BS5 8HJ,BS5 8,BRISTOL,CITY OF BRISTOL,CITY OF BRISTOL
92.4,200,BS5 8HT,BS5 8,BRISTOL,CITY OF BRISTOL,CITY OF BRISTOL
49.2,150,BS5 8JP,BS5 8,BRISTOL,CITY OF BRISTOL,CITY OF BRISTOL
49.2,150,BS5 8JP,BS5 8,BRISTOL,CITY OF BRISTOL,CITY OF BRISTOL
49.2,150,BS5 8JP,BS5 8,BRISTOL,CITY OF BRISTOL,CITY OF BRISTOL
49.2,150,BS5 8JP,BS5 8,BRISTOL,CITY OF BRISTOL,CITY OF BRISTOL
49.2,150,BS5 8JP,BS5 8,BRISTOL,CITY OF BRISTOL,CITY OF BRISTOL
23.9,76.4,BS5 8NS,BS5 8,BRISTOL,CITY OF BRISTOL,CITY OF BRISTOL
60.1,150,BS5 8NT,BS5 8,BRISTOL,CITY OF BRISTOL,CITY OF BRISTOL
41.8,106.3,BS5 8PQ,BS5 8,BRISTOL,CITY OF BRISTOL,CITY OF BRISTOL
77.8,200,BS5 8RE,BS5 8,BRISTOL,CITY OF BRISTOL,CITY OF BRISTOL
56,200,BS5 9AG,BS5 9,BRISTOL,CITY OF BRISTOL,CITY OF BRISTOL
54.9,106.3,BS5 9HH,BS5 9,BRISTOL,CITY OF BRISTOL,CITY OF BRISTOL
42.7,106.3,BS5 9HL,BS5 9,BRISTOL,CITY OF BRISTOL,CITY OF BRISTOL
42.7,106.3,BS5 9HL,BS5 9,BRISTOL,CITY OF BRISTOL,CITY OF BRISTOL
41.2,300,BS5 9HX,BS5 9,BRISTOL,CITY OF BRISTOL,CITY OF BRISTOL
68.3,200,BS5 9JJ,BS5 9,BRISTOL,CITY OF BRISTOL,CITY OF BRISTOL
68.3,200,BS5 9JJ,BS5 9,BRISTOL,CITY OF BRISTOL,CITY OF BRISTOL
76.4,150,BS5 9JY,BS5 9,BRISTOL,CITY OF BRISTOL,CITY OF BRISTOL
23.9,106.3,BS5 9LE,BS5 9,BRISTOL,CITY OF BRISTOL,CITY OF BRISTOL
85.7,200,BS6 5AE,BS6 5,BRISTOL,CITY OF BRISTOL,CITY OF BRISTOL
65.4,200,BS6 5AH,BS6 5,BRISTOL,CITY OF BRISTOL,CITY OF BRISTOL
65.4,200,BS6 5AH,BS6 5,BRISTOL,CITY OF BRISTOL,CITY OF BRISTOL
82.4,300,BS6 5AJ,BS6 5,BRISTOL,CITY OF BRISTOL,CITY OF BRISTOL
57.8,200,BS6 5AL,BS6 5,BRISTOL,CITY OF BRISTOL,CITY OF BRISTOL
55.5,106.3,BS6 5AN,BS6 5,BRISTOL,CITY OF BRISTOL,CITY OF BRISTOL
55.5,106.3,BS6 5AN,BS6 5,BRISTOL,CITY OF BRISTOL,CITY OF BRISTOL
55.5,106.3,BS6 5AN,BS6 5,BRISTOL,CITY OF BRISTOL,CITY OF BRISTOL
74.4,200,BS6 5AQ,BS6 5,BRISTOL,CITY OF BRISTOL,CITY OF BRISTOL
74.4,200,BS6 5AQ,BS6 5,BRISTOL,CITY OF BRISTOL,CITY OF BRISTOL
78.2,200,BS6 5AR,BS6 5,BRISTOL,CITY OF BRISTOL,CITY OF BRISTOL
70.9,200,BS6 5AS,BS6 5,BRISTOL,CITY OF BRISTOL,CITY OF BRISTOL
70.9,200,BS6 5AS,BS6 5,BRISTOL,CITY OF BRISTOL,CITY OF BRISTOL
70.9,200,BS6 5AS,BS6 5,BRISTOL,CITY OF BRISTOL,CITY OF BRISTOL
70.9,200,BS6 5AS,BS6 5,BRISTOL,CITY OF BRISTOL,CITY OF BRISTOL
70.9,200,BS6 5AS,BS6 5,BRISTOL,CITY OF BRISTOL,CITY OF BRISTOL
70.9,200,BS6 5AS,BS6 5,BRISTOL,CITY OF BRISTOL,CITY OF BRISTOL
70.8,200,BS6 5AT,BS6 5,BRISTOL,CITY OF BRISTOL,CITY OF BRISTOL
62.7,200,BS6 5AW,BS6 5,BRISTOL,CITY OF BRISTOL,CITY OF BRISTOL
70.8,200,BS6 5DG,BS6 5,BRISTOL,CITY OF BRISTOL,CITY OF BRISTOL
70.8,200,BS6 5DG,BS6 5,BRISTOL,CITY OF BRISTOL,CITY OF BRISTOL
70.8,200,BS6 5DG,BS6 5,BRISTOL,CITY OF BRISTOL,CITY OF BRISTOL
70.8,200,BS6 5DG,BS6 5,BRISTOL,CITY OF BRISTOL,CITY OF BRISTOL
70.8,200,BS6 5DG,BS6 5,BRISTOL,CITY OF BRISTOL,CITY OF BRISTOL
70.8,200,BS6 5DG,BS6 5,BRISTOL,CITY OF BRISTOL,CITY OF BRISTOL
77.3,200,BS6 5DJ,BS6 5,BRISTOL,CITY OF BRISTOL,CITY OF BRISTOL
77.3,200,BS6 5DJ,BS6 5,BRISTOL,CITY OF BRISTOL,CITY OF BRISTOL
77.3,200,BS6 5DJ,BS6 5,BRISTOL,CITY OF BRISTOL,CITY OF BRISTOL
64.3,150,BS6 5DP,BS6 5,BRISTOL,CITY OF BRISTOL,CITY OF BRISTOL
64.3,150,BS6 5DP,BS6 5,BRISTOL,CITY OF BRISTOL,CITY OF BRISTOL
64.3,150,BS6 5DP,BS6 5,BRISTOL,CITY OF BRISTOL,CITY OF BRISTOL
67.8,200,BS6 5DR,BS6 5,BRISTOL,CITY OF BRISTOL,CITY OF BRISTOL
67.8,200,BS6 5DR,BS6 5,BRISTOL,CITY OF BRISTOL,CITY OF BRISTOL
67.8,200,BS6 5DR,BS6 5,BRISTOL,CITY OF BRISTOL,CITY OF BRISTOL
75.4,150,BS6 5DS,BS6 5,BRISTOL,CITY OF BRISTOL,CITY OF BRISTOL
75.4,150,BS6 5DS,BS6 5,BRISTOL,CITY OF BRISTOL,CITY OF BRISTOL
75.4,150,BS6 5DS,BS6 5,BRISTOL,CITY OF BRISTOL,CITY OF BRISTOL
75.4,150,BS6 5DS,BS6 5,BRISTOL,CITY OF BRISTOL,CITY OF BRISTOL
75.4,150,BS6 5DS,BS6 5,BRISTOL,CITY OF BRISTOL,CITY OF BRISTOL
75.4,150,BS6 5DS,BS6 5,BRISTOL,CITY OF BRISTOL,CITY OF BRISTOL
60.4,200,BS6 5DU,BS6 5,BRISTOL,CITY OF BRISTOL,CITY OF BRISTOL
60.4,200,BS6 5DU,BS6 5,BRISTOL,CITY OF BRISTOL,CITY OF BRISTOL
60.4,200,BS6 5DU,BS6 5,BRISTOL,CITY OF BRISTOL,CITY OF BRISTOL
60.4,200,BS6 5DU,BS6 5,BRISTOL,CITY OF BRISTOL,CITY OF BRISTOL
22.4,79.9,BS6 5EA,BS6 5,BRISTOL,CITY OF BRISTOL,CITY OF BRISTOL
22.4,79.9,BS6 5EA,BS6 5,BRISTOL,CITY OF BRISTOL,CITY OF BRISTOL
22.4,79.9,BS6 5EA,BS6 5,BRISTOL,CITY OF BRISTOL,CITY OF BRISTOL
22.4,79.9,BS6 5EA,BS6 5,BRISTOL,CITY OF BRISTOL,CITY OF BRISTOL
22.4,79.9,BS6 5EA,BS6 5,BRISTOL,CITY OF BRISTOL,CITY OF BRISTOL
22.4,79.9,BS6 5EA,BS6 5,BRISTOL,CITY OF BRISTOL,CITY OF BRISTOL
22.4,79.9,BS6 5EA,BS6 5,BRISTOL,CITY OF BRISTOL,CITY OF BRISTOL
22.4,79.9,BS6 5EA,BS6 5,BRISTOL,CITY OF BRISTOL,CITY OF BRISTOL
22.4,79.9,BS6 5EA,BS6 5,BRISTOL,CITY OF BRISTOL,CITY OF BRISTOL
22.4,79.9,BS6 5EA,BS6 5,BRISTOL,CITY OF BRISTOL,CITY OF BRISTOL
22.4,79.9,BS6 5EA,BS6 5,BRISTOL,CITY OF BRISTOL,CITY OF BRISTOL
22.4,79.9,BS6 5EA,BS6 5,BRISTOL,CITY OF BRISTOL,CITY OF BRISTOL
22.4,79.9,BS6 5EA,BS6 5,BRISTOL,CITY OF BRISTOL,CITY OF BRISTOL
22.4,79.9,BS6 5EA,BS6 5,BRISTOL,CITY OF BRISTOL,CITY OF BRISTOL
22.4,79.9,BS6 5EA,BS6 5,BRISTOL,CITY OF BRISTOL,CITY OF BRISTOL
22.4,79.9,BS6 5EA,BS6 5,BRISTOL,CITY OF BRISTOL,CITY OF BRISTOL
41.5,200,BS6 5EE,BS6 5,BRISTOL,CITY OF BRISTOL,CITY OF BRISTOL
41.5,200,BS6 5EE,BS6 5,BRISTOL,CITY OF BRISTOL,CITY OF BRISTOL
41.5,200,BS6 5EE,BS6 5,BRISTOL,CITY OF BRISTOL,CITY OF BRISTOL
41.5,200,BS6 5EE,BS6 5,BRISTOL,CITY OF BRISTOL,CITY OF BRISTOL
88,200,BS6 5EH,BS6 5,BRISTOL,CITY OF BRISTOL,CITY OF BRISTOL
88,200,BS6 5EH,BS6 5,BRISTOL,CITY OF BRISTOL,CITY OF BRISTOL
75.7,200,BS6 5ER,BS6 5,BRISTOL,CITY OF BRISTOL,CITY OF BRISTOL
69.2,150,BS6 5EW,BS6 5,BRISTOL,CITY OF BRISTOL,CITY OF BRISTOL
69.2,150,BS6 5EW,BS6 5,BRISTOL,CITY OF BRISTOL,CITY OF BRISTOL
69.2,150,BS6 5EW,BS6 5,BRISTOL,CITY OF BRISTOL,CITY OF BRISTOL
76.8,200,BS6 5EX,BS6 5,BRISTOL,CITY OF BRISTOL,CITY OF BRISTOL
76.8,200,BS6 5EX,BS6 5,BRISTOL,CITY OF BRISTOL,CITY OF BRISTOL
76.8,200,BS6 5EX,BS6 5,BRISTOL,CITY OF BRISTOL,CITY OF BRISTOL
76.8,200,BS6 5EX,BS6 5,BRISTOL,CITY OF BRISTOL,CITY OF BRISTOL
91.5,200,BS6 5EZ,BS6 5,BRISTOL,CITY OF BRISTOL,CITY OF BRISTOL
91.5,200,BS6 5EZ,BS6 5,BRISTOL,CITY OF BRISTOL,CITY OF BRISTOL
91.5,200,BS6 5EZ,BS6 5,BRISTOL,CITY OF BRISTOL,CITY OF BRISTOL
91.5,200,BS6 5EZ,BS6 5,BRISTOL,CITY OF BRISTOL,CITY OF BRISTOL
91.5,200,BS6 5EZ,BS6 5,BRISTOL,CITY OF BRISTOL,CITY OF BRISTOL
91.5,200,BS6 5EZ,BS6 5,BRISTOL,CITY OF BRISTOL,CITY OF BRISTOL
85.8,200,BS6 5HA,BS6 5,BRISTOL,CITY OF BRISTOL,CITY OF BRISTOL
85.8,200,BS6 5HA,BS6 5,BRISTOL,CITY OF BRISTOL,CITY OF BRISTOL
85.8,200,BS6 5HA,BS6 5,BRISTOL,CITY OF BRISTOL,CITY OF BRISTOL
85.8,200,BS6 5HA,BS6 5,BRISTOL,CITY OF BRISTOL,CITY OF BRISTOL
75.6,200,BS6 5HB,BS6 5,BRISTOL,CITY OF BRISTOL,CITY OF BRISTOL
75.6,200,BS6 5HB,BS6 5,BRISTOL,CITY OF BRISTOL,CITY OF BRISTOL
75.6,200,BS6 5HB,BS6 5,BRISTOL,CITY OF BRISTOL,CITY OF BRISTOL
75.6,200,BS6 5HB,BS6 5,BRISTOL,CITY OF BRISTOL,CITY OF BRISTOL
75.6,200,BS6 5HB,BS6 5,BRISTOL,CITY OF BRISTOL,CITY OF BRISTOL
87.7,200,BS6 5HD,BS6 5,BRISTOL,CITY OF BRISTOL,CITY OF BRISTOL
87.7,200,BS6 5HD,BS6 5,BRISTOL,CITY OF BRISTOL,CITY OF BRISTOL
87.7,200,BS6 5HD,BS6 5,BRISTOL,CITY OF BRISTOL,CITY OF BRISTOL
87.7,200,BS6 5HD,BS6 5,BRISTOL,CITY OF BRISTOL,CITY OF BRISTOL
87.7,200,BS6 5HD,BS6 5,BRISTOL,CITY OF BRISTOL,CITY OF BRISTOL
88,200,BS6 5HG,BS6 5,BRISTOL,CITY OF BRISTOL,CITY OF BRISTOL
56.5,106.3,BS6 5HU,BS6 5,BRISTOL,CITY OF BRISTOL,CITY OF BRISTOL
56.5,106.3,BS6 5HU,BS6 5,BRISTOL,CITY OF BRISTOL,CITY OF BRISTOL
43.5,200,BS6 5LR,BS6 5,BRISTOL,CITY OF BRISTOL,CITY OF BRISTOL
43.5,200,BS6 5LR,BS6 5,BRISTOL,CITY OF BRISTOL,CITY OF BRISTOL
43.5,200,BS6 5LR,BS6 5,BRISTOL,CITY OF BRISTOL,CITY OF BRISTOL
43.5,200,BS6 5LR,BS6 5,BRISTOL,CITY OF BRISTOL,CITY OF BRISTOL
42.3,150,BS6 5QE,BS6 5,BRISTOL,CITY OF BRISTOL,CITY OF BRISTOL
42.3,150,BS6 5QE,BS6 5,BRISTOL,CITY OF BRISTOL,CITY OF BRISTOL
42.3,150,BS6 5QE,BS6 5,BRISTOL,CITY OF BRISTOL,CITY OF BRISTOL
49,152,BS6 5QQ,BS6 5,BRISTOL,CITY OF BRISTOL,CITY OF BRISTOL
49,152,BS6 5QQ,BS6 5,BRISTOL,CITY OF BRISTOL,CITY OF BRISTOL
49,152,BS6 5QQ,BS6 5,BRISTOL,CITY OF BRISTOL,CITY OF BRISTOL
75.9,200,BS6 5SH,BS6 5,BRISTOL,CITY OF BRISTOL,CITY OF BRISTOL
75.9,200,BS6 5SH,BS6 5,BRISTOL,CITY OF BRISTOL,CITY OF BRISTOL
75.9,200,BS6 5SH,BS6 5,BRISTOL,CITY OF BRISTOL,CITY OF BRISTOL
75.9,200,BS6 5SH,BS6 5,BRISTOL,CITY OF BRISTOL,CITY OF BRISTOL
75.9,200,BS6 5SH,BS6 5,BRISTOL,CITY OF BRISTOL,CITY OF BRISTOL
75.9,200,BS6 5SH,BS6 5,BRISTOL,CITY OF BRISTOL,CITY OF BRISTOL
65.1,200,BS6 5SJ,BS6 5,BRISTOL,CITY OF BRISTOL,CITY OF BRISTOL
65.1,200,BS6 5SJ,BS6 5,BRISTOL,CITY OF BRISTOL,CITY OF BRISTOL
65.1,200,BS6 5SJ,BS6 5,BRISTOL,CITY OF BRISTOL,CITY OF BRISTOL
65.1,200,BS6 5SJ,BS6 5,BRISTOL,CITY OF BRISTOL,CITY OF BRISTOL
65.1,200,BS6 5SJ,BS6 5,BRISTOL,CITY OF BRISTOL,CITY OF BRISTOL
65.1,200,BS6 5SJ,BS6 5,BRISTOL,CITY OF BRISTOL,CITY OF BRISTOL
65.1,200,BS6 5SJ,BS6 5,BRISTOL,CITY OF BRISTOL,CITY OF BRISTOL
65.1,200,BS6 5SJ,BS6 5,BRISTOL,CITY OF BRISTOL,CITY OF BRISTOL
65.1,200,BS6 5SJ,BS6 5,BRISTOL,CITY OF BRISTOL,CITY OF BRISTOL
65.1,200,BS6 5SJ,BS6 5,BRISTOL,CITY OF BRISTOL,CITY OF BRISTOL
65.1,200,BS6 5SJ,BS6 5,BRISTOL,CITY OF BRISTOL,CITY OF BRISTOL
65.1,200,BS6 5SJ,BS6 5,BRISTOL,CITY OF BRISTOL,CITY OF BRISTOL
84.9,200,BS6 5TB,BS6 5,BRISTOL,CITY OF BRISTOL,CITY OF BRISTOL
84.9,200,BS6 5TB,BS6 5,BRISTOL,CITY OF BRISTOL,CITY OF BRISTOL
84.9,200,BS6 5TB,BS6 5,BRISTOL,CITY OF BRISTOL,CITY OF BRISTOL
72.1,200,BS6 6AA,BS6 6,BRISTOL,CITY OF BRISTOL,CITY OF BRISTOL
72.1,200,BS6 6AA,BS6 6,BRISTOL,CITY OF BRISTOL,CITY OF BRISTOL
68,200,BS6 6AF,BS6 6,BRISTOL,CITY OF BRISTOL,CITY OF BRISTOL
68,200,BS6 6AF,BS6 6,BRISTOL,CITY OF BRISTOL,CITY OF BRISTOL
68,200,BS6 6AF,BS6 6,BRISTOL,CITY OF BRISTOL,CITY OF BRISTOL
68,200,BS6 6AF,BS6 6,BRISTOL,CITY OF BRISTOL,CITY OF BRISTOL
68,200,BS6 6AF,BS6 6,BRISTOL,CITY OF BRISTOL,CITY OF BRISTOL
64.8,200,BS6 6AH,BS6 6,BRISTOL,CITY OF BRISTOL,CITY OF BRISTOL
64.8,200,BS6 6AH,BS6 6,BRISTOL,CITY OF BRISTOL,CITY OF BRISTOL
64.8,200,BS6 6AH,BS6 6,BRISTOL,CITY OF BRISTOL,CITY OF BRISTOL
64.8,200,BS6 6AH,BS6 6,BRISTOL,CITY OF BRISTOL,CITY OF BRISTOL
64.8,200,BS6 6AH,BS6 6,BRISTOL,CITY OF BRISTOL,CITY OF BRISTOL
64.8,200,BS6 6AH,BS6 6,BRISTOL,CITY OF BRISTOL,CITY OF BRISTOL
64.8,200,BS6 6AH,BS6 6,BRISTOL,CITY OF BRISTOL,CITY OF BRISTOL
64.8,200,BS6 6AH,BS6 6,BRISTOL,CITY OF BRISTOL,CITY OF BRISTOL
97.1,200,BS6 6AJ,BS6 6,BRISTOL,CITY OF BRISTOL,CITY OF BRISTOL
97.1,200,BS6 6AJ,BS6 6,BRISTOL,CITY OF BRISTOL,CITY OF BRISTOL
97.1,200,BS6 6AJ,BS6 6,BRISTOL,CITY OF BRISTOL,CITY OF BRISTOL
97.1,200,BS6 6AJ,BS6 6,BRISTOL,CITY OF BRISTOL,CITY OF BRISTOL
65.7,200,BS6 6AY,BS6 6,BRISTOL,CITY OF BRISTOL,CITY OF BRISTOL
65.7,200,BS6 6AY,BS6 6,BRISTOL,CITY OF BRISTOL,CITY OF BRISTOL
65.7,200,BS6 6AY,BS6 6,BRISTOL,CITY OF BRISTOL,CITY OF BRISTOL
65.7,200,BS6 6AY,BS6 6,BRISTOL,CITY OF BRISTOL,CITY OF BRISTOL
89.5,200,BS6 6HE,BS6 6,BRISTOL,CITY OF BRISTOL,CITY OF BRISTOL
89.5,200,BS6 6HE,BS6 6,BRISTOL,CITY OF BRISTOL,CITY OF BRISTOL
89.5,200,BS6 6HE,BS6 6,BRISTOL,CITY OF BRISTOL,CITY OF BRISTOL
89.5,200,BS6 6HE,BS6 6,BRISTOL,CITY OF BRISTOL,CITY OF BRISTOL
89.5,200,BS6 6HE,BS6 6,BRISTOL,CITY OF BRISTOL,CITY OF BRISTOL
89.5,200,BS6 6HE,BS6 6,BRISTOL,CITY OF BRISTOL,CITY OF BRISTOL
89.5,200,BS6 6HE,BS6 6,BRISTOL,CITY OF BRISTOL,CITY OF BRISTOL
89.5,200,BS6 6HE,BS6 6,BRISTOL,CITY OF BRISTOL,CITY OF BRISTOL
85.7,200,BS6 6HL,BS6 6,BRISTOL,CITY OF BRISTOL,CITY OF BRISTOL
85.7,200,BS6 6HL,BS6 6,BRISTOL,CITY OF BRISTOL,CITY OF BRISTOL
83,200,BS6 6HW,BS6 6,BRISTOL,CITY OF BRISTOL,CITY OF BRISTOL
83,200,BS6 6HW,BS6 6,BRISTOL,CITY OF BRISTOL,CITY OF BRISTOL
83,200,BS6 6HW,BS6 6,BRISTOL,CITY OF BRISTOL,CITY OF BRISTOL
92.8,300,BS6 6HZ,BS6 6,BRISTOL,CITY OF BRISTOL,CITY OF BRISTOL
92.8,300,BS6 6HZ,BS6 6,BRISTOL,CITY OF BRISTOL,CITY OF BRISTOL
92.8,300,BS6 6HZ,BS6 6,BRISTOL,CITY OF BRISTOL,CITY OF BRISTOL
92.8,300,BS6 6HZ,BS6 6,BRISTOL,CITY OF BRISTOL,CITY OF BRISTOL
92.8,300,BS6 6HZ,BS6 6,BRISTOL,CITY OF BRISTOL,CITY OF BRISTOL
92.8,300,BS6 6HZ,BS6 6,BRISTOL,CITY OF BRISTOL,CITY OF BRISTOL
92.8,300,BS6 6HZ,BS6 6,BRISTOL,CITY OF BRISTOL,CITY OF BRISTOL
47.2,100,BS6 6JA,BS6 6,BRISTOL,CITY OF BRISTOL,CITY OF BRISTOL
75.5,200,BS6 6JB,BS6 6,BRISTOL,CITY OF BRISTOL,CITY OF BRISTOL
75.5,200,BS6 6JB,BS6 6,BRISTOL,CITY OF BRISTOL,CITY OF BRISTOL
75.5,200,BS6 6JB,BS6 6,BRISTOL,CITY OF BRISTOL,CITY OF BRISTOL
75.5,200,BS6 6JB,BS6 6,BRISTOL,CITY OF BRISTOL,CITY OF BRISTOL
75.5,200,BS6 6JB,BS6 6,BRISTOL,CITY OF BRISTOL,CITY OF BRISTOL
88.4,200,BS6 6JE,BS6 6,BRISTOL,CITY OF BRISTOL,CITY OF BRISTOL
77.4,200,BS6 6JG,BS6 6,BRISTOL,CITY OF BRISTOL,CITY OF BRISTOL
77.4,200,BS6 6JG,BS6 6,BRISTOL,CITY OF BRISTOL,CITY OF BRISTOL
39.6,100,BS6 6JN,BS6 6,BRISTOL,CITY OF BRISTOL,CITY OF BRISTOL
88,200,BS6 6LR,BS6 6,BRISTOL,CITY OF BRISTOL,CITY OF BRISTOL
71.7,200,BS6 6LY,BS6 6,BRISTOL,CITY OF BRISTOL,CITY OF BRISTOL
71.7,200,BS6 6LY,BS6 6,BRISTOL,CITY OF BRISTOL,CITY OF BRISTOL
74.9,200,BS6 6ND,BS6 6,BRISTOL,CITY OF BRISTOL,CITY OF BRISTOL
74.9,200,BS6 6ND,BS6 6,BRISTOL,CITY OF BRISTOL,CITY OF BRISTOL
74.9,200,BS6 6ND,BS6 6,BRISTOL,CITY OF BRISTOL,CITY OF BRISTOL
74.9,200,BS6 6ND,BS6 6,BRISTOL,CITY OF BRISTOL,CITY OF BRISTOL
74.9,200,BS6 6ND,BS6 6,BRISTOL,CITY OF BRISTOL,CITY OF BRISTOL
74.9,200,BS6 6ND,BS6 6,BRISTOL,CITY OF BRISTOL,CITY OF BRISTOL
74.9,200,BS6 6ND,BS6 6,BRISTOL,CITY OF BRISTOL,CITY OF BRISTOL
74.9,200,BS6 6ND,BS6 6,BRISTOL,CITY OF BRISTOL,CITY OF BRISTOL
74.1,200,BS6 6NE,BS6 6,BRISTOL,CITY OF BRISTOL,CITY OF BRISTOL
74.1,200,BS6 6NE,BS6 6,BRISTOL,CITY OF BRISTOL,CITY OF BRISTOL
94.6,200,BS6 6NG,BS6 6,BRISTOL,CITY OF BRISTOL,CITY OF BRISTOL
94.6,200,BS6 6NG,BS6 6,BRISTOL,CITY OF BRISTOL,CITY OF BRISTOL
94.6,200,BS6 6NG,BS6 6,BRISTOL,CITY OF BRISTOL,CITY OF BRISTOL
80.1,200,BS6 6NP,BS6 6,BRISTOL,CITY OF BRISTOL,CITY OF BRISTOL
91.9,200,BS6 6NR,BS6 6,BRISTOL,CITY OF BRISTOL,CITY OF BRISTOL
80,200,BS6 6NW,BS6 6,BRISTOL,CITY OF BRISTOL,CITY OF BRISTOL
80,200,BS6 6NW,BS6 6,BRISTOL,CITY OF BRISTOL,CITY OF BRISTOL
99.5,300,BS6 6NY,BS6 6,BRISTOL,CITY OF BRISTOL,CITY OF BRISTOL
99.5,300,BS6 6NY,BS6 6,BRISTOL,CITY OF BRISTOL,CITY OF BRISTOL
99.5,300,BS6 6NY,BS6 6,BRISTOL,CITY OF BRISTOL,CITY OF BRISTOL
73.8,200,BS6 6QB,BS6 6,BRISTOL,CITY OF BRISTOL,CITY OF BRISTOL
73.8,200,BS6 6QB,BS6 6,BRISTOL,CITY OF BRISTOL,CITY OF BRISTOL
73.8,200,BS6 6QB,BS6 6,BRISTOL,CITY OF BRISTOL,CITY OF BRISTOL
69.9,200,BS6 6QP,BS6 6,BRISTOL,CITY OF BRISTOL,CITY OF BRISTOL
77.4,150,BS6 6RH,BS6 6,BRISTOL,CITY OF BRISTOL,CITY OF BRISTOL
77.4,150,BS6 6RH,BS6 6,BRISTOL,CITY OF BRISTOL,CITY OF BRISTOL
77.4,150,BS6 6RH,BS6 6,BRISTOL,CITY OF BRISTOL,CITY OF BRISTOL
77.4,150,BS6 6RH,BS6 6,BRISTOL,CITY OF BRISTOL,CITY OF BRISTOL
78.6,150,BS6 6RW,BS6 6,BRISTOL,CITY OF BRISTOL,CITY OF BRISTOL
78.6,150,BS6 6RW,BS6 6,BRISTOL,CITY OF BRISTOL,CITY OF BRISTOL
92,200,BS6 6TT,BS6 6,BRISTOL,CITY OF BRISTOL,CITY OF BRISTOL
68.3,150,BS6 6UX,BS6 6,BRISTOL,CITY OF BRISTOL,CITY OF BRISTOL
31.9,80,BS6 6WB,BS6 6,BRISTOL,CITY OF BRISTOL,CITY OF BRISTOL
31.9,80,BS6 6WB,BS6 6,BRISTOL,CITY OF BRISTOL,CITY OF BRISTOL
31.9,80,BS6 6WB,BS6 6,BRISTOL,CITY OF BRISTOL,CITY OF BRISTOL
31.9,80,BS6 6WB,BS6 6,BRISTOL,CITY OF BRISTOL,CITY OF BRISTOL
31.9,80,BS6 6WB,BS6 6,BRISTOL,CITY OF BRISTOL,CITY OF BRISTOL
31.9,80,BS6 6WB,BS6 6,BRISTOL,CITY OF BRISTOL,CITY OF BRISTOL
31.9,80,BS6 6WB,BS6 6,BRISTOL,CITY OF BRISTOL,CITY OF BRISTOL
32.9,73.7,BS6 6XT,BS6 6,BRISTOL,CITY OF BRISTOL,CITY OF BRISTOL
32.9,73.7,BS6 6XT,BS6 6,BRISTOL,CITY OF BRISTOL,CITY OF BRISTOL
32.9,73.7,BS6 6XT,BS6 6,BRISTOL,CITY OF BRISTOL,CITY OF BRISTOL
68.5,200,BS6 6YA,BS6 6,BRISTOL,CITY OF BRISTOL,CITY OF BRISTOL
68.5,200,BS6 6YA,BS6 6,BRISTOL,CITY OF BRISTOL,CITY OF BRISTOL
85,200,BS6 7AP,BS6 7,BRISTOL,CITY OF BRISTOL,CITY OF BRISTOL
85,200,BS6 7AP,BS6 7,BRISTOL,CITY OF BRISTOL,CITY OF BRISTOL
89.3,150,BS6 7DT,BS6 7,BRISTOL,CITY OF BRISTOL,CITY OF BRISTOL
98.7,200,BS6 7EG,BS6 7,BRISTOL,CITY OF BRISTOL,CITY OF BRISTOL
98.7,200,BS6 7EG,BS6 7,BRISTOL,CITY OF BRISTOL,CITY OF BRISTOL
58,106.3,BS6 7EJ,BS6 7,BRISTOL,CITY OF BRISTOL,CITY OF BRISTOL
58,106.3,BS6 7EJ,BS6 7,BRISTOL,CITY OF BRISTOL,CITY OF BRISTOL
58,106.3,BS6 7EJ,BS6 7,BRISTOL,CITY OF BRISTOL,CITY OF BRISTOL
58,106.3,BS6 7EJ,BS6 7,BRISTOL,CITY OF BRISTOL,CITY OF BRISTOL
58,106.3,BS6 7EJ,BS6 7,BRISTOL,CITY OF BRISTOL,CITY OF BRISTOL
58,106.3,BS6 7EJ,BS6 7,BRISTOL,CITY OF BRISTOL,CITY OF BRISTOL
58,106.3,BS6 7EJ,BS6 7,BRISTOL,CITY OF BRISTOL,CITY OF BRISTOL
58,106.3,BS6 7EJ,BS6 7,BRISTOL,CITY OF BRISTOL,CITY OF BRISTOL
58,106.3,BS6 7EJ,BS6 7,BRISTOL,CITY OF BRISTOL,CITY OF BRISTOL
108.7,300,BS6 7EP,BS6 7,BRISTOL,CITY OF BRISTOL,CITY OF BRISTOL
49.9,150,BS6 7JH,BS6 7,BRISTOL,CITY OF BRISTOL,CITY OF BRISTOL
40.9,200,BS6 7PT,BS6 7,BRISTOL,CITY OF BRISTOL,CITY OF BRISTOL
40.9,200,BS6 7PT,BS6 7,BRISTOL,CITY OF BRISTOL,CITY OF BRISTOL
51.6,100,BS6 7PY,BS6 7,BRISTOL,CITY OF BRISTOL,CITY OF BRISTOL
68.3,200,BS6 7RJ,BS6 7,BRISTOL,CITY OF BRISTOL,CITY OF BRISTOL
68.3,200,BS6 7RJ,BS6 7,BRISTOL,CITY OF BRISTOL,CITY OF BRISTOL
80,200,BS6 7RL,BS6 7,BRISTOL,CITY OF BRISTOL,CITY OF BRISTOL
83.9,200,BS6 7RP,BS6 7,BRISTOL,CITY OF BRISTOL,CITY OF BRISTOL
97.3,200,BS6 7RR,BS6 7,BRISTOL,CITY OF BRISTOL,CITY OF BRISTOL
97.3,200,BS6 7RR,BS6 7,BRISTOL,CITY OF BRISTOL,CITY OF BRISTOL
97.3,200,BS6 7RR,BS6 7,BRISTOL,CITY OF BRISTOL,CITY OF BRISTOL
97.3,200,BS6 7RR,BS6 7,BRISTOL,CITY OF BRISTOL,CITY OF BRISTOL
93.6,200,BS6 7US,BS6 7,BRISTOL,CITY OF BRISTOL,CITY OF BRISTOL
32.1,68.1,BS7 0AF,BS7 0,BRISTOL,CITY OF BRISTOL,CITY OF BRISTOL
32.1,68.1,BS7 0AF,BS7 0,BRISTOL,CITY OF BRISTOL,CITY OF BRISTOL
83.4,200,BS7 0AP,BS7 0,BRISTOL,CITY OF BRISTOL,CITY OF BRISTOL
16.6,40,BS7 0AS,BS7 0,BRISTOL,CITY OF BRISTOL,CITY OF BRISTOL
99.4,200,BS7 0AU,BS7 0,BRISTOL,CITY OF BRISTOL,CITY OF BRISTOL
71.5,200,BS7 0AY,BS7 0,BRISTOL,CITY OF BRISTOL,CITY OF BRISTOL
89.7,200,BS7 0BJ,BS7 0,BRISTOL,CITY OF BRISTOL,CITY OF BRISTOL
97.5,200,BS7 0BW,BS7 0,BRISTOL,CITY OF BRISTOL,CITY OF BRISTOL
28.3,72.8,BS7 0EX,BS7 0,BRISTOL,CITY OF BRISTOL,CITY OF BRISTOL
28.3,72.8,BS7 0EX,BS7 0,BRISTOL,CITY OF BRISTOL,CITY OF BRISTOL
33.7,57,BS7 0EY,BS7 0,BRISTOL,CITY OF BRISTOL,CITY OF BRISTOL
33.7,57,BS7 0EY,BS7 0,BRISTOL,CITY OF BRISTOL,CITY OF BRISTOL
33.7,57,BS7 0EY,BS7 0,BRISTOL,CITY OF BRISTOL,CITY OF BRISTOL
20.7,40,BS7 0FF,BS7 0,BRISTOL,CITY OF BRISTOL,CITY OF BRISTOL
20.7,40,BS7 0FF,BS7 0,BRISTOL,CITY OF BRISTOL,CITY OF BRISTOL
20.7,40,BS7 0FF,BS7 0,BRISTOL,CITY OF BRISTOL,CITY OF BRISTOL
20.7,40,BS7 0FF,BS7 0,BRISTOL,CITY OF BRISTOL,CITY OF BRISTOL
20.7,40,BS7 0FF,BS7 0,BRISTOL,CITY OF BRISTOL,CITY OF BRISTOL
20.7,40,BS7 0FF,BS7 0,BRISTOL,CITY OF BRISTOL,CITY OF BRISTOL
20.7,40,BS7 0FF,BS7 0,BRISTOL,CITY OF BRISTOL,CITY OF BRISTOL
20.7,40,BS7 0FF,BS7 0,BRISTOL,CITY OF BRISTOL,CITY OF BRISTOL
20.7,40,BS7 0FF,BS7 0,BRISTOL,CITY OF BRISTOL,CITY OF BRISTOL
20.7,40,BS7 0FF,BS7 0,BRISTOL,CITY OF BRISTOL,CITY OF BRISTOL
20.7,40,BS7 0FF,BS7 0,BRISTOL,CITY OF BRISTOL,CITY OF BRISTOL
20.7,40,BS7 0FF,BS7 0,BRISTOL,CITY OF BRISTOL,CITY OF BRISTOL
20.7,40,BS7 0FF,BS7 0,BRISTOL,CITY OF BRISTOL,CITY OF BRISTOL
20.7,40,BS7 0FF,BS7 0,BRISTOL,CITY OF BRISTOL,CITY OF BRISTOL
20.7,40,BS7 0FF,BS7 0,BRISTOL,CITY OF BRISTOL,CITY OF BRISTOL
20.7,40,BS7 0FF,BS7 0,BRISTOL,CITY OF BRISTOL,CITY OF BRISTOL
20.7,40,BS7 0FF,BS7 0,BRISTOL,CITY OF BRISTOL,CITY OF BRISTOL
20.7,40,BS7 0FF,BS7 0,BRISTOL,CITY OF BRISTOL,CITY OF BRISTOL
54.2,200,BS7 0HB,BS7 0,BRISTOL,CITY OF BRISTOL,CITY OF BRISTOL
100.9,200,BS7 0LE,BS7 0,BRISTOL,CITY OF BRISTOL,CITY OF BRISTOL
45.7,200,BS7 0LH,BS7 0,BRISTOL,CITY OF BRISTOL,CITY OF BRISTOL
45.7,200,BS7 0LH,BS7 0,BRISTOL,CITY OF BRISTOL,CITY OF BRISTOL
40.6,80,BS7 0PD,BS7 0,BRISTOL,CITY OF BRISTOL,CITY OF BRISTOL
40.6,80,BS7 0PD,BS7 0,BRISTOL,CITY OF BRISTOL,CITY OF BRISTOL
51.6,200,BS7 8AE,BS7 8,BRISTOL,CITY OF BRISTOL,CITY OF BRISTOL
54.3,200,BS7 8BA,BS7 8,BRISTOL,CITY OF BRISTOL,CITY OF BRISTOL
45.2,200,BS7 8BG,BS7 8,BRISTOL,CITY OF BRISTOL,CITY OF BRISTOL
49.3,200,BS7 8BN,BS7 8,BRISTOL,CITY OF BRISTOL,CITY OF BRISTOL
49.3,200,BS7 8BN,BS7 8,BRISTOL,CITY OF BRISTOL,CITY OF BRISTOL
99.9,200,BS7 8DE,BS7 8,BRISTOL,CITY OF BRISTOL,CITY OF BRISTOL
99.9,200,BS7 8DE,BS7 8,BRISTOL,CITY OF BRISTOL,CITY OF BRISTOL
99.9,200,BS7 8DE,BS7 8,BRISTOL,CITY OF BRISTOL,CITY OF BRISTOL
99.9,200,BS7 8DE,BS7 8,BRISTOL,CITY OF BRISTOL,CITY OF BRISTOL
74.6,200,BS7 8DF,BS7 8,BRISTOL,CITY OF BRISTOL,CITY OF BRISTOL
92.3,200,BS7 8ES,BS7 8,BRISTOL,CITY OF BRISTOL,CITY OF BRISTOL
92.3,200,BS7 8ES,BS7 8,BRISTOL,CITY OF BRISTOL,CITY OF BRISTOL
47.2,100,BS7 8HD,BS7 8,BRISTOL,CITY OF BRISTOL,CITY OF BRISTOL
47.2,100,BS7 8HD,BS7 8,BRISTOL,CITY OF BRISTOL,CITY OF BRISTOL
47.2,100,BS7 8HD,BS7 8,BRISTOL,CITY OF BRISTOL,CITY OF BRISTOL
47.2,100,BS7 8HD,BS7 8,BRISTOL,CITY OF BRISTOL,CITY OF BRISTOL
47.2,100,BS7 8HD,BS7 8,BRISTOL,CITY OF BRISTOL,CITY OF BRISTOL
86.7,200,BS7 8HE,BS7 8,BRISTOL,CITY OF BRISTOL,CITY OF BRISTOL
86.7,200,BS7 8HE,BS7 8,BRISTOL,CITY OF BRISTOL,CITY OF BRISTOL
83.2,200,BS7 8HX,BS7 8,BRISTOL,CITY OF BRISTOL,CITY OF BRISTOL
83.2,200,BS7 8HX,BS7 8,BRISTOL,CITY OF BRISTOL,CITY OF BRISTOL
79.7,200,BS7 8NN,BS7 8,BRISTOL,CITY OF BRISTOL,CITY OF BRISTOL
75.1,200,BS7 8NR,BS7 8,BRISTOL,CITY OF BRISTOL,CITY OF BRISTOL
75.1,200,BS7 8NR,BS7 8,BRISTOL,CITY OF BRISTOL,CITY OF BRISTOL
75.1,200,BS7 8NR,BS7 8,BRISTOL,CITY OF BRISTOL,CITY OF BRISTOL
75.1,200,BS7 8NR,BS7 8,BRISTOL,CITY OF BRISTOL,CITY OF BRISTOL
75.1,200,BS7 8NR,BS7 8,BRISTOL,CITY OF BRISTOL,CITY OF BRISTOL
69.5,150,BS7 8NT,BS7 8,BRISTOL,CITY OF BRISTOL,CITY OF BRISTOL
69.5,150,BS7 8NT,BS7 8,BRISTOL,CITY OF BRISTOL,CITY OF BRISTOL
69.5,150,BS7 8NT,BS7 8,BRISTOL,CITY OF BRISTOL,CITY OF BRISTOL
68,200,BS7 8PD,BS7 8,BRISTOL,CITY OF BRISTOL,CITY OF BRISTOL
68,200,BS7 8PD,BS7 8,BRISTOL,CITY OF BRISTOL,CITY OF BRISTOL
68,200,BS7 8PD,BS7 8,BRISTOL,CITY OF BRISTOL,CITY OF BRISTOL
68,200,BS7 8PD,BS7 8,BRISTOL,CITY OF BRISTOL,CITY OF BRISTOL
68,200,BS7 8PD,BS7 8,BRISTOL,CITY OF BRISTOL,CITY OF BRISTOL
87.7,200,BS7 8SE,BS7 8,BRISTOL,CITY OF BRISTOL,CITY OF BRISTOL
87.7,200,BS7 8SE,BS7 8,BRISTOL,CITY OF BRISTOL,CITY OF BRISTOL
70.7,200,BS7 8SH,BS7 8,BRISTOL,CITY OF BRISTOL,CITY OF BRISTOL
62.6,200,BS7 8TN,BS7 8,BRISTOL,CITY OF BRISTOL,CITY OF BRISTOL
99.5,200,BS7 8UA,BS7 8,BRISTOL,CITY OF BRISTOL,CITY OF BRISTOL
99.5,200,BS7 8UA,BS7 8,BRISTOL,CITY OF BRISTOL,CITY OF BRISTOL
85.5,200,BS7 8UG,BS7 8,BRISTOL,CITY OF BRISTOL,CITY OF BRISTOL
85.5,200,BS7 8UG,BS7 8,BRISTOL,CITY OF BRISTOL,CITY OF BRISTOL
85.5,200,BS7 8UG,BS7 8,BRISTOL,CITY OF BRISTOL,CITY OF BRISTOL
81.7,200,BS7 9DQ,BS7 9,BRISTOL,CITY OF BRISTOL,CITY OF BRISTOL
109.5,200,BS7 9EU,BS7 9,BRISTOL,CITY OF BRISTOL,CITY OF BRISTOL
109.5,200,BS7 9EU,BS7 9,BRISTOL,CITY OF BRISTOL,CITY OF BRISTOL
109.5,200,BS7 9EU,BS7 9,BRISTOL,CITY OF BRISTOL,CITY OF BRISTOL
109.5,200,BS7 9EU,BS7 9,BRISTOL,CITY OF BRISTOL,CITY OF BRISTOL
109.5,200,BS7 9EU,BS7 9,BRISTOL,CITY OF BRISTOL,CITY OF BRISTOL
76.6,200,BS7 9EX,BS7 9,BRISTOL,CITY OF BRISTOL,CITY OF BRISTOL
48.3,200,BS7 9HL,BS7 9,BRISTOL,CITY OF BRISTOL,CITY OF BRISTOL
76.6,200,BS7 9HS,BS7 9,BRISTOL,CITY OF BRISTOL,CITY OF BRISTOL
91.7,200,BS7 9HT,BS7 9,BRISTOL,CITY OF BRISTOL,CITY OF BRISTOL
74.2,200,BS7 9HZ,BS7 9,BRISTOL,CITY OF BRISTOL,CITY OF BRISTOL
74.2,200,BS7 9HZ,BS7 9,BRISTOL,CITY OF BRISTOL,CITY OF BRISTOL
74.8,200,BS7 9LB,BS7 9,BRISTOL,CITY OF BRISTOL,CITY OF BRISTOL
74.8,200,BS7 9LB,BS7 9,BRISTOL,CITY OF BRISTOL,CITY OF BRISTOL
74.8,200,BS7 9LB,BS7 9,BRISTOL,CITY OF BRISTOL,CITY OF BRISTOL
85.5,200,BS7 9LF,BS7 9,BRISTOL,CITY OF BRISTOL,CITY OF BRISTOL
85.5,200,BS7 9LF,BS7 9,BRISTOL,CITY OF BRISTOL,CITY OF BRISTOL
35.5,80,BS7 9LR,BS7 9,BRISTOL,CITY OF BRISTOL,CITY OF BRISTOL
35.5,80,BS7 9LR,BS7 9,BRISTOL,CITY OF BRISTOL,CITY OF BRISTOL
35.5,80,BS7 9LR,BS7 9,BRISTOL,CITY OF BRISTOL,CITY OF BRISTOL
35.5,80,BS7 9LR,BS7 9,BRISTOL,CITY OF BRISTOL,CITY OF BRISTOL
35.5,80,BS7 9LR,BS7 9,BRISTOL,CITY OF BRISTOL,CITY OF BRISTOL
35.5,80,BS7 9LR,BS7 9,BRISTOL,CITY OF BRISTOL,CITY OF BRISTOL
35.5,80,BS7 9LR,BS7 9,BRISTOL,CITY OF BRISTOL,CITY OF BRISTOL
35.5,80,BS7 9LR,BS7 9,BRISTOL,CITY OF BRISTOL,CITY OF BRISTOL
35.5,80,BS7 9LR,BS7 9,BRISTOL,CITY OF BRISTOL,CITY OF BRISTOL
37,80,BS7 9LS,BS7 9,BRISTOL,CITY OF BRISTOL,CITY OF BRISTOL
37,80,BS7 9LS,BS7 9,BRISTOL,CITY OF BRISTOL,CITY OF BRISTOL
37,80,BS7 9LS,BS7 9,BRISTOL,CITY OF BRISTOL,CITY OF BRISTOL
37,80,BS7 9LS,BS7 9,BRISTOL,CITY OF BRISTOL,CITY OF BRISTOL
37,80,BS7 9LS,BS7 9,BRISTOL,CITY OF BRISTOL,CITY OF BRISTOL
37,80,BS7 9LS,BS7 9,BRISTOL,CITY OF BRISTOL,CITY OF BRISTOL
37,80,BS7 9LS,BS7 9,BRISTOL,CITY OF BRISTOL,CITY OF BRISTOL
37,80,BS7 9LS,BS7 9,BRISTOL,CITY OF BRISTOL,CITY OF BRISTOL
28.3,77.9,BS7 9LT,BS7 9,BRISTOL,CITY OF BRISTOL,CITY OF BRISTOL
28.3,77.9,BS7 9LT,BS7 9,BRISTOL,CITY OF BRISTOL,CITY OF BRISTOL
28.3,77.9,BS7 9LT,BS7 9,BRISTOL,CITY OF BRISTOL,CITY OF BRISTOL
28.3,77.9,BS7 9LT,BS7 9,BRISTOL,CITY OF BRISTOL,CITY OF BRISTOL
28.3,77.9,BS7 9LT,BS7 9,BRISTOL,CITY OF BRISTOL,CITY OF BRISTOL
28.3,77.9,BS7 9LT,BS7 9,BRISTOL,CITY OF BRISTOL,CITY OF BRISTOL
28.3,77.9,BS7 9LT,BS7 9,BRISTOL,CITY OF BRISTOL,CITY OF BRISTOL
30.4,79.9,BS7 9LU,BS7 9,BRISTOL,CITY OF BRISTOL,CITY OF BRISTOL
30.4,79.9,BS7 9LU,BS7 9,BRISTOL,CITY OF BRISTOL,CITY OF BRISTOL
30.4,79.9,BS7 9LU,BS7 9,BRISTOL,CITY OF BRISTOL,CITY OF BRISTOL
30.4,79.9,BS7 9LU,BS7 9,BRISTOL,CITY OF BRISTOL,CITY OF BRISTOL
30.4,79.9,BS7 9LU,BS7 9,BRISTOL,CITY OF BRISTOL,CITY OF BRISTOL
30.4,79.9,BS7 9LU,BS7 9,BRISTOL,CITY OF BRISTOL,CITY OF BRISTOL
30.4,79.9,BS7 9LU,BS7 9,BRISTOL,CITY OF BRISTOL,CITY OF BRISTOL
30.4,79.9,BS7 9LU,BS7 9,BRISTOL,CITY OF BRISTOL,CITY OF BRISTOL
30.4,79.9,BS7 9LU,BS7 9,BRISTOL,CITY OF BRISTOL,CITY OF BRISTOL
30.4,79.9,BS7 9LU,BS7 9,BRISTOL,CITY OF BRISTOL,CITY OF BRISTOL
30.4,79.9,BS7 9LU,BS7 9,BRISTOL,CITY OF BRISTOL,CITY OF BRISTOL
30.4,79.9,BS7 9LU,BS7 9,BRISTOL,CITY OF BRISTOL,CITY OF BRISTOL
30.4,79.9,BS7 9LU,BS7 9,BRISTOL,CITY OF BRISTOL,CITY OF BRISTOL
30.4,79.9,BS7 9LU,BS7 9,BRISTOL,CITY OF BRISTOL,CITY OF BRISTOL
30.4,79.9,BS7 9LU,BS7 9,BRISTOL,CITY OF BRISTOL,CITY OF BRISTOL
64.4,150,BS7 9RF,BS7 9,BRISTOL,CITY OF BRISTOL,CITY OF BRISTOL
64.4,150,BS7 9RF,BS7 9,BRISTOL,CITY OF BRISTOL,CITY OF BRISTOL
64.4,150,BS7 9RF,BS7 9,BRISTOL,CITY OF BRISTOL,CITY OF BRISTOL
81.8,200,BS7 9RQ,BS7 9,BRISTOL,CITY OF BRISTOL,CITY OF BRISTOL
81.8,200,BS7 9RQ,BS7 9,BRISTOL,CITY OF BRISTOL,CITY OF BRISTOL
55.6,200,BS8 1AA,BS8 1,BRISTOL,CITY OF BRISTOL,CITY OF BRISTOL
55.6,200,BS8 1AA,BS8 1,BRISTOL,CITY OF BRISTOL,CITY OF BRISTOL
55.6,200,BS8 1AA,BS8 1,BRISTOL,CITY OF BRISTOL,CITY OF BRISTOL
55.6,200,BS8 1AA,BS8 1,BRISTOL,CITY OF BRISTOL,CITY OF BRISTOL
74.3,200,BS8 1AB,BS8 1,BRISTOL,CITY OF BRISTOL,CITY OF BRISTOL
74.3,200,BS8 1AB,BS8 1,BRISTOL,CITY OF BRISTOL,CITY OF BRISTOL
74.3,200,BS8 1AB,BS8 1,BRISTOL,CITY OF BRISTOL,CITY OF BRISTOL
74.3,200,BS8 1AB,BS8 1,BRISTOL,CITY OF BRISTOL,CITY OF BRISTOL
74.3,200,BS8 1AB,BS8 1,BRISTOL,CITY OF BRISTOL,CITY OF BRISTOL
49.5,200,BS8 1AH,BS8 1,BRISTOL,CITY OF BRISTOL,CITY OF BRISTOL
49.5,200,BS8 1AH,BS8 1,BRISTOL,CITY OF BRISTOL,CITY OF BRISTOL
49.5,200,BS8 1AH,BS8 1,BRISTOL,CITY OF BRISTOL,CITY OF BRISTOL
49.5,200,BS8 1AH,BS8 1,BRISTOL,CITY OF BRISTOL,CITY OF BRISTOL
49.5,200,BS8 1AH,BS8 1,BRISTOL,CITY OF BRISTOL,CITY OF BRISTOL
49.5,200,BS8 1AH,BS8 1,BRISTOL,CITY OF BRISTOL,CITY OF BRISTOL
49.5,200,BS8 1AH,BS8 1,BRISTOL,CITY OF BRISTOL,CITY OF BRISTOL
61.7,200,BS8 1AP,BS8 1,BRISTOL,CITY OF BRISTOL,CITY OF BRISTOL
68.5,200,BS8 1AW,BS8 1,BRISTOL,CITY OF BRISTOL,CITY OF BRISTOL
6.6,10,BS8 1EE,BS8 1,BRISTOL,CITY OF BRISTOL,CITY OF BRISTOL
6.6,10,BS8 1EE,BS8 1,BRISTOL,CITY OF BRISTOL,CITY OF BRISTOL
57,150,BS8 1JP,BS8 1,BRISTOL,CITY OF BRISTOL,CITY OF BRISTOL
57,150,BS8 1JP,BS8 1,BRISTOL,CITY OF BRISTOL,CITY OF BRISTOL
57,150,BS8 1JP,BS8 1,BRISTOL,CITY OF BRISTOL,CITY OF BRISTOL
57,150,BS8 1JP,BS8 1,BRISTOL,CITY OF BRISTOL,CITY OF BRISTOL
57,150,BS8 1JP,BS8 1,BRISTOL,CITY OF BRISTOL,CITY OF BRISTOL
41.9,80,BS8 1LH,BS8 1,BRISTOL,CITY OF BRISTOL,CITY OF BRISTOL
41.9,80,BS8 1LH,BS8 1,BRISTOL,CITY OF BRISTOL,CITY OF BRISTOL
41.9,80,BS8 1LH,BS8 1,BRISTOL,CITY OF BRISTOL,CITY OF BRISTOL
41.9,80,BS8 1LH,BS8 1,BRISTOL,CITY OF BRISTOL,CITY OF BRISTOL
41.9,80,BS8 1LH,BS8 1,BRISTOL,CITY OF BRISTOL,CITY OF BRISTOL
35.9,80,BS8 1LJ,BS8 1,BRISTOL,CITY OF BRISTOL,CITY OF BRISTOL
35.9,80,BS8 1LJ,BS8 1,BRISTOL,CITY OF BRISTOL,CITY OF BRISTOL
35.9,80,BS8 1LJ,BS8 1,BRISTOL,CITY OF BRISTOL,CITY OF BRISTOL
35.9,80,BS8 1LJ,BS8 1,BRISTOL,CITY OF BRISTOL,CITY OF BRISTOL
35.9,80,BS8 1LJ,BS8 1,BRISTOL,CITY OF BRISTOL,CITY OF BRISTOL
69.7,200,BS8 1LP,BS8 1,BRISTOL,CITY OF BRISTOL,CITY OF BRISTOL
69.7,200,BS8 1LP,BS8 1,BRISTOL,CITY OF BRISTOL,CITY OF BRISTOL
69.7,200,BS8 1LP,BS8 1,BRISTOL,CITY OF BRISTOL,CITY OF BRISTOL
69.7,200,BS8 1LP,BS8 1,BRISTOL,CITY OF BRISTOL,CITY OF BRISTOL
69.7,200,BS8 1LP,BS8 1,BRISTOL,CITY OF BRISTOL,CITY OF BRISTOL
69.7,200,BS8 1LP,BS8 1,BRISTOL,CITY OF BRISTOL,CITY OF BRISTOL
69.7,200,BS8 1LP,BS8 1,BRISTOL,CITY OF BRISTOL,CITY OF BRISTOL
69.7,200,BS8 1LP,BS8 1,BRISTOL,CITY OF BRISTOL,CITY OF BRISTOL
69.7,200,BS8 1LP,BS8 1,BRISTOL,CITY OF BRISTOL,CITY OF BRISTOL
69.7,200,BS8 1LP,BS8 1,BRISTOL,CITY OF BRISTOL,CITY OF BRISTOL
55.1,150,BS8 1LR,BS8 1,BRISTOL,CITY OF BRISTOL,CITY OF BRISTOL
55.1,150,BS8 1LR,BS8 1,BRISTOL,CITY OF BRISTOL,CITY OF BRISTOL
55.1,150,BS8 1LR,BS8 1,BRISTOL,CITY OF BRISTOL,CITY OF BRISTOL
55.1,150,BS8 1LR,BS8 1,BRISTOL,CITY OF BRISTOL,CITY OF BRISTOL
55.1,150,BS8 1LR,BS8 1,BRISTOL,CITY OF BRISTOL,CITY OF BRISTOL
55.1,150,BS8 1LR,BS8 1,BRISTOL,CITY OF BRISTOL,CITY OF BRISTOL
55.1,150,BS8 1LR,BS8 1,BRISTOL,CITY OF BRISTOL,CITY OF BRISTOL
55.1,150,BS8 1LR,BS8 1,BRISTOL,CITY OF BRISTOL,CITY OF BRISTOL
56.6,200,BS8 1LX,BS8 1,BRISTOL,CITY OF BRISTOL,CITY OF BRISTOL
56.6,200,BS8 1LX,BS8 1,BRISTOL,CITY OF BRISTOL,CITY OF BRISTOL
56.6,200,BS8 1LX,BS8 1,BRISTOL,CITY OF BRISTOL,CITY OF BRISTOL
56.6,200,BS8 1LX,BS8 1,BRISTOL,CITY OF BRISTOL,CITY OF BRISTOL
56.6,200,BS8 1LX,BS8 1,BRISTOL,CITY OF BRISTOL,CITY OF BRISTOL
56.6,200,BS8 1LX,BS8 1,BRISTOL,CITY OF BRISTOL,CITY OF BRISTOL
56.6,200,BS8 1LX,BS8 1,BRISTOL,CITY OF BRISTOL,CITY OF BRISTOL
13.4,24.5,BS8 1QE,BS8 1,BRISTOL,CITY OF BRISTOL,CITY OF BRISTOL
13.4,24.5,BS8 1QE,BS8 1,BRISTOL,CITY OF BRISTOL,CITY OF BRISTOL
47.5,300,BS8 1RE,BS8 1,BRISTOL,CITY OF BRISTOL,CITY OF BRISTOL
97.5,300,BS8 1SF,BS8 1,BRISTOL,CITY OF BRISTOL,CITY OF BRISTOL
97.5,300,BS8 1SF,BS8 1,BRISTOL,CITY OF BRISTOL,CITY OF BRISTOL
97.5,300,BS8 1SF,BS8 1,BRISTOL,CITY OF BRISTOL,CITY OF BRISTOL
97.5,300,BS8 1SF,BS8 1,BRISTOL,CITY OF BRISTOL,CITY OF BRISTOL
12.8,50,BS8 1SY,BS8 1,BRISTOL,CITY OF BRISTOL,CITY OF BRISTOL
12.8,50,BS8 1SY,BS8 1,BRISTOL,CITY OF BRISTOL,CITY OF BRISTOL
12.8,50,BS8 1SY,BS8 1,BRISTOL,CITY OF BRISTOL,CITY OF BRISTOL
12.8,50,BS8 1SY,BS8 1,BRISTOL,CITY OF BRISTOL,CITY OF BRISTOL
12.8,50,BS8 1SY,BS8 1,BRISTOL,CITY OF BRISTOL,CITY OF BRISTOL
12.8,50,BS8 1SY,BS8 1,BRISTOL,CITY OF BRISTOL,CITY OF BRISTOL
12.8,50,BS8 1SY,BS8 1,BRISTOL,CITY OF BRISTOL,CITY OF BRISTOL
12.8,50,BS8 1SY,BS8 1,BRISTOL,CITY OF BRISTOL,CITY OF BRISTOL
12.8,50,BS8 1SY,BS8 1,BRISTOL,CITY OF BRISTOL,CITY OF BRISTOL
12.8,50,BS8 1SY,BS8 1,BRISTOL,CITY OF BRISTOL,CITY OF BRISTOL
10.7,16.2,BS8 1SZ,BS8 1,BRISTOL,CITY OF BRISTOL,CITY OF BRISTOL
68.3,200,BS8 2AJ,BS8 2,BRISTOL,CITY OF BRISTOL,CITY OF BRISTOL
68.3,200,BS8 2AJ,BS8 2,BRISTOL,CITY OF BRISTOL,CITY OF BRISTOL
68.3,200,BS8 2AJ,BS8 2,BRISTOL,CITY OF BRISTOL,CITY OF BRISTOL
71.5,200,BS8 2AL,BS8 2,BRISTOL,CITY OF BRISTOL,CITY OF BRISTOL
71.5,200,BS8 2AL,BS8 2,BRISTOL,CITY OF BRISTOL,CITY OF BRISTOL
74.3,106.3,BS8 2AW,BS8 2,BRISTOL,CITY OF BRISTOL,CITY OF BRISTOL
80.6,200,BS8 2BB,BS8 2,BRISTOL,CITY OF BRISTOL,CITY OF BRISTOL
80.6,200,BS8 2BB,BS8 2,BRISTOL,CITY OF BRISTOL,CITY OF BRISTOL
80.6,200,BS8 2BB,BS8 2,BRISTOL,CITY OF BRISTOL,CITY OF BRISTOL
80.6,200,BS8 2BB,BS8 2,BRISTOL,CITY OF BRISTOL,CITY OF BRISTOL
80.6,200,BS8 2BB,BS8 2,BRISTOL,CITY OF BRISTOL,CITY OF BRISTOL
80.6,200,BS8 2BB,BS8 2,BRISTOL,CITY OF BRISTOL,CITY OF BRISTOL
80.6,200,BS8 2BB,BS8 2,BRISTOL,CITY OF BRISTOL,CITY OF BRISTOL
79,200,BS8 2BG,BS8 2,BRISTOL,CITY OF BRISTOL,CITY OF BRISTOL
79,200,BS8 2BG,BS8 2,BRISTOL,CITY OF BRISTOL,CITY OF BRISTOL
79,200,BS8 2BG,BS8 2,BRISTOL,CITY OF BRISTOL,CITY OF BRISTOL
79,200,BS8 2BG,BS8 2,BRISTOL,CITY OF BRISTOL,CITY OF BRISTOL
79,200,BS8 2BG,BS8 2,BRISTOL,CITY OF BRISTOL,CITY OF BRISTOL
79,200,BS8 2BG,BS8 2,BRISTOL,CITY OF BRISTOL,CITY OF BRISTOL
79,200,BS8 2BG,BS8 2,BRISTOL,CITY OF BRISTOL,CITY OF BRISTOL
79,200,BS8 2BG,BS8 2,BRISTOL,CITY OF BRISTOL,CITY OF BRISTOL
79,200,BS8 2BG,BS8 2,BRISTOL,CITY OF BRISTOL,CITY OF BRISTOL
79,200,BS8 2BG,BS8 2,BRISTOL,CITY OF BRISTOL,CITY OF BRISTOL
79,200,BS8 2BG,BS8 2,BRISTOL,CITY OF BRISTOL,CITY OF BRISTOL
79,200,BS8 2BG,BS8 2,BRISTOL,CITY OF BRISTOL,CITY OF BRISTOL
113.4,200,BS8 2BY,BS8 2,BRISTOL,CITY OF BRISTOL,CITY OF BRISTOL
113.4,200,BS8 2BY,BS8 2,BRISTOL,CITY OF BRISTOL,CITY OF BRISTOL
113.4,200,BS8 2BY,BS8 2,BRISTOL,CITY OF BRISTOL,CITY OF BRISTOL
47.5,200,BS8 2BZ,BS8 2,BRISTOL,CITY OF BRISTOL,CITY OF BRISTOL
47.5,200,BS8 2BZ,BS8 2,BRISTOL,CITY OF BRISTOL,CITY OF BRISTOL
47.5,200,BS8 2BZ,BS8 2,BRISTOL,CITY OF BRISTOL,CITY OF BRISTOL
47.5,200,BS8 2BZ,BS8 2,BRISTOL,CITY OF BRISTOL,CITY OF BRISTOL
47.5,200,BS8 2BZ,BS8 2,BRISTOL,CITY OF BRISTOL,CITY OF BRISTOL
47.5,200,BS8 2BZ,BS8 2,BRISTOL,CITY OF BRISTOL,CITY OF BRISTOL
47.5,200,BS8 2BZ,BS8 2,BRISTOL,CITY OF BRISTOL,CITY OF BRISTOL
88.9,200,BS8 2DD,BS8 2,BRISTOL,CITY OF BRISTOL,CITY OF BRISTOL
88.9,200,BS8 2DD,BS8 2,BRISTOL,CITY OF BRISTOL,CITY OF BRISTOL
88.9,200,BS8 2DD,BS8 2,BRISTOL,CITY OF BRISTOL,CITY OF BRISTOL
88.9,200,BS8 2DD,BS8 2,BRISTOL,CITY OF BRISTOL,CITY OF BRISTOL
62.9,200,BS8 2DE,BS8 2,BRISTOL,CITY OF BRISTOL,CITY OF BRISTOL
62.9,200,BS8 2DE,BS8 2,BRISTOL,CITY OF BRISTOL,CITY OF BRISTOL
62.9,200,BS8 2DE,BS8 2,BRISTOL,CITY OF BRISTOL,CITY OF BRISTOL
62.9,200,BS8 2DE,BS8 2,BRISTOL,CITY OF BRISTOL,CITY OF BRISTOL
69.8,106.3,BS8 2DG,BS8 2,BRISTOL,CITY OF BRISTOL,CITY OF BRISTOL
69.8,106.3,BS8 2DG,BS8 2,BRISTOL,CITY OF BRISTOL,CITY OF BRISTOL
69.8,106.3,BS8 2DG,BS8 2,BRISTOL,CITY OF BRISTOL,CITY OF BRISTOL
69.4,106.3,BS8 2DJ,BS8 2,BRISTOL,CITY OF BRISTOL,CITY OF BRISTOL
50.1,80,BS8 2DP,BS8 2,BRISTOL,CITY OF BRISTOL,CITY OF BRISTOL
50.1,80,BS8 2DP,BS8 2,BRISTOL,CITY OF BRISTOL,CITY OF BRISTOL
50.1,80,BS8 2DP,BS8 2,BRISTOL,CITY OF BRISTOL,CITY OF BRISTOL
68.7,200,BS8 2DW,BS8 2,BRISTOL,CITY OF BRISTOL,CITY OF BRISTOL
94.4,300,BS8 2EJ,BS8 2,BRISTOL,CITY OF BRISTOL,CITY OF BRISTOL
94.4,300,BS8 2EJ,BS8 2,BRISTOL,CITY OF BRISTOL,CITY OF BRISTOL
94.4,300,BS8 2EJ,BS8 2,BRISTOL,CITY OF BRISTOL,CITY OF BRISTOL
94.4,300,BS8 2EJ,BS8 2,BRISTOL,CITY OF BRISTOL,CITY OF BRISTOL
94.4,300,BS8 2EJ,BS8 2,BRISTOL,CITY OF BRISTOL,CITY OF BRISTOL
94.4,300,BS8 2EJ,BS8 2,BRISTOL,CITY OF BRISTOL,CITY OF BRISTOL
94.4,300,BS8 2EJ,BS8 2,BRISTOL,CITY OF BRISTOL,CITY OF BRISTOL
94.4,300,BS8 2EJ,BS8 2,BRISTOL,CITY OF BRISTOL,CITY OF BRISTOL
94.4,300,BS8 2EJ,BS8 2,BRISTOL,CITY OF BRISTOL,CITY OF BRISTOL
94.4,300,BS8 2EJ,BS8 2,BRISTOL,CITY OF BRISTOL,CITY OF BRISTOL
68.7,200,BS8 2HA,BS8 2,BRISTOL,CITY OF BRISTOL,CITY OF BRISTOL
68.7,200,BS8 2HA,BS8 2,BRISTOL,CITY OF BRISTOL,CITY OF BRISTOL
68.7,200,BS8 2HA,BS8 2,BRISTOL,CITY OF BRISTOL,CITY OF BRISTOL
68.7,200,BS8 2HA,BS8 2,BRISTOL,CITY OF BRISTOL,CITY OF BRISTOL
68.7,200,BS8 2HA,BS8 2,BRISTOL,CITY OF BRISTOL,CITY OF BRISTOL
68.7,200,BS8 2HA,BS8 2,BRISTOL,CITY OF BRISTOL,CITY OF BRISTOL
68.7,200,BS8 2HA,BS8 2,BRISTOL,CITY OF BRISTOL,CITY OF BRISTOL
68.7,200,BS8 2HA,BS8 2,BRISTOL,CITY OF BRISTOL,CITY OF BRISTOL
68.7,200,BS8 2HA,BS8 2,BRISTOL,CITY OF BRISTOL,CITY OF BRISTOL
68.7,200,BS8 2HA,BS8 2,BRISTOL,CITY OF BRISTOL,CITY OF BRISTOL
101.7,200,BS8 2HB,BS8 2,BRISTOL,CITY OF BRISTOL,CITY OF BRISTOL
99.9,200,BS8 2HD,BS8 2,BRISTOL,CITY OF BRISTOL,CITY OF BRISTOL
99.9,200,BS8 2HD,BS8 2,BRISTOL,CITY OF BRISTOL,CITY OF BRISTOL
70.2,200,BS8 2HG,BS8 2,BRISTOL,CITY OF BRISTOL,CITY OF BRISTOL
70.2,200,BS8 2HG,BS8 2,BRISTOL,CITY OF BRISTOL,CITY OF BRISTOL
75.6,200,BS8 2HL,BS8 2,BRISTOL,CITY OF BRISTOL,CITY OF BRISTOL
75.6,200,BS8 2HL,BS8 2,BRISTOL,CITY OF BRISTOL,CITY OF BRISTOL
75.6,200,BS8 2HL,BS8 2,BRISTOL,CITY OF BRISTOL,CITY OF BRISTOL
75.6,200,BS8 2HL,BS8 2,BRISTOL,CITY OF BRISTOL,CITY OF BRISTOL
59.1,120,BS8 2HT,BS8 2,BRISTOL,CITY OF BRISTOL,CITY OF BRISTOL
59.1,120,BS8 2HT,BS8 2,BRISTOL,CITY OF BRISTOL,CITY OF BRISTOL
59.1,120,BS8 2HT,BS8 2,BRISTOL,CITY OF BRISTOL,CITY OF BRISTOL
59.1,120,BS8 2HT,BS8 2,BRISTOL,CITY OF BRISTOL,CITY OF BRISTOL
97.1,200,BS8 2JB,BS8 2,BRISTOL,CITY OF BRISTOL,CITY OF BRISTOL
97.1,200,BS8 2JB,BS8 2,BRISTOL,CITY OF BRISTOL,CITY OF BRISTOL
59.2,200,BS8 2JT,BS8 2,BRISTOL,CITY OF BRISTOL,CITY OF BRISTOL
59.2,200,BS8 2JT,BS8 2,BRISTOL,CITY OF BRISTOL,CITY OF BRISTOL
59.2,200,BS8 2JT,BS8 2,BRISTOL,CITY OF BRISTOL,CITY OF BRISTOL
59.2,200,BS8 2JT,BS8 2,BRISTOL,CITY OF BRISTOL,CITY OF BRISTOL
59.2,200,BS8 2JT,BS8 2,BRISTOL,CITY OF BRISTOL,CITY OF BRISTOL
59.2,200,BS8 2JT,BS8 2,BRISTOL,CITY OF BRISTOL,CITY OF BRISTOL
59.2,200,BS8 2JT,BS8 2,BRISTOL,CITY OF BRISTOL,CITY OF BRISTOL
59.2,200,BS8 2JT,BS8 2,BRISTOL,CITY OF BRISTOL,CITY OF BRISTOL
59.2,200,BS8 2JT,BS8 2,BRISTOL,CITY OF BRISTOL,CITY OF BRISTOL
59.2,200,BS8 2JT,BS8 2,BRISTOL,CITY OF BRISTOL,CITY OF BRISTOL
59.2,200,BS8 2JT,BS8 2,BRISTOL,CITY OF BRISTOL,CITY OF BRISTOL
61.1,200,BS8 2JX,BS8 2,BRISTOL,CITY OF BRISTOL,CITY OF BRISTOL
61.1,200,BS8 2JX,BS8 2,BRISTOL,CITY OF BRISTOL,CITY OF BRISTOL
60.3,150,BS8 2JY,BS8 2,BRISTOL,CITY OF BRISTOL,CITY OF BRISTOL
60.3,150,BS8 2JY,BS8 2,BRISTOL,CITY OF BRISTOL,CITY OF BRISTOL
60.3,150,BS8 2JY,BS8 2,BRISTOL,CITY OF BRISTOL,CITY OF BRISTOL
60.3,150,BS8 2JY,BS8 2,BRISTOL,CITY OF BRISTOL,CITY OF BRISTOL
43.8,106.3,BS8 2JZ,BS8 2,BRISTOL,CITY OF BRISTOL,CITY OF BRISTOL
43.8,106.3,BS8 2JZ,BS8 2,BRISTOL,CITY OF BRISTOL,CITY OF BRISTOL
43.8,106.3,BS8 2JZ,BS8 2,BRISTOL,CITY OF BRISTOL,CITY OF BRISTOL
43.8,106.3,BS8 2JZ,BS8 2,BRISTOL,CITY OF BRISTOL,CITY OF BRISTOL
43.8,106.3,BS8 2JZ,BS8 2,BRISTOL,CITY OF BRISTOL,CITY OF BRISTOL
74.8,200,BS8 2ST,BS8 2,BRISTOL,CITY OF BRISTOL,CITY OF BRISTOL
83.2,200,BS8 2TS,BS8 2,BRISTOL,CITY OF BRISTOL,CITY OF BRISTOL
83.2,200,BS8 2TS,BS8 2,BRISTOL,CITY OF BRISTOL,CITY OF BRISTOL
83.2,200,BS8 2TS,BS8 2,BRISTOL,CITY OF BRISTOL,CITY OF BRISTOL
83.2,200,BS8 2TS,BS8 2,BRISTOL,CITY OF BRISTOL,CITY OF BRISTOL
101.1,200,BS8 3AU,BS8 3,BRISTOL,CITY OF BRISTOL,CITY OF BRISTOL
101.1,200,BS8 3AU,BS8 3,BRISTOL,CITY OF BRISTOL,CITY OF BRISTOL
101.1,200,BS8 3AU,BS8 3,BRISTOL,CITY OF BRISTOL,CITY OF BRISTOL
70.6,200,BS8 3AX,BS8 3,BRISTOL,CITY OF BRISTOL,CITY OF BRISTOL
70.6,200,BS8 3AX,BS8 3,BRISTOL,CITY OF BRISTOL,CITY OF BRISTOL
70.6,200,BS8 3AX,BS8 3,BRISTOL,CITY OF BRISTOL,CITY OF BRISTOL
70.6,200,BS8 3AX,BS8 3,BRISTOL,CITY OF BRISTOL,CITY OF BRISTOL
70.6,200,BS8 3AX,BS8 3,BRISTOL,CITY OF BRISTOL,CITY OF BRISTOL
70.6,200,BS8 3AX,BS8 3,BRISTOL,CITY OF BRISTOL,CITY OF BRISTOL
108.2,200,BS8 3BA,BS8 3,BRISTOL,CITY OF BRISTOL,CITY OF BRISTOL
108.2,200,BS8 3BA,BS8 3,BRISTOL,CITY OF BRISTOL,CITY OF BRISTOL
108.2,200,BS8 3BA,BS8 3,BRISTOL,CITY OF BRISTOL,CITY OF BRISTOL
108.2,200,BS8 3BA,BS8 3,BRISTOL,CITY OF BRISTOL,CITY OF BRISTOL
81.7,200,BS8 3BB,BS8 3,BRISTOL,CITY OF BRISTOL,CITY OF BRISTOL
81.7,200,BS8 3BB,BS8 3,BRISTOL,CITY OF BRISTOL,CITY OF BRISTOL
81.7,200,BS8 3BB,BS8 3,BRISTOL,CITY OF BRISTOL,CITY OF BRISTOL
81.7,200,BS8 3BB,BS8 3,BRISTOL,CITY OF BRISTOL,CITY OF BRISTOL
90.4,200,BS8 3BE,BS8 3,BRISTOL,CITY OF BRISTOL,CITY OF BRISTOL
29.4,80,BS8 3DR,BS8 3,BRISTOL,CITY OF BRISTOL,CITY OF BRISTOL
29.4,80,BS8 3DR,BS8 3,BRISTOL,CITY OF BRISTOL,CITY OF BRISTOL
29.4,80,BS8 3DR,BS8 3,BRISTOL,CITY OF BRISTOL,CITY OF BRISTOL
29.4,80,BS8 3DR,BS8 3,BRISTOL,CITY OF BRISTOL,CITY OF BRISTOL
29.4,80,BS8 3DR,BS8 3,BRISTOL,CITY OF BRISTOL,CITY OF BRISTOL
29.4,80,BS8 3DR,BS8 3,BRISTOL,CITY OF BRISTOL,CITY OF BRISTOL
29.4,80,BS8 3DR,BS8 3,BRISTOL,CITY OF BRISTOL,CITY OF BRISTOL
29.4,80,BS8 3DR,BS8 3,BRISTOL,CITY OF BRISTOL,CITY OF BRISTOL
29.4,80,BS8 3DR,BS8 3,BRISTOL,CITY OF BRISTOL,CITY OF BRISTOL
29.4,80,BS8 3DR,BS8 3,BRISTOL,CITY OF BRISTOL,CITY OF BRISTOL
29.4,80,BS8 3DR,BS8 3,BRISTOL,CITY OF BRISTOL,CITY OF BRISTOL
94.8,300,BS8 3DT,BS8 3,BRISTOL,CITY OF BRISTOL,CITY OF BRISTOL
94.8,300,BS8 3DT,BS8 3,BRISTOL,CITY OF BRISTOL,CITY OF BRISTOL
94.8,300,BS8 3DT,BS8 3,BRISTOL,CITY OF BRISTOL,CITY OF BRISTOL
72.4,300,BS8 3DW,BS8 3,BRISTOL,CITY OF BRISTOL,CITY OF BRISTOL
72.4,300,BS8 3DW,BS8 3,BRISTOL,CITY OF BRISTOL,CITY OF BRISTOL
72.4,300,BS8 3DW,BS8 3,BRISTOL,CITY OF BRISTOL,CITY OF BRISTOL
72.4,300,BS8 3DW,BS8 3,BRISTOL,CITY OF BRISTOL,CITY OF BRISTOL
72.4,300,BS8 3DW,BS8 3,BRISTOL,CITY OF BRISTOL,CITY OF BRISTOL
72.4,300,BS8 3DW,BS8 3,BRISTOL,CITY OF BRISTOL,CITY OF BRISTOL
72.4,300,BS8 3DW,BS8 3,BRISTOL,CITY OF BRISTOL,CITY OF BRISTOL
72.4,300,BS8 3DW,BS8 3,BRISTOL,CITY OF BRISTOL,CITY OF BRISTOL
72.4,300,BS8 3DW,BS8 3,BRISTOL,CITY OF BRISTOL,CITY OF BRISTOL
97.5,200,BS8 3DX,BS8 3,BRISTOL,CITY OF BRISTOL,CITY OF BRISTOL
79.4,200,BS8 3EE,BS8 3,BRISTOL,CITY OF BRISTOL,CITY OF BRISTOL
79.4,200,BS8 3EE,BS8 3,BRISTOL,CITY OF BRISTOL,CITY OF BRISTOL
92.5,200,BS8 3EF,BS8 3,BRISTOL,CITY OF BRISTOL,CITY OF BRISTOL
73.3,200,BS8 3EG,BS8 3,BRISTOL,CITY OF BRISTOL,CITY OF BRISTOL
73.3,200,BS8 3EG,BS8 3,BRISTOL,CITY OF BRISTOL,CITY OF BRISTOL
73.3,200,BS8 3EG,BS8 3,BRISTOL,CITY OF BRISTOL,CITY OF BRISTOL
73.3,200,BS8 3EG,BS8 3,BRISTOL,CITY OF BRISTOL,CITY OF BRISTOL
73.3,200,BS8 3EG,BS8 3,BRISTOL,CITY OF BRISTOL,CITY OF BRISTOL
73.3,200,BS8 3EG,BS8 3,BRISTOL,CITY OF BRISTOL,CITY OF BRISTOL
73.3,200,BS8 3EG,BS8 3,BRISTOL,CITY OF BRISTOL,CITY OF BRISTOL
73.3,200,BS8 3EG,BS8 3,BRISTOL,CITY OF BRISTOL,CITY OF BRISTOL
137.1,300,BS8 3EQ,BS8 3,BRISTOL,CITY OF BRISTOL,CITY OF BRISTOL
74.4,200,BS8 3ER,BS8 3,BRISTOL,CITY OF BRISTOL,CITY OF BRISTOL
66.5,200,BS8 3EU,BS8 3,BRISTOL,CITY OF BRISTOL,CITY OF BRISTOL
66.5,200,BS8 3EU,BS8 3,BRISTOL,CITY OF BRISTOL,CITY OF BRISTOL
66.5,200,BS8 3EU,BS8 3,BRISTOL,CITY OF BRISTOL,CITY OF BRISTOL
66.5,200,BS8 3EU,BS8 3,BRISTOL,CITY OF BRISTOL,CITY OF BRISTOL
66.5,200,BS8 3EU,BS8 3,BRISTOL,CITY OF BRISTOL,CITY OF BRISTOL
98.9,200,BS8 3EW,BS8 3,BRISTOL,CITY OF BRISTOL,CITY OF BRISTOL
98.9,200,BS8 3EW,BS8 3,BRISTOL,CITY OF BRISTOL,CITY OF BRISTOL
75.6,300,BS8 3GE,BS8 3,BRISTOL,CITY OF BRISTOL,CITY OF BRISTOL
75.6,300,BS8 3GE,BS8 3,BRISTOL,CITY OF BRISTOL,CITY OF BRISTOL
75.6,300,BS8 3GE,BS8 3,BRISTOL,CITY OF BRISTOL,CITY OF BRISTOL
75.6,300,BS8 3GE,BS8 3,BRISTOL,CITY OF BRISTOL,CITY OF BRISTOL
75.6,300,BS8 3GE,BS8 3,BRISTOL,CITY OF BRISTOL,CITY OF BRISTOL
75.6,300,BS8 3GE,BS8 3,BRISTOL,CITY OF BRISTOL,CITY OF BRISTOL
89.4,150,BS8 3GF,BS8 3,BRISTOL,CITY OF BRISTOL,CITY OF BRISTOL
26.4,59.9,BS8 3GH,BS8 3,BRISTOL,CITY OF BRISTOL,CITY OF BRISTOL
92.8,200,BS8 3HB,BS8 3,BRISTOL,CITY OF BRISTOL,CITY OF BRISTOL
81,200,BS8 3HG,BS8 3,BRISTOL,CITY OF BRISTOL,CITY OF BRISTOL
81,200,BS8 3HG,BS8 3,BRISTOL,CITY OF BRISTOL,CITY OF BRISTOL
81,200,BS8 3HG,BS8 3,BRISTOL,CITY OF BRISTOL,CITY OF BRISTOL
80.7,200,BS8 3HX,BS8 3,BRISTOL,CITY OF BRISTOL,CITY OF BRISTOL
80.7,200,BS8 3HX,BS8 3,BRISTOL,CITY OF BRISTOL,CITY OF BRISTOL
53.5,200,BS8 3HZ,BS8 3,BRISTOL,CITY OF BRISTOL,CITY OF BRISTOL
53.5,200,BS8 3HZ,BS8 3,BRISTOL,CITY OF BRISTOL,CITY OF BRISTOL
53.5,200,BS8 3HZ,BS8 3,BRISTOL,CITY OF BRISTOL,CITY OF BRISTOL
53.5,200,BS8 3HZ,BS8 3,BRISTOL,CITY OF BRISTOL,CITY OF BRISTOL
53.5,200,BS8 3HZ,BS8 3,BRISTOL,CITY OF BRISTOL,CITY OF BRISTOL
68.2,200,BS8 4AW,BS8 4,BRISTOL,CITY OF BRISTOL,CITY OF BRISTOL
68.2,200,BS8 4AW,BS8 4,BRISTOL,CITY OF BRISTOL,CITY OF BRISTOL
68.2,200,BS8 4AW,BS8 4,BRISTOL,CITY OF BRISTOL,CITY OF BRISTOL
68.2,200,BS8 4AW,BS8 4,BRISTOL,CITY OF BRISTOL,CITY OF BRISTOL
68.2,200,BS8 4AW,BS8 4,BRISTOL,CITY OF BRISTOL,CITY OF BRISTOL
68.2,200,BS8 4AW,BS8 4,BRISTOL,CITY OF BRISTOL,CITY OF BRISTOL
68.2,200,BS8 4AW,BS8 4,BRISTOL,CITY OF BRISTOL,CITY OF BRISTOL
52.3,200,BS8 4BG,BS8 4,BRISTOL,CITY OF BRISTOL,CITY OF BRISTOL
52.3,200,BS8 4BG,BS8 4,BRISTOL,CITY OF BRISTOL,CITY OF BRISTOL
52.3,200,BS8 4BG,BS8 4,BRISTOL,CITY OF BRISTOL,CITY OF BRISTOL
52.3,200,BS8 4BG,BS8 4,BRISTOL,CITY OF BRISTOL,CITY OF BRISTOL
52.3,200,BS8 4BG,BS8 4,BRISTOL,CITY OF BRISTOL,CITY OF BRISTOL
52.3,200,BS8 4BG,BS8 4,BRISTOL,CITY OF BRISTOL,CITY OF BRISTOL
52.3,200,BS8 4BG,BS8 4,BRISTOL,CITY OF BRISTOL,CITY OF BRISTOL
52.3,200,BS8 4BG,BS8 4,BRISTOL,CITY OF BRISTOL,CITY OF BRISTOL
30.3,200,BS8 4BH,BS8 4,BRISTOL,CITY OF BRISTOL,CITY OF BRISTOL
30.3,200,BS8 4BH,BS8 4,BRISTOL,CITY OF BRISTOL,CITY OF BRISTOL
84.3,200,BS8 4BJ,BS8 4,BRISTOL,CITY OF BRISTOL,CITY OF BRISTOL
84.3,200,BS8 4BJ,BS8 4,BRISTOL,CITY OF BRISTOL,CITY OF BRISTOL
64.2,200,BS8 4BQ,BS8 4,BRISTOL,CITY OF BRISTOL,CITY OF BRISTOL
64.2,200,BS8 4BQ,BS8 4,BRISTOL,CITY OF BRISTOL,CITY OF BRISTOL
64.2,200,BS8 4BQ,BS8 4,BRISTOL,CITY OF BRISTOL,CITY OF BRISTOL
64.2,200,BS8 4BQ,BS8 4,BRISTOL,CITY OF BRISTOL,CITY OF BRISTOL
64.2,200,BS8 4BQ,BS8 4,BRISTOL,CITY OF BRISTOL,CITY OF BRISTOL
64.2,200,BS8 4BQ,BS8 4,BRISTOL,CITY OF BRISTOL,CITY OF BRISTOL
64.2,200,BS8 4BQ,BS8 4,BRISTOL,CITY OF BRISTOL,CITY OF BRISTOL
51.9,200,BS8 4BT,BS8 4,BRISTOL,CITY OF BRISTOL,CITY OF BRISTOL
51.9,200,BS8 4BT,BS8 4,BRISTOL,CITY OF BRISTOL,CITY OF BRISTOL
51.9,200,BS8 4BT,BS8 4,BRISTOL,CITY OF BRISTOL,CITY OF BRISTOL
35.1,200,BS8 4DR,BS8 4,BRISTOL,CITY OF BRISTOL,CITY OF BRISTOL
38,106.3,BS8 4DS,BS8 4,BRISTOL,CITY OF BRISTOL,CITY OF BRISTOL
38,106.3,BS8 4DS,BS8 4,BRISTOL,CITY OF BRISTOL,CITY OF BRISTOL
87.3,200,BS8 4EF,BS8 4,BRISTOL,CITY OF BRISTOL,CITY OF BRISTOL
87.3,200,BS8 4EF,BS8 4,BRISTOL,CITY OF BRISTOL,CITY OF BRISTOL
87.3,200,BS8 4EF,BS8 4,BRISTOL,CITY OF BRISTOL,CITY OF BRISTOL
123.7,200,BS8 4EP,BS8 4,BRISTOL,CITY OF BRISTOL,CITY OF BRISTOL
61.1,200,BS8 4HA,BS8 4,BRISTOL,CITY OF BRISTOL,CITY OF BRISTOL
61.1,200,BS8 4HA,BS8 4,BRISTOL,CITY OF BRISTOL,CITY OF BRISTOL
61.1,200,BS8 4HA,BS8 4,BRISTOL,CITY OF BRISTOL,CITY OF BRISTOL
61.1,200,BS8 4HA,BS8 4,BRISTOL,CITY OF BRISTOL,CITY OF BRISTOL
43.8,80,BS8 4HB,BS8 4,BRISTOL,CITY OF BRISTOL,CITY OF BRISTOL
43.8,80,BS8 4HB,BS8 4,BRISTOL,CITY OF BRISTOL,CITY OF BRISTOL
43.8,80,BS8 4HB,BS8 4,BRISTOL,CITY OF BRISTOL,CITY OF BRISTOL
44.1,80,BS8 4HD,BS8 4,BRISTOL,CITY OF BRISTOL,CITY OF BRISTOL
37.6,80,BS8 4HH,BS8 4,BRISTOL,CITY OF BRISTOL,CITY OF BRISTOL
37.6,80,BS8 4HH,BS8 4,BRISTOL,CITY OF BRISTOL,CITY OF BRISTOL
37.6,80,BS8 4HH,BS8 4,BRISTOL,CITY OF BRISTOL,CITY OF BRISTOL
37.6,80,BS8 4HH,BS8 4,BRISTOL,CITY OF BRISTOL,CITY OF BRISTOL
37.6,80,BS8 4HH,BS8 4,BRISTOL,CITY OF BRISTOL,CITY OF BRISTOL
37.6,80,BS8 4HH,BS8 4,BRISTOL,CITY OF BRISTOL,CITY OF BRISTOL
37.6,80,BS8 4HH,BS8 4,BRISTOL,CITY OF BRISTOL,CITY OF BRISTOL
37.6,80,BS8 4HH,BS8 4,BRISTOL,CITY OF BRISTOL,CITY OF BRISTOL
37.6,80,BS8 4HH,BS8 4,BRISTOL,CITY OF BRISTOL,CITY OF BRISTOL
37.6,80,BS8 4HH,BS8 4,BRISTOL,CITY OF BRISTOL,CITY OF BRISTOL
37.6,80,BS8 4HH,BS8 4,BRISTOL,CITY OF BRISTOL,CITY OF BRISTOL
37.6,80,BS8 4HH,BS8 4,BRISTOL,CITY OF BRISTOL,CITY OF BRISTOL
93.5,200,BS8 4HR,BS8 4,BRISTOL,CITY OF BRISTOL,CITY OF BRISTOL
93.5,200,BS8 4HR,BS8 4,BRISTOL,CITY OF BRISTOL,CITY OF BRISTOL
93.5,200,BS8 4HR,BS8 4,BRISTOL,CITY OF BRISTOL,CITY OF BRISTOL
93.5,200,BS8 4HR,BS8 4,BRISTOL,CITY OF BRISTOL,CITY OF BRISTOL
60.5,150,BS8 4HW,BS8 4,BRISTOL,CITY OF BRISTOL,CITY OF BRISTOL
58.4,80,BS8 4JA,BS8 4,BRISTOL,CITY OF BRISTOL,CITY OF BRISTOL
16,50,BS8 4JD,BS8 4,BRISTOL,CITY OF BRISTOL,CITY OF BRISTOL
54,200,BS8 4JF,BS8 4,BRISTOL,CITY OF BRISTOL,CITY OF BRISTOL
54,200,BS8 4JF,BS8 4,BRISTOL,CITY OF BRISTOL,CITY OF BRISTOL
54,200,BS8 4JF,BS8 4,BRISTOL,CITY OF BRISTOL,CITY OF BRISTOL
54,200,BS8 4JF,BS8 4,BRISTOL,CITY OF BRISTOL,CITY OF BRISTOL
54,200,BS8 4JF,BS8 4,BRISTOL,CITY OF BRISTOL,CITY OF BRISTOL
62.9,200,BS8 4JG,BS8 4,BRISTOL,CITY OF BRISTOL,CITY OF BRISTOL
60.6,200,BS8 4JS,BS8 4,BRISTOL,CITY OF BRISTOL,CITY OF BRISTOL
60.6,200,BS8 4JS,BS8 4,BRISTOL,CITY OF BRISTOL,CITY OF BRISTOL
60.6,200,BS8 4JS,BS8 4,BRISTOL,CITY OF BRISTOL,CITY OF BRISTOL
60.6,200,BS8 4JS,BS8 4,BRISTOL,CITY OF BRISTOL,CITY OF BRISTOL
60.6,200,BS8 4JS,BS8 4,BRISTOL,CITY OF BRISTOL,CITY OF BRISTOL
60.6,200,BS8 4JS,BS8 4,BRISTOL,CITY OF BRISTOL,CITY OF BRISTOL
60.6,200,BS8 4JS,BS8 4,BRISTOL,CITY OF BRISTOL,CITY OF BRISTOL
60.6,200,BS8 4JS,BS8 4,BRISTOL,CITY OF BRISTOL,CITY OF BRISTOL
67.1,200,BS8 4JU,BS8 4,BRISTOL,CITY OF BRISTOL,CITY OF BRISTOL
67.1,200,BS8 4JU,BS8 4,BRISTOL,CITY OF BRISTOL,CITY OF BRISTOL
67.1,200,BS8 4JU,BS8 4,BRISTOL,CITY OF BRISTOL,CITY OF BRISTOL
67.1,200,BS8 4JU,BS8 4,BRISTOL,CITY OF BRISTOL,CITY OF BRISTOL
27.5,80,BS8 4JW,BS8 4,BRISTOL,CITY OF BRISTOL,CITY OF BRISTOL
27.5,80,BS8 4JW,BS8 4,BRISTOL,CITY OF BRISTOL,CITY OF BRISTOL
27.5,80,BS8 4JW,BS8 4,BRISTOL,CITY OF BRISTOL,CITY OF BRISTOL
27.5,80,BS8 4JW,BS8 4,BRISTOL,CITY OF BRISTOL,CITY OF BRISTOL
27.5,80,BS8 4JW,BS8 4,BRISTOL,CITY OF BRISTOL,CITY OF BRISTOL
27.5,80,BS8 4JW,BS8 4,BRISTOL,CITY OF BRISTOL,CITY OF BRISTOL
27.5,80,BS8 4JW,BS8 4,BRISTOL,CITY OF BRISTOL,CITY OF BRISTOL
27.5,80,BS8 4JW,BS8 4,BRISTOL,CITY OF BRISTOL,CITY OF BRISTOL
48,200,BS8 4JX,BS8 4,BRISTOL,CITY OF BRISTOL,CITY OF BRISTOL
55.6,200,BS8 4JZ,BS8 4,BRISTOL,CITY OF BRISTOL,CITY OF BRISTOL
55.6,200,BS8 4JZ,BS8 4,BRISTOL,CITY OF BRISTOL,CITY OF BRISTOL
55.6,200,BS8 4JZ,BS8 4,BRISTOL,CITY OF BRISTOL,CITY OF BRISTOL
55.6,200,BS8 4JZ,BS8 4,BRISTOL,CITY OF BRISTOL,CITY OF BRISTOL
55.6,200,BS8 4JZ,BS8 4,BRISTOL,CITY OF BRISTOL,CITY OF BRISTOL
68.4,200,BS8 4LJ,BS8 4,BRISTOL,CITY OF BRISTOL,CITY OF BRISTOL
68.4,200,BS8 4LJ,BS8 4,BRISTOL,CITY OF BRISTOL,CITY OF BRISTOL
68.4,200,BS8 4LJ,BS8 4,BRISTOL,CITY OF BRISTOL,CITY OF BRISTOL
68.4,200,BS8 4LJ,BS8 4,BRISTOL,CITY OF BRISTOL,CITY OF BRISTOL
68.4,200,BS8 4LJ,BS8 4,BRISTOL,CITY OF BRISTOL,CITY OF BRISTOL
68.4,200,BS8 4LJ,BS8 4,BRISTOL,CITY OF BRISTOL,CITY OF BRISTOL
68.4,200,BS8 4LJ,BS8 4,BRISTOL,CITY OF BRISTOL,CITY OF BRISTOL
57,200,BS8 4LL,BS8 4,BRISTOL,CITY OF BRISTOL,CITY OF BRISTOL
57,200,BS8 4LL,BS8 4,BRISTOL,CITY OF BRISTOL,CITY OF BRISTOL
57,200,BS8 4LL,BS8 4,BRISTOL,CITY OF BRISTOL,CITY OF BRISTOL
65,150,BS8 4LN,BS8 4,BRISTOL,CITY OF BRISTOL,CITY OF BRISTOL
65,150,BS8 4LN,BS8 4,BRISTOL,CITY OF BRISTOL,CITY OF BRISTOL
65,150,BS8 4LN,BS8 4,BRISTOL,CITY OF BRISTOL,CITY OF BRISTOL
65,150,BS8 4LN,BS8 4,BRISTOL,CITY OF BRISTOL,CITY OF BRISTOL
37.3,100,BS8 4LW,BS8 4,BRISTOL,CITY OF BRISTOL,CITY OF BRISTOL
37.3,100,BS8 4LW,BS8 4,BRISTOL,CITY OF BRISTOL,CITY OF BRISTOL
37.3,100,BS8 4LW,BS8 4,BRISTOL,CITY OF BRISTOL,CITY OF BRISTOL
37.3,100,BS8 4LW,BS8 4,BRISTOL,CITY OF BRISTOL,CITY OF BRISTOL
37.3,100,BS8 4LW,BS8 4,BRISTOL,CITY OF BRISTOL,CITY OF BRISTOL
56,106.3,BS8 4PZ,BS8 4,BRISTOL,CITY OF BRISTOL,CITY OF BRISTOL
56,106.3,BS8 4PZ,BS8 4,BRISTOL,CITY OF BRISTOL,CITY OF BRISTOL
92.8,200,BS8 4QD,BS8 4,BRISTOL,CITY OF BRISTOL,CITY OF BRISTOL
92.8,200,BS8 4QD,BS8 4,BRISTOL,CITY OF BRISTOL,CITY OF BRISTOL
85.9,200,BS8 4TD,BS8 4,BRISTOL,CITY OF BRISTOL,CITY OF BRISTOL
33.7,100,BS8 4TL,BS8 4,BRISTOL,CITY OF BRISTOL,CITY OF BRISTOL
83.1,200,BS8 4TR,BS8 4,BRISTOL,CITY OF BRISTOL,CITY OF BRISTOL
83.1,200,BS8 4TR,BS8 4,BRISTOL,CITY OF BRISTOL,CITY OF BRISTOL
46.1,79.9,BS9 1JT,BS9 1,BRISTOL,CITY OF BRISTOL,CITY OF BRISTOL
46.1,79.9,BS9 1JT,BS9 1,BRISTOL,CITY OF BRISTOL,CITY OF BRISTOL
72.6,200,BS9 1LU,BS9 1,BRISTOL,CITY OF BRISTOL,CITY OF BRISTOL
72.6,200,BS9 1LU,BS9 1,BRISTOL,CITY OF BRISTOL,CITY OF BRISTOL
72.6,200,BS9 1LU,BS9 1,BRISTOL,CITY OF BRISTOL,CITY OF BRISTOL
105.9,200,BS9 1LX,BS9 1,BRISTOL,CITY OF BRISTOL,CITY OF BRISTOL
105.9,200,BS9 1LX,BS9 1,BRISTOL,CITY OF BRISTOL,CITY OF BRISTOL
105.9,200,BS9 1LX,BS9 1,BRISTOL,CITY OF BRISTOL,CITY OF BRISTOL
105.9,200,BS9 1LX,BS9 1,BRISTOL,CITY OF BRISTOL,CITY OF BRISTOL
105.9,200,BS9 1LX,BS9 1,BRISTOL,CITY OF BRISTOL,CITY OF BRISTOL
105.9,200,BS9 1LX,BS9 1,BRISTOL,CITY OF BRISTOL,CITY OF BRISTOL
68.5,200,BS9 1LY,BS9 1,BRISTOL,CITY OF BRISTOL,CITY OF BRISTOL
68.5,200,BS9 1LY,BS9 1,BRISTOL,CITY OF BRISTOL,CITY OF BRISTOL
84.2,200,BS9 1LZ,BS9 1,BRISTOL,CITY OF BRISTOL,CITY OF BRISTOL
108.7,200,BS9 1NA,BS9 1,BRISTOL,CITY OF BRISTOL,CITY OF BRISTOL
108.7,200,BS9 1NA,BS9 1,BRISTOL,CITY OF BRISTOL,CITY OF BRISTOL
108.7,200,BS9 1NA,BS9 1,BRISTOL,CITY OF BRISTOL,CITY OF BRISTOL
108.7,200,BS9 1NA,BS9 1,BRISTOL,CITY OF BRISTOL,CITY OF BRISTOL
108.7,200,BS9 1NA,BS9 1,BRISTOL,CITY OF BRISTOL,CITY OF BRISTOL
108.7,200,BS9 1NA,BS9 1,BRISTOL,CITY OF BRISTOL,CITY OF BRISTOL
108.7,200,BS9 1NA,BS9 1,BRISTOL,CITY OF BRISTOL,CITY OF BRISTOL
85.4,200,BS9 1NB,BS9 1,BRISTOL,CITY OF BRISTOL,CITY OF BRISTOL
85.4,200,BS9 1NB,BS9 1,BRISTOL,CITY OF BRISTOL,CITY OF BRISTOL
85.4,200,BS9 1NB,BS9 1,BRISTOL,CITY OF BRISTOL,CITY OF BRISTOL
63,200,BS9 1NQ,BS9 1,BRISTOL,CITY OF BRISTOL,CITY OF BRISTOL
63,200,BS9 1NQ,BS9 1,BRISTOL,CITY OF BRISTOL,CITY OF BRISTOL
63,200,BS9 1NQ,BS9 1,BRISTOL,CITY OF BRISTOL,CITY OF BRISTOL
63,200,BS9 1NQ,BS9 1,BRISTOL,CITY OF BRISTOL,CITY OF BRISTOL
71.3,200,BS9 1PA,BS9 1,BRISTOL,CITY OF BRISTOL,CITY OF BRISTOL
46.9,150,BS9 1PD,BS9 1,BRISTOL,CITY OF BRISTOL,CITY OF BRISTOL
46.9,150,BS9 1PD,BS9 1,BRISTOL,CITY OF BRISTOL,CITY OF BRISTOL
46.9,150,BS9 1PD,BS9 1,BRISTOL,CITY OF BRISTOL,CITY OF BRISTOL
46.9,150,BS9 1PD,BS9 1,BRISTOL,CITY OF BRISTOL,CITY OF BRISTOL
83.1,200,BS9 1PE,BS9 1,BRISTOL,CITY OF BRISTOL,CITY OF BRISTOL
83.1,200,BS9 1PE,BS9 1,BRISTOL,CITY OF BRISTOL,CITY OF BRISTOL
83.1,200,BS9 1PE,BS9 1,BRISTOL,CITY OF BRISTOL,CITY OF BRISTOL
83.1,200,BS9 1PE,BS9 1,BRISTOL,CITY OF BRISTOL,CITY OF BRISTOL
83.1,200,BS9 1PE,BS9 1,BRISTOL,CITY OF BRISTOL,CITY OF BRISTOL
76.3,200,BS9 1PU,BS9 1,BRISTOL,CITY OF BRISTOL,CITY OF BRISTOL
76.3,200,BS9 1PU,BS9 1,BRISTOL,CITY OF BRISTOL,CITY OF BRISTOL
76.3,200,BS9 1PU,BS9 1,BRISTOL,CITY OF BRISTOL,CITY OF BRISTOL
76.3,200,BS9 1PU,BS9 1,BRISTOL,CITY OF BRISTOL,CITY OF BRISTOL
76.3,200,BS9 1PU,BS9 1,BRISTOL,CITY OF BRISTOL,CITY OF BRISTOL
76.3,200,BS9 1PU,BS9 1,BRISTOL,CITY OF BRISTOL,CITY OF BRISTOL
76.3,200,BS9 1PU,BS9 1,BRISTOL,CITY OF BRISTOL,CITY OF BRISTOL
76.3,200,BS9 1PU,BS9 1,BRISTOL,CITY OF BRISTOL,CITY OF BRISTOL
70,200,BS9 1PY,BS9 1,BRISTOL,CITY OF BRISTOL,CITY OF BRISTOL
70,200,BS9 1PY,BS9 1,BRISTOL,CITY OF BRISTOL,CITY OF BRISTOL
66.1,200,BS9 1QA,BS9 1,BRISTOL,CITY OF BRISTOL,CITY OF BRISTOL
66.1,200,BS9 1QA,BS9 1,BRISTOL,CITY OF BRISTOL,CITY OF BRISTOL
66.1,200,BS9 1QA,BS9 1,BRISTOL,CITY OF BRISTOL,CITY OF BRISTOL
66.1,200,BS9 1QA,BS9 1,BRISTOL,CITY OF BRISTOL,CITY OF BRISTOL
66.1,200,BS9 1QA,BS9 1,BRISTOL,CITY OF BRISTOL,CITY OF BRISTOL
66.1,200,BS9 1QA,BS9 1,BRISTOL,CITY OF BRISTOL,CITY OF BRISTOL
85.9,200,BS9 1QB,BS9 1,BRISTOL,CITY OF BRISTOL,CITY OF BRISTOL
85.9,200,BS9 1QB,BS9 1,BRISTOL,CITY OF BRISTOL,CITY OF BRISTOL
85.9,200,BS9 1QB,BS9 1,BRISTOL,CITY OF BRISTOL,CITY OF BRISTOL
68.7,200,BS9 1QD,BS9 1,BRISTOL,CITY OF BRISTOL,CITY OF BRISTOL
68.7,200,BS9 1QD,BS9 1,BRISTOL,CITY OF BRISTOL,CITY OF BRISTOL
10.2,15.2,BS9 2RE,BS9 2,BRISTOL,CITY OF BRISTOL,CITY OF BRISTOL
10.2,15.2,BS9 2RE,BS9 2,BRISTOL,CITY OF BRISTOL,CITY OF BRISTOL
10.2,15.2,BS9 2RE,BS9 2,BRISTOL,CITY OF BRISTOL,CITY OF BRISTOL
10.2,15.2,BS9 2RE,BS9 2,BRISTOL,CITY OF BRISTOL,CITY OF BRISTOL
10.2,15.2,BS9 2RE,BS9 2,BRISTOL,CITY OF BRISTOL,CITY OF BRISTOL
10.2,15.2,BS9 2RE,BS9 2,BRISTOL,CITY OF BRISTOL,CITY OF BRISTOL
66.9,200,BS9 2RQ,BS9 2,BRISTOL,CITY OF BRISTOL,CITY OF BRISTOL
66.9,200,BS9 2RQ,BS9 2,BRISTOL,CITY OF BRISTOL,CITY OF BRISTOL
66.9,200,BS9 2RQ,BS9 2,BRISTOL,CITY OF BRISTOL,CITY OF BRISTOL
100,200,BS9 3AH,BS9 3,BRISTOL,CITY OF BRISTOL,CITY OF BRISTOL
100,200,BS9 3AH,BS9 3,BRISTOL,CITY OF BRISTOL,CITY OF BRISTOL
100,200,BS9 3AH,BS9 3,BRISTOL,CITY OF BRISTOL,CITY OF BRISTOL
100,200,BS9 3AH,BS9 3,BRISTOL,CITY OF BRISTOL,CITY OF BRISTOL
100,200,BS9 3AH,BS9 3,BRISTOL,CITY OF BRISTOL,CITY OF BRISTOL
100,200,BS9 3AH,BS9 3,BRISTOL,CITY OF BRISTOL,CITY OF BRISTOL
100,200,BS9 3AH,BS9 3,BRISTOL,CITY OF BRISTOL,CITY OF BRISTOL
100,200,BS9 3AH,BS9 3,BRISTOL,CITY OF BRISTOL,CITY OF BRISTOL
100,200,BS9 3AH,BS9 3,BRISTOL,CITY OF BRISTOL,CITY OF BRISTOL
89,300,BS9 3AN,BS9 3,BRISTOL,CITY OF BRISTOL,CITY OF BRISTOL
30,80,BS9 3AX,BS9 3,BRISTOL,CITY OF BRISTOL,CITY OF BRISTOL
93.9,200,BS9 3AY,BS9 3,BRISTOL,CITY OF BRISTOL,CITY OF BRISTOL
83,152,BS9 3BJ,BS9 3,BRISTOL,CITY OF BRISTOL,CITY OF BRISTOL
83,152,BS9 3BJ,BS9 3,BRISTOL,CITY OF BRISTOL,CITY OF BRISTOL
56.1,200,BS9 3BL,BS9 3,BRISTOL,CITY OF BRISTOL,CITY OF BRISTOL
56.1,200,BS9 3BL,BS9 3,BRISTOL,CITY OF BRISTOL,CITY OF BRISTOL
56.1,200,BS9 3BL,BS9 3,BRISTOL,CITY OF BRISTOL,CITY OF BRISTOL
56.1,200,BS9 3BL,BS9 3,BRISTOL,CITY OF BRISTOL,CITY OF BRISTOL
56.1,200,BS9 3BL,BS9 3,BRISTOL,CITY OF BRISTOL,CITY OF BRISTOL
69.4,300,BS9 3BQ,BS9 3,BRISTOL,CITY OF BRISTOL,CITY OF BRISTOL
69.4,300,BS9 3BQ,BS9 3,BRISTOL,CITY OF BRISTOL,CITY OF BRISTOL
38.6,106.3,BS9 3ED,BS9 3,BRISTOL,CITY OF BRISTOL,CITY OF BRISTOL
38.6,106.3,BS9 3ED,BS9 3,BRISTOL,CITY OF BRISTOL,CITY OF BRISTOL
38.6,106.3,BS9 3ED,BS9 3,BRISTOL,CITY OF BRISTOL,CITY OF BRISTOL
58.1,300,BS9 3HG,BS9 3,BRISTOL,CITY OF BRISTOL,CITY OF BRISTOL
48.7,200,BS9 3RW,BS9 3,BRISTOL,CITY OF BRISTOL,CITY OF BRISTOL
52.5,80,EX22 6TG,EX22 ,HOLSWORTHY,CORNWALL,CORNWALL
27.3,53.1,EX23 0AG,EX23 ,BUDE,CORNWALL,CORNWALL
27.3,53.1,EX23 0AG,EX23 ,BUDE,CORNWALL,CORNWALL
48,77.1,EX23 0HZ,EX23 ,BUDE,CORNWALL,CORNWALL
48,77.1,EX23 0HZ,EX23 ,BUDE,CORNWALL,CORNWALL
35.2,66.9,EX23 9BH,EX23 ,BUDE,CORNWALL,CORNWALL
35.2,66.9,EX23 9BH,EX23 ,BUDE,CORNWALL,CORNWALL
5,6.3,EX23 9BW,EX23 ,BUDE,CORNWALL,CORNWALL
5,6.3,EX23 9BW,EX23 ,BUDE,CORNWALL,CORNWALL
5,6.3,EX23 9BW,EX23 ,BUDE,CORNWALL,CORNWALL
5.1,6.8,EX23 9DA,EX23 ,BUDE,CORNWALL,CORNWALL
5.1,6.8,EX23 9DA,EX23 ,BUDE,CORNWALL,CORNWALL
5.1,6.8,EX23 9DA,EX23 ,BUDE,CORNWALL,CORNWALL
5.9,16.2,EX23 9DD,EX23 ,BUDE,CORNWALL,CORNWALL
5.9,16.2,EX23 9DD,EX23 ,BUDE,CORNWALL,CORNWALL
5.3,6.8,EX23 9DF,EX23 ,BUDE,CORNWALL,CORNWALL
4.5,6.9,EX23 9DW,EX23 ,BUDE,CORNWALL,CORNWALL
14.1,17.1,EX23 9JB,EX23 ,BUDE,CORNWALL,CORNWALL
43,80,EX23 9QY,EX23 ,BUDE,CORNWALL,CORNWALL
43,80,EX23 9QY,EX23 ,BUDE,CORNWALL,CORNWALL
43,80,EX23 9QY,EX23 ,BUDE,CORNWALL,CORNWALL
43,80,EX23 9QY,EX23 ,BUDE,CORNWALL,CORNWALL
43,80,EX23 9QY,EX23 ,BUDE,CORNWALL,CORNWALL
43,80,EX23 9QY,EX23 ,BUDE,CORNWALL,CORNWALL
43,80,EX23 9QY,EX23 ,BUDE,CORNWALL,CORNWALL
43,80,EX23 9QY,EX23 ,BUDE,CORNWALL,CORNWALL
43,80,EX23 9QY,EX23 ,BUDE,CORNWALL,CORNWALL
43,80,EX23 9QY,EX23 ,BUDE,CORNWALL,CORNWALL
43,80,EX23 9QY,EX23 ,BUDE,CORNWALL,CORNWALL
43,80,EX23 9QY,EX23 ,BUDE,CORNWALL,CORNWALL
43,80,EX23 9QY,EX23 ,BUDE,CORNWALL,CORNWALL
43,80,EX23 9QY,EX23 ,BUDE,CORNWALL,CORNWALL
43,80,EX23 9QY,EX23 ,BUDE,CORNWALL,CORNWALL
43,80,EX23 9QY,EX23 ,BUDE,CORNWALL,CORNWALL
43,80,EX23 9QY,EX23 ,BUDE,CORNWALL,CORNWALL
43,80,EX23 9QY,EX23 ,BUDE,CORNWALL,CORNWALL
43,80,EX23 9QY,EX23 ,BUDE,CORNWALL,CORNWALL
43,80,EX23 9QY,EX23 ,BUDE,CORNWALL,CORNWALL
43,80,EX23 9QY,EX23 ,BUDE,CORNWALL,CORNWALL
43,80,EX23 9QY,EX23 ,BUDE,CORNWALL,CORNWALL
43,80,EX23 9QY,EX23 ,BUDE,CORNWALL,CORNWALL
43,80,EX23 9QY,EX23 ,BUDE,CORNWALL,CORNWALL
43,80,EX23 9QY,EX23 ,BUDE,CORNWALL,CORNWALL
43,80,EX23 9QY,EX23 ,BUDE,CORNWALL,CORNWALL
43,80,EX23 9QY,EX23 ,BUDE,CORNWALL,CORNWALL
43,80,EX23 9QY,EX23 ,BUDE,CORNWALL,CORNWALL
43,80,EX23 9QY,EX23 ,BUDE,CORNWALL,CORNWALL
43,80,EX23 9QY,EX23 ,BUDE,CORNWALL,CORNWALL
43,80,EX23 9QY,EX23 ,BUDE,CORNWALL,CORNWALL
43,80,EX23 9QY,EX23 ,BUDE,CORNWALL,CORNWALL
43,80,EX23 9QY,EX23 ,BUDE,CORNWALL,CORNWALL
43,80,EX23 9QY,EX23 ,BUDE,CORNWALL,CORNWALL
43,80,EX23 9QY,EX23 ,BUDE,CORNWALL,CORNWALL
43,80,EX23 9QY,EX23 ,BUDE,CORNWALL,CORNWALL
43,80,EX23 9QY,EX23 ,BUDE,CORNWALL,CORNWALL
43,80,EX23 9QY,EX23 ,BUDE,CORNWALL,CORNWALL
43,80,EX23 9QY,EX23 ,BUDE,CORNWALL,CORNWALL
43,80,EX23 9QY,EX23 ,BUDE,CORNWALL,CORNWALL
43,80,EX23 9QY,EX23 ,BUDE,CORNWALL,CORNWALL
43,80,EX23 9QY,EX23 ,BUDE,CORNWALL,CORNWALL
43,80,EX23 9QY,EX23 ,BUDE,CORNWALL,CORNWALL
43,80,EX23 9QY,EX23 ,BUDE,CORNWALL,CORNWALL
43,80,EX23 9QY,EX23 ,BUDE,CORNWALL,CORNWALL
43,80,EX23 9QY,EX23 ,BUDE,CORNWALL,CORNWALL
43,80,EX23 9QY,EX23 ,BUDE,CORNWALL,CORNWALL
43,80,EX23 9QY,EX23 ,BUDE,CORNWALL,CORNWALL
43,80,EX23 9QY,EX23 ,BUDE,CORNWALL,CORNWALL
43,80,EX23 9QY,EX23 ,BUDE,CORNWALL,CORNWALL
43,80,EX23 9QY,EX23 ,BUDE,CORNWALL,CORNWALL
43,80,EX23 9QY,EX23 ,BUDE,CORNWALL,CORNWALL
46.9,80,PL10 1AW,PL10 ,TORPOINT,CORNWALL,CORNWALL
46.9,80,PL10 1AW,PL10 ,TORPOINT,CORNWALL,CORNWALL
15.9,55,PL10 1EN,PL10 ,TORPOINT,CORNWALL,CORNWALL
41.1,80,PL10 1NB,PL10 ,TORPOINT,CORNWALL,CORNWALL
43.2,73.9,PL10 1NE,PL10 ,TORPOINT,CORNWALL,CORNWALL
21.3,54.2,PL10 1PD,PL10 ,TORPOINT,CORNWALL,CORNWALL
21.3,54.2,PL10 1PD,PL10 ,TORPOINT,CORNWALL,CORNWALL
66.7,80,PL11 3EF,PL11 ,TORPOINT,CORNWALL,CORNWALL
66.7,80,PL11 3EF,PL11 ,TORPOINT,CORNWALL,CORNWALL
30.4,58.7,PL11 3JH,PL11 ,TORPOINT,CORNWALL,CORNWALL
30.4,58.7,PL11 3JH,PL11 ,TORPOINT,CORNWALL,CORNWALL
40.4,80,PL11 3JR,PL11 ,TORPOINT,CORNWALL,CORNWALL
40.4,80,PL11 3JR,PL11 ,TORPOINT,CORNWALL,CORNWALL
40.4,80,PL11 3JR,PL11 ,TORPOINT,CORNWALL,CORNWALL
44,80,PL11 3LX,PL11 ,TORPOINT,CORNWALL,CORNWALL
44,80,PL11 3LX,PL11 ,TORPOINT,CORNWALL,CORNWALL
43.9,64.2,PL11 3NH,PL11 ,TORPOINT,CORNWALL,CORNWALL
43.9,64.2,PL11 3NH,PL11 ,TORPOINT,CORNWALL,CORNWALL
43.9,64.2,PL11 3NH,PL11 ,TORPOINT,CORNWALL,CORNWALL
36.2,73.9,PL11 3NT,PL11 ,TORPOINT,CORNWALL,CORNWALL
36.2,73.9,PL11 3NT,PL11 ,TORPOINT,CORNWALL,CORNWALL
36.2,73.9,PL11 3NT,PL11 ,TORPOINT,CORNWALL,CORNWALL
36.2,73.9,PL11 3NT,PL11 ,TORPOINT,CORNWALL,CORNWALL
62.3,200,PL12 4AR,PL12 ,SALTASH,CORNWALL,CORNWALL
62.3,200,PL12 4AR,PL12 ,SALTASH,CORNWALL,CORNWALL
14.6,56.8,PL12 5EX,PL12 ,SALTASH,CORNWALL,CORNWALL
48.7,80,PL12 6LS,PL12 ,SALTASH,CORNWALL,CORNWALL
42.8,80,PL13 1AL,PL13 ,LOOE,CORNWALL,CORNWALL
42.8,80,PL13 1AL,PL13 ,LOOE,CORNWALL,CORNWALL
42.8,80,PL13 1AL,PL13 ,LOOE,CORNWALL,CORNWALL
42.8,80,PL13 1AL,PL13 ,LOOE,CORNWALL,CORNWALL
42.8,80,PL13 1AL,PL13 ,LOOE,CORNWALL,CORNWALL
42.8,80,PL13 1AL,PL13 ,LOOE,CORNWALL,CORNWALL
42.8,80,PL13 1AL,PL13 ,LOOE,CORNWALL,CORNWALL
42.8,80,PL13 1AL,PL13 ,LOOE,CORNWALL,CORNWALL
42.8,80,PL13 1AL,PL13 ,LOOE,CORNWALL,CORNWALL
42.8,80,PL13 1AL,PL13 ,LOOE,CORNWALL,CORNWALL
30,78.2,PL13 1BH,PL13 ,LOOE,CORNWALL,CORNWALL
16.7,16.8,PL13 1BX,PL13 ,LOOE,CORNWALL,CORNWALL
30.4,80,PL13 1DT,PL13 ,LOOE,CORNWALL,CORNWALL
30.4,80,PL13 1DT,PL13 ,LOOE,CORNWALL,CORNWALL
38,79.7,PL13 1HX,PL13 ,LOOE,CORNWALL,CORNWALL
38,79.7,PL13 1HX,PL13 ,LOOE,CORNWALL,CORNWALL
27.4,71.9,PL13 1JX,PL13 ,LOOE,CORNWALL,CORNWALL
29.9,66.6,PL13 1LB,PL13 ,LOOE,CORNWALL,CORNWALL
29.9,66.6,PL13 1LB,PL13 ,LOOE,CORNWALL,CORNWALL
38.4,80,PL13 2AQ,PL13 ,LOOE,CORNWALL,CORNWALL
38.4,80,PL13 2AQ,PL13 ,LOOE,CORNWALL,CORNWALL
10,14.7,PL13 2BS,PL13 ,LOOE,CORNWALL,CORNWALL
34.1,76.2,PL13 2BU,PL13 ,LOOE,CORNWALL,CORNWALL
10,15,PL13 2DN,PL13 ,LOOE,CORNWALL,CORNWALL
12.2,14.3,PL13 2DR,PL13 ,LOOE,CORNWALL,CORNWALL
38.6,72.4,PL13 2EL,PL13 ,LOOE,CORNWALL,CORNWALL
22.1,76.2,PL13 2ES,PL13 ,LOOE,CORNWALL,CORNWALL
22.1,76.2,PL13 2ES,PL13 ,LOOE,CORNWALL,CORNWALL
20.5,22.8,PL13 2EW,PL13 ,LOOE,CORNWALL,CORNWALL
20.5,22.8,PL13 2EW,PL13 ,LOOE,CORNWALL,CORNWALL
20.5,22.8,PL13 2EW,PL13 ,LOOE,CORNWALL,CORNWALL
20.5,22.8,PL13 2EW,PL13 ,LOOE,CORNWALL,CORNWALL
16.2,22.4,PL13 2HA,PL13 ,LOOE,CORNWALL,CORNWALL
16.2,22.4,PL13 2HA,PL13 ,LOOE,CORNWALL,CORNWALL
13.4,14.7,PL13 2HB,PL13 ,LOOE,CORNWALL,CORNWALL
13.4,14.7,PL13 2HB,PL13 ,LOOE,CORNWALL,CORNWALL
14.9,21.5,PL13 2HQ,PL13 ,LOOE,CORNWALL,CORNWALL
6.6,19.5,PL13 2JZ,PL13 ,LOOE,CORNWALL,CORNWALL
34.8,74,PL13 2QZ,PL13 ,LOOE,CORNWALL,CORNWALL
41.1,80,PL13 2RB,PL13 ,LOOE,CORNWALL,CORNWALL
57.5,79.7,PL13 2RF,PL13 ,LOOE,CORNWALL,CORNWALL
57.5,79.7,PL13 2RF,PL13 ,LOOE,CORNWALL,CORNWALL
37.1,66.4,PL13 2RX,PL13 ,LOOE,CORNWALL,CORNWALL
37.1,66.4,PL13 2RX,PL13 ,LOOE,CORNWALL,CORNWALL
45.8,80,PL13 2RY,PL13 ,LOOE,CORNWALL,CORNWALL
45.8,80,PL13 2RY,PL13 ,LOOE,CORNWALL,CORNWALL
55.5,80,PL13 2SB,PL13 ,LOOE,CORNWALL,CORNWALL
50,80,PL14 3PJ,PL14 ,LISKEARD,CORNWALL,CORNWALL
50,80,PL14 3PJ,PL14 ,LISKEARD,CORNWALL,CORNWALL
50,80,PL14 3PJ,PL14 ,LISKEARD,CORNWALL,CORNWALL
50,80,PL14 3PJ,PL14 ,LISKEARD,CORNWALL,CORNWALL
33.3,69,PL14 5DT,PL14 ,LISKEARD,CORNWALL,CORNWALL
33.5,76,PL14 5NH,PL14 ,LISKEARD,CORNWALL,CORNWALL
34.9,80,PL14 5NQ,PL14 ,LISKEARD,CORNWALL,CORNWALL
34.9,80,PL14 5NQ,PL14 ,LISKEARD,CORNWALL,CORNWALL
37,75.8,PL14 5PX,PL14 ,LISKEARD,CORNWALL,CORNWALL
37,75.8,PL14 5PX,PL14 ,LISKEARD,CORNWALL,CORNWALL
9.4,9.4,PL14 5QE,PL14 ,LISKEARD,CORNWALL,CORNWALL
9.4,9.4,PL14 5QE,PL14 ,LISKEARD,CORNWALL,CORNWALL
9.4,9.4,PL14 5QE,PL14 ,LISKEARD,CORNWALL,CORNWALL
9.4,9.4,PL14 5QE,PL14 ,LISKEARD,CORNWALL,CORNWALL
24.5,42.6,PL14 5QL,PL14 ,LISKEARD,CORNWALL,CORNWALL
24.4,39.8,PL14 5QS,PL14 ,LISKEARD,CORNWALL,CORNWALL
24.4,67,PL14 6JL,PL14 ,LISKEARD,CORNWALL,CORNWALL
24.4,67,PL14 6JL,PL14 ,LISKEARD,CORNWALL,CORNWALL
16.7,52,PL15 7ED,PL15 ,LAUNCESTON,CORNWALL,CORNWALL
16.7,52,PL15 7ED,PL15 ,LAUNCESTON,CORNWALL,CORNWALL
25,59.5,PL15 7PF,PL15 ,LAUNCESTON,CORNWALL,CORNWALL
41.1,60,PL15 9RR,PL15 ,LAUNCESTON,CORNWALL,CORNWALL
7.8,14.6,PL17 8AL,PL17 ,CALLINGTON,CORNWALL,CORNWALL
11.6,80,PL17 8BU,PL17 ,CALLINGTON,CORNWALL,CORNWALL
11.2,15.3,PL17 8EL,PL17 ,CALLINGTON,CORNWALL,CORNWALL
11.2,15.3,PL17 8EL,PL17 ,CALLINGTON,CORNWALL,CORNWALL
11.2,15.3,PL17 8EL,PL17 ,CALLINGTON,CORNWALL,CORNWALL
8.1,8.9,PL17 8HD,PL17 ,CALLINGTON,CORNWALL,CORNWALL
4.4,8.3,PL18 9TF,PL18 ,GUNNISLAKE,CORNWALL,CORNWALL
45,68.8,PL22 0PT,PL22 ,LOSTWITHIEL,CORNWALL,CORNWALL
45,68.8,PL22 0PT,PL22 ,LOSTWITHIEL,CORNWALL,CORNWALL
23.6,37.2,PL23 1LJ,PL23 ,FOWEY,CORNWALL,CORNWALL
38.6,79.8,PL23 1PB,PL23 ,FOWEY,CORNWALL,CORNWALL
38.6,79.8,PL23 1PB,PL23 ,FOWEY,CORNWALL,CORNWALL
38.6,79.8,PL23 1PB,PL23 ,FOWEY,CORNWALL,CORNWALL
28,63.7,PL23 1PL,PL23 ,FOWEY,CORNWALL,CORNWALL
28,63.7,PL23 1PL,PL23 ,FOWEY,CORNWALL,CORNWALL
28,63.7,PL23 1PL,PL23 ,FOWEY,CORNWALL,CORNWALL
28,63.7,PL23 1PL,PL23 ,FOWEY,CORNWALL,CORNWALL
27.7,74,PL23 1PQ,PL23 ,FOWEY,CORNWALL,CORNWALL
31.9,79,PL24 2EG,PL24 ,PAR,CORNWALL,CORNWALL
26.5,79.9,PL24 2NF,PL24 ,PAR,CORNWALL,CORNWALL
33.3,80,PL24 2NG,PL24 ,PAR,CORNWALL,CORNWALL
33.3,80,PL24 2NG,PL24 ,PAR,CORNWALL,CORNWALL
31.6,79.9,PL24 2NH,PL24 ,PAR,CORNWALL,CORNWALL
31.6,79.9,PL24 2NH,PL24 ,PAR,CORNWALL,CORNWALL
31.6,79.9,PL24 2NH,PL24 ,PAR,CORNWALL,CORNWALL
31.6,79.9,PL24 2NH,PL24 ,PAR,CORNWALL,CORNWALL
45.1,80,PL24 2NJ,PL24 ,PAR,CORNWALL,CORNWALL
45.1,80,PL24 2NJ,PL24 ,PAR,CORNWALL,CORNWALL
45.1,80,PL24 2NJ,PL24 ,PAR,CORNWALL,CORNWALL
45.1,80,PL24 2NJ,PL24 ,PAR,CORNWALL,CORNWALL
39,79.9,PL24 2NL,PL24 ,PAR,CORNWALL,CORNWALL
39,79.9,PL24 2NL,PL24 ,PAR,CORNWALL,CORNWALL
39,79.9,PL24 2NL,PL24 ,PAR,CORNWALL,CORNWALL
39,79.9,PL24 2NL,PL24 ,PAR,CORNWALL,CORNWALL
34.7,79.9,PL24 2NN,PL24 ,PAR,CORNWALL,CORNWALL
23.6,80,PL24 2QQ,PL24 ,PAR,CORNWALL,CORNWALL
8.9,12.7,PL25 3AL,PL25 ,ST AUSTELL,CORNWALL,CORNWALL
8.9,12.7,PL25 3AL,PL25 ,ST AUSTELL,CORNWALL,CORNWALL
27.5,79.9,PL25 3AP,PL25 ,ST AUSTELL,CORNWALL,CORNWALL
27.5,79.9,PL25 3AP,PL25 ,ST AUSTELL,CORNWALL,CORNWALL
27.5,79.9,PL25 3AP,PL25 ,ST AUSTELL,CORNWALL,CORNWALL
30.8,160,PL25 3BS,PL25 ,ST AUSTELL,CORNWALL,CORNWALL
30,79.5,PL25 3FT,PL25 ,ST AUSTELL,CORNWALL,CORNWALL
6.1,7.8,PL25 3FX,PL25 ,ST AUSTELL,CORNWALL,CORNWALL
6.1,7.8,PL25 3FX,PL25 ,ST AUSTELL,CORNWALL,CORNWALL
6.1,7.8,PL25 3FX,PL25 ,ST AUSTELL,CORNWALL,CORNWALL
6.1,7.8,PL25 3FX,PL25 ,ST AUSTELL,CORNWALL,CORNWALL
6.1,7.8,PL25 3FX,PL25 ,ST AUSTELL,CORNWALL,CORNWALL
24.8,80,PL25 3PH,PL25 ,ST AUSTELL,CORNWALL,CORNWALL
43.7,79.9,PL25 3RY,PL25 ,ST AUSTELL,CORNWALL,CORNWALL
43.7,79.9,PL25 3RY,PL25 ,ST AUSTELL,CORNWALL,CORNWALL
30.5,75.6,PL25 3RZ,PL25 ,ST AUSTELL,CORNWALL,CORNWALL
30.5,75.6,PL25 3RZ,PL25 ,ST AUSTELL,CORNWALL,CORNWALL
30.5,75.6,PL25 3RZ,PL25 ,ST AUSTELL,CORNWALL,CORNWALL
30.5,75.6,PL25 3RZ,PL25 ,ST AUSTELL,CORNWALL,CORNWALL
30.5,75.6,PL25 3RZ,PL25 ,ST AUSTELL,CORNWALL,CORNWALL
36.1,80,PL25 3SG,PL25 ,ST AUSTELL,CORNWALL,CORNWALL
36.1,80,PL25 3SG,PL25 ,ST AUSTELL,CORNWALL,CORNWALL
36.1,80,PL25 3SG,PL25 ,ST AUSTELL,CORNWALL,CORNWALL
36.1,80,PL25 3SG,PL25 ,ST AUSTELL,CORNWALL,CORNWALL
36.1,80,PL25 3SG,PL25 ,ST AUSTELL,CORNWALL,CORNWALL
36.1,80,PL25 3SG,PL25 ,ST AUSTELL,CORNWALL,CORNWALL
36.1,80,PL25 3SG,PL25 ,ST AUSTELL,CORNWALL,CORNWALL
36.1,80,PL25 3SG,PL25 ,ST AUSTELL,CORNWALL,CORNWALL
36.1,80,PL25 3SG,PL25 ,ST AUSTELL,CORNWALL,CORNWALL
36.1,80,PL25 3SG,PL25 ,ST AUSTELL,CORNWALL,CORNWALL
36.1,80,PL25 3SG,PL25 ,ST AUSTELL,CORNWALL,CORNWALL
36.1,80,PL25 3SG,PL25 ,ST AUSTELL,CORNWALL,CORNWALL
36.1,80,PL25 3SG,PL25 ,ST AUSTELL,CORNWALL,CORNWALL
36.1,80,PL25 3SG,PL25 ,ST AUSTELL,CORNWALL,CORNWALL
36.1,80,PL25 3SG,PL25 ,ST AUSTELL,CORNWALL,CORNWALL
36.1,80,PL25 3SG,PL25 ,ST AUSTELL,CORNWALL,CORNWALL
36.1,80,PL25 3SG,PL25 ,ST AUSTELL,CORNWALL,CORNWALL
36.1,80,PL25 3SG,PL25 ,ST AUSTELL,CORNWALL,CORNWALL
47.8,79.9,PL25 3SH,PL25 ,ST AUSTELL,CORNWALL,CORNWALL
47.8,79.9,PL25 3SH,PL25 ,ST AUSTELL,CORNWALL,CORNWALL
47.8,79.9,PL25 3SH,PL25 ,ST AUSTELL,CORNWALL,CORNWALL
47.8,79.9,PL25 3SH,PL25 ,ST AUSTELL,CORNWALL,CORNWALL
47.8,79.9,PL25 3SH,PL25 ,ST AUSTELL,CORNWALL,CORNWALL
38,54.8,PL25 3SQ,PL25 ,ST AUSTELL,CORNWALL,CORNWALL
38,54.8,PL25 3SQ,PL25 ,ST AUSTELL,CORNWALL,CORNWALL
38,54.8,PL25 3SQ,PL25 ,ST AUSTELL,CORNWALL,CORNWALL
38,54.8,PL25 3SQ,PL25 ,ST AUSTELL,CORNWALL,CORNWALL
38,54.8,PL25 3SQ,PL25 ,ST AUSTELL,CORNWALL,CORNWALL
38,54.8,PL25 3SQ,PL25 ,ST AUSTELL,CORNWALL,CORNWALL
4.7,7.5,PL25 4EJ,PL25 ,ST AUSTELL,CORNWALL,CORNWALL
4.7,7.5,PL25 4EJ,PL25 ,ST AUSTELL,CORNWALL,CORNWALL
66.2,328.5,PL25 5SP,PL25 ,ST AUSTELL,CORNWALL,CORNWALL
39.1,61.5,PL26 6AP,PL26 ,ST AUSTELL,CORNWALL,CORNWALL
39.1,61.5,PL26 6AP,PL26 ,ST AUSTELL,CORNWALL,CORNWALL
39.1,61.5,PL26 6AP,PL26 ,ST AUSTELL,CORNWALL,CORNWALL
25.7,72.5,PL26 6JG,PL26 ,ST AUSTELL,CORNWALL,CORNWALL
47.1,75.7,PL26 6NG,PL26 ,ST AUSTELL,CORNWALL,CORNWALL
47.1,75.7,PL26 6NG,PL26 ,ST AUSTELL,CORNWALL,CORNWALL
47.1,75.7,PL26 6NG,PL26 ,ST AUSTELL,CORNWALL,CORNWALL
47.1,75.7,PL26 6NG,PL26 ,ST AUSTELL,CORNWALL,CORNWALL
47.1,75.7,PL26 6NG,PL26 ,ST AUSTELL,CORNWALL,CORNWALL
47.1,75.7,PL26 6NG,PL26 ,ST AUSTELL,CORNWALL,CORNWALL
32.3,79.9,PL26 6QQ,PL26 ,ST AUSTELL,CORNWALL,CORNWALL
32.3,79.9,PL26 6QQ,PL26 ,ST AUSTELL,CORNWALL,CORNWALL
33.3,79.9,PL26 6RP,PL26 ,ST AUSTELL,CORNWALL,CORNWALL
33.3,79.9,PL26 6RP,PL26 ,ST AUSTELL,CORNWALL,CORNWALL
33.3,79.9,PL26 6RP,PL26 ,ST AUSTELL,CORNWALL,CORNWALL
33.3,79.9,PL26 6RP,PL26 ,ST AUSTELL,CORNWALL,CORNWALL
33.3,79.9,PL26 6RP,PL26 ,ST AUSTELL,CORNWALL,CORNWALL
33.3,79.9,PL26 6RP,PL26 ,ST AUSTELL,CORNWALL,CORNWALL
33.3,79.9,PL26 6RP,PL26 ,ST AUSTELL,CORNWALL,CORNWALL
56.7,80,PL26 6RR,PL26 ,ST AUSTELL,CORNWALL,CORNWALL
56.7,80,PL26 6RR,PL26 ,ST AUSTELL,CORNWALL,CORNWALL
56.7,80,PL26 6RR,PL26 ,ST AUSTELL,CORNWALL,CORNWALL
56.7,80,PL26 6RR,PL26 ,ST AUSTELL,CORNWALL,CORNWALL
56.7,80,PL26 6RR,PL26 ,ST AUSTELL,CORNWALL,CORNWALL
56.7,80,PL26 6RR,PL26 ,ST AUSTELL,CORNWALL,CORNWALL
36.9,79.9,PL26 6RS,PL26 ,ST AUSTELL,CORNWALL,CORNWALL
36.9,79.9,PL26 6RS,PL26 ,ST AUSTELL,CORNWALL,CORNWALL
36.9,79.9,PL26 6RS,PL26 ,ST AUSTELL,CORNWALL,CORNWALL
42.9,80,PL26 6RW,PL26 ,ST AUSTELL,CORNWALL,CORNWALL
42.9,80,PL26 6RW,PL26 ,ST AUSTELL,CORNWALL,CORNWALL
26.8,73.4,PL26 6RX,PL26 ,ST AUSTELL,CORNWALL,CORNWALL
26.8,73.4,PL26 6RX,PL26 ,ST AUSTELL,CORNWALL,CORNWALL
26.8,61.3,PL26 6RY,PL26 ,ST AUSTELL,CORNWALL,CORNWALL
23.6,35,PL26 6SA,PL26 ,ST AUSTELL,CORNWALL,CORNWALL
35.1,79.9,PL26 6SR,PL26 ,ST AUSTELL,CORNWALL,CORNWALL
17.6,22.8,PL26 6SZ,PL26 ,ST AUSTELL,CORNWALL,CORNWALL
17.6,22.8,PL26 6SZ,PL26 ,ST AUSTELL,CORNWALL,CORNWALL
17.6,22.8,PL26 6SZ,PL26 ,ST AUSTELL,CORNWALL,CORNWALL
49.3,79.9,PL26 6TU,PL26 ,ST AUSTELL,CORNWALL,CORNWALL
49.3,79.9,PL26 6TU,PL26 ,ST AUSTELL,CORNWALL,CORNWALL
49.3,79.9,PL26 6TU,PL26 ,ST AUSTELL,CORNWALL,CORNWALL
46.7,80,PL26 6UE,PL26 ,ST AUSTELL,CORNWALL,CORNWALL
33.8,79.9,PL26 6UL,PL26 ,ST AUSTELL,CORNWALL,CORNWALL
54.9,54.9,PL26 6UP,PL26 ,ST AUSTELL,CORNWALL,CORNWALL
49.3,80,PL26 6UX,PL26 ,ST AUSTELL,CORNWALL,CORNWALL
49.3,80,PL26 6UX,PL26 ,ST AUSTELL,CORNWALL,CORNWALL
25.3,51.4,PL26 7AX,PL26 ,ST AUSTELL,CORNWALL,CORNWALL
29.3,54.8,PL26 7FA,PL26 ,ST AUSTELL,CORNWALL,CORNWALL
34,76.2,PL26 7RX,PL26 ,ST AUSTELL,CORNWALL,CORNWALL
26.6,53.6,PL26 7TL,PL26 ,ST AUSTELL,CORNWALL,CORNWALL
19.9,53.3,PL26 7TY,PL26 ,ST AUSTELL,CORNWALL,CORNWALL
28,79.7,PL26 7WH,PL26 ,ST AUSTELL,CORNWALL,CORNWALL
30.6,80,PL26 7XD,PL26 ,ST AUSTELL,CORNWALL,CORNWALL
30.6,80,PL26 7XD,PL26 ,ST AUSTELL,CORNWALL,CORNWALL
30.6,80,PL26 7XD,PL26 ,ST AUSTELL,CORNWALL,CORNWALL
19.8,62.3,PL26 7XL,PL26 ,ST AUSTELL,CORNWALL,CORNWALL
26.7,68.9,PL26 7XN,PL26 ,ST AUSTELL,CORNWALL,CORNWALL
29.7,80,PL26 7YE,PL26 ,ST AUSTELL,CORNWALL,CORNWALL
29.7,80,PL26 7YE,PL26 ,ST AUSTELL,CORNWALL,CORNWALL
29.7,80,PL26 7YE,PL26 ,ST AUSTELL,CORNWALL,CORNWALL
13.7,20.4,PL26 7YG,PL26 ,ST AUSTELL,CORNWALL,CORNWALL
4.5,6.9,PL26 8AD,PL26 ,ST AUSTELL,CORNWALL,CORNWALL
4.5,6.9,PL26 8AD,PL26 ,ST AUSTELL,CORNWALL,CORNWALL
6.4,79.7,PL26 8AH,PL26 ,ST AUSTELL,CORNWALL,CORNWALL
39.3,80,PL26 8AZ,PL26 ,ST AUSTELL,CORNWALL,CORNWALL
4,5.8,PL26 8DZ,PL26 ,ST AUSTELL,CORNWALL,CORNWALL
34.8,79.9,PL26 8EP,PL26 ,ST AUSTELL,CORNWALL,CORNWALL
18.4,72.9,PL26 8EQ,PL26 ,ST AUSTELL,CORNWALL,CORNWALL
19,40,PL26 8GH,PL26 ,ST AUSTELL,CORNWALL,CORNWALL
19,40,PL26 8GH,PL26 ,ST AUSTELL,CORNWALL,CORNWALL
27.5,62.2,PL26 8HQ,PL26 ,ST AUSTELL,CORNWALL,CORNWALL
27.5,62.2,PL26 8HQ,PL26 ,ST AUSTELL,CORNWALL,CORNWALL
25.5,79.9,PL26 8JQ,PL26 ,ST AUSTELL,CORNWALL,CORNWALL
25.5,79.9,PL26 8JQ,PL26 ,ST AUSTELL,CORNWALL,CORNWALL
25.5,79.9,PL26 8JQ,PL26 ,ST AUSTELL,CORNWALL,CORNWALL
25.5,79.9,PL26 8JQ,PL26 ,ST AUSTELL,CORNWALL,CORNWALL
34.5,72.2,PL26 8JW,PL26 ,ST AUSTELL,CORNWALL,CORNWALL
34.5,72.2,PL26 8JW,PL26 ,ST AUSTELL,CORNWALL,CORNWALL
34.5,72.2,PL26 8JW,PL26 ,ST AUSTELL,CORNWALL,CORNWALL
34.5,72.2,PL26 8JW,PL26 ,ST AUSTELL,CORNWALL,CORNWALL
34.5,72.2,PL26 8JW,PL26 ,ST AUSTELL,CORNWALL,CORNWALL
34.5,72.2,PL26 8JW,PL26 ,ST AUSTELL,CORNWALL,CORNWALL
11.8,55,PL26 8LH,PL26 ,ST AUSTELL,CORNWALL,CORNWALL
11.8,55,PL26 8LH,PL26 ,ST AUSTELL,CORNWALL,CORNWALL
27,79.9,PL26 8PP,PL26 ,ST AUSTELL,CORNWALL,CORNWALL
27,79.9,PL26 8PP,PL26 ,ST AUSTELL,CORNWALL,CORNWALL
27,79.9,PL26 8PP,PL26 ,ST AUSTELL,CORNWALL,CORNWALL
27,79.9,PL26 8PP,PL26 ,ST AUSTELL,CORNWALL,CORNWALL
27,79.9,PL26 8PP,PL26 ,ST AUSTELL,CORNWALL,CORNWALL
27,79.9,PL26 8PP,PL26 ,ST AUSTELL,CORNWALL,CORNWALL
27,79.9,PL26 8PP,PL26 ,ST AUSTELL,CORNWALL,CORNWALL
27,79.9,PL26 8PP,PL26 ,ST AUSTELL,CORNWALL,CORNWALL
27,79.9,PL26 8PP,PL26 ,ST AUSTELL,CORNWALL,CORNWALL
24.7,49.8,PL26 8PY,PL26 ,ST AUSTELL,CORNWALL,CORNWALL
21.4,22.7,PL26 8RD,PL26 ,ST AUSTELL,CORNWALL,CORNWALL
21.4,22.7,PL26 8RD,PL26 ,ST AUSTELL,CORNWALL,CORNWALL
21.4,22.7,PL26 8RD,PL26 ,ST AUSTELL,CORNWALL,CORNWALL
21.4,22.7,PL26 8RD,PL26 ,ST AUSTELL,CORNWALL,CORNWALL
21.4,22.7,PL26 8RD,PL26 ,ST AUSTELL,CORNWALL,CORNWALL
21.4,22.7,PL26 8RD,PL26 ,ST AUSTELL,CORNWALL,CORNWALL
21.4,22.7,PL26 8RD,PL26 ,ST AUSTELL,CORNWALL,CORNWALL
38.1,79.9,PL26 8RE,PL26 ,ST AUSTELL,CORNWALL,CORNWALL
35,73.4,PL26 8ST,PL26 ,ST AUSTELL,CORNWALL,CORNWALL
29.7,66.1,PL26 8TL,PL26 ,ST AUSTELL,CORNWALL,CORNWALL
37.4,78.8,PL26 8YW,PL26 ,ST AUSTELL,CORNWALL,CORNWALL
3.8,6.1,PL27 6JN,PL27 ,WADEBRIDGE,CORNWALL,CORNWALL
3.8,6.1,PL27 6JN,PL27 ,WADEBRIDGE,CORNWALL,CORNWALL
3.8,6.1,PL27 6JN,PL27 ,WADEBRIDGE,CORNWALL,CORNWALL
5.2,77.5,PL27 6LD,PL27 ,WADEBRIDGE,CORNWALL,CORNWALL
28.5,80,PL27 6NP,PL27 ,WADEBRIDGE,CORNWALL,CORNWALL
28.5,80,PL27 6NP,PL27 ,WADEBRIDGE,CORNWALL,CORNWALL
28.5,80,PL27 6NP,PL27 ,WADEBRIDGE,CORNWALL,CORNWALL
28.5,80,PL27 6NP,PL27 ,WADEBRIDGE,CORNWALL,CORNWALL
37.5,80,PL27 6NW,PL27 ,WADEBRIDGE,CORNWALL,CORNWALL
37.5,80,PL27 6NW,PL27 ,WADEBRIDGE,CORNWALL,CORNWALL
2.3,18.1,PL27 6QT,PL27 ,WADEBRIDGE,CORNWALL,CORNWALL
24,54.9,PL27 6TQ,PL27 ,WADEBRIDGE,CORNWALL,CORNWALL
30.4,80,PL27 6TR,PL27 ,WADEBRIDGE,CORNWALL,CORNWALL
30.4,80,PL27 6TR,PL27 ,WADEBRIDGE,CORNWALL,CORNWALL
30.4,80,PL27 6TR,PL27 ,WADEBRIDGE,CORNWALL,CORNWALL
47.2,80,PL27 6UX,PL27 ,WADEBRIDGE,CORNWALL,CORNWALL
47.2,80,PL27 6UX,PL27 ,WADEBRIDGE,CORNWALL,CORNWALL
4.1,6.2,PL27 7TR,PL27 ,WADEBRIDGE,CORNWALL,CORNWALL
11.1,24.4,PL28 8QH,PL28 ,PADSTOW,CORNWALL,CORNWALL
11.1,24.4,PL28 8QH,PL28 ,PADSTOW,CORNWALL,CORNWALL
7.3,11.2,PL28 8QJ,PL28 ,PADSTOW,CORNWALL,CORNWALL
7.3,11.2,PL28 8QJ,PL28 ,PADSTOW,CORNWALL,CORNWALL
5.7,7.1,PL28 8QP,PL28 ,PADSTOW,CORNWALL,CORNWALL
12.5,55,PL28 8RD,PL28 ,PADSTOW,CORNWALL,CORNWALL
2.1,2.6,PL30 3JZ,PL30 ,BODMIN,CORNWALL,CORNWALL
26.5,40,PL30 3NG,PL30 ,BODMIN,CORNWALL,CORNWALL
26.5,40,PL30 3NG,PL30 ,BODMIN,CORNWALL,CORNWALL
26.5,40,PL30 3NG,PL30 ,BODMIN,CORNWALL,CORNWALL
26.5,40,PL30 3NG,PL30 ,BODMIN,CORNWALL,CORNWALL
4.6,6.6,PL30 3NJ,PL30 ,BODMIN,CORNWALL,CORNWALL
66.8,80,PL30 4JZ,PL30 ,BODMIN,CORNWALL,CORNWALL
33.2,79.9,PL30 5AF,PL30 ,BODMIN,CORNWALL,CORNWALL
33.2,79.9,PL30 5AF,PL30 ,BODMIN,CORNWALL,CORNWALL
33.2,79.9,PL30 5AF,PL30 ,BODMIN,CORNWALL,CORNWALL
33.2,79.9,PL30 5AF,PL30 ,BODMIN,CORNWALL,CORNWALL
33.2,79.9,PL30 5AF,PL30 ,BODMIN,CORNWALL,CORNWALL
33.2,79.9,PL30 5AF,PL30 ,BODMIN,CORNWALL,CORNWALL
35.4,79.6,PL30 5HD,PL30 ,BODMIN,CORNWALL,CORNWALL
35.4,79.6,PL30 5HD,PL30 ,BODMIN,CORNWALL,CORNWALL
16.5,35.4,TR10 9DF,TR10 ,PENRYN,CORNWALL,CORNWALL
22.1,54.9,TR10 9DT,TR10 ,PENRYN,CORNWALL,CORNWALL
22.1,54.9,TR10 9DT,TR10 ,PENRYN,CORNWALL,CORNWALL
11.6,16.8,TR10 9JF,TR10 ,PENRYN,CORNWALL,CORNWALL
11.6,16.8,TR10 9JF,TR10 ,PENRYN,CORNWALL,CORNWALL
16.8,21.1,TR10 9LB,TR10 ,PENRYN,CORNWALL,CORNWALL
16.8,21.1,TR10 9LB,TR10 ,PENRYN,CORNWALL,CORNWALL
24.9,65.9,TR11 5AF,TR11 ,FALMOUTH,CORNWALL,CORNWALL
24.9,65.9,TR11 5AF,TR11 ,FALMOUTH,CORNWALL,CORNWALL
24.9,65.9,TR11 5AF,TR11 ,FALMOUTH,CORNWALL,CORNWALL
24.9,65.9,TR11 5AF,TR11 ,FALMOUTH,CORNWALL,CORNWALL
36.8,64.5,TR11 5AW,TR11 ,FALMOUTH,CORNWALL,CORNWALL
36.8,64.5,TR11 5AW,TR11 ,FALMOUTH,CORNWALL,CORNWALL
7.9,37.7,TR11 5BJ,TR11 ,FALMOUTH,CORNWALL,CORNWALL
7.9,37.7,TR11 5BJ,TR11 ,FALMOUTH,CORNWALL,CORNWALL
7.9,37.7,TR11 5BJ,TR11 ,FALMOUTH,CORNWALL,CORNWALL
7.9,37.7,TR11 5BJ,TR11 ,FALMOUTH,CORNWALL,CORNWALL
7.9,37.7,TR11 5BJ,TR11 ,FALMOUTH,CORNWALL,CORNWALL
7.9,37.7,TR11 5BJ,TR11 ,FALMOUTH,CORNWALL,CORNWALL
7.9,37.7,TR11 5BJ,TR11 ,FALMOUTH,CORNWALL,CORNWALL
7.9,37.7,TR11 5BJ,TR11 ,FALMOUTH,CORNWALL,CORNWALL
7.9,37.7,TR11 5BJ,TR11 ,FALMOUTH,CORNWALL,CORNWALL
7.9,37.7,TR11 5BJ,TR11 ,FALMOUTH,CORNWALL,CORNWALL
7.9,37.7,TR11 5BJ,TR11 ,FALMOUTH,CORNWALL,CORNWALL
7.9,37.7,TR11 5BJ,TR11 ,FALMOUTH,CORNWALL,CORNWALL
7.9,37.7,TR11 5BJ,TR11 ,FALMOUTH,CORNWALL,CORNWALL
7.9,37.7,TR11 5BJ,TR11 ,FALMOUTH,CORNWALL,CORNWALL
7.9,37.7,TR11 5BJ,TR11 ,FALMOUTH,CORNWALL,CORNWALL
7.9,37.7,TR11 5BJ,TR11 ,FALMOUTH,CORNWALL,CORNWALL
7.9,37.7,TR11 5BJ,TR11 ,FALMOUTH,CORNWALL,CORNWALL
7.9,37.7,TR11 5BJ,TR11 ,FALMOUTH,CORNWALL,CORNWALL
7.9,37.7,TR11 5BJ,TR11 ,FALMOUTH,CORNWALL,CORNWALL
7.9,37.7,TR11 5BJ,TR11 ,FALMOUTH,CORNWALL,CORNWALL
7.9,37.7,TR11 5BJ,TR11 ,FALMOUTH,CORNWALL,CORNWALL
7.9,37.7,TR11 5BJ,TR11 ,FALMOUTH,CORNWALL,CORNWALL
7.9,37.7,TR11 5BJ,TR11 ,FALMOUTH,CORNWALL,CORNWALL
7.9,37.7,TR11 5BJ,TR11 ,FALMOUTH,CORNWALL,CORNWALL
7.9,37.7,TR11 5BJ,TR11 ,FALMOUTH,CORNWALL,CORNWALL
7.9,37.7,TR11 5BJ,TR11 ,FALMOUTH,CORNWALL,CORNWALL
7.9,37.7,TR11 5BJ,TR11 ,FALMOUTH,CORNWALL,CORNWALL
7.9,37.7,TR11 5BJ,TR11 ,FALMOUTH,CORNWALL,CORNWALL
7.9,37.7,TR11 5BJ,TR11 ,FALMOUTH,CORNWALL,CORNWALL
7.9,37.7,TR11 5BJ,TR11 ,FALMOUTH,CORNWALL,CORNWALL
7.9,37.7,TR11 5BJ,TR11 ,FALMOUTH,CORNWALL,CORNWALL
30.2,69.7,TR11 5EP,TR11 ,FALMOUTH,CORNWALL,CORNWALL
47.1,80,TR11 5FX,TR11 ,FALMOUTH,CORNWALL,CORNWALL
47.1,80,TR11 5FX,TR11 ,FALMOUTH,CORNWALL,CORNWALL
47.1,80,TR11 5FX,TR11 ,FALMOUTH,CORNWALL,CORNWALL
47.1,80,TR11 5FX,TR11 ,FALMOUTH,CORNWALL,CORNWALL
47.1,80,TR11 5FX,TR11 ,FALMOUTH,CORNWALL,CORNWALL
47.1,80,TR11 5FX,TR11 ,FALMOUTH,CORNWALL,CORNWALL
47.1,80,TR11 5FX,TR11 ,FALMOUTH,CORNWALL,CORNWALL
14.3,74,TR11 5HN,TR11 ,FALMOUTH,CORNWALL,CORNWALL
39.1,80,TR11 5NA,TR11 ,FALMOUTH,CORNWALL,CORNWALL
2.3,3.1,TR11 5PF,TR11 ,FALMOUTH,CORNWALL,CORNWALL
2.3,3.1,TR11 5PF,TR11 ,FALMOUTH,CORNWALL,CORNWALL
2.3,3.1,TR11 5PF,TR11 ,FALMOUTH,CORNWALL,CORNWALL
2.3,3.1,TR11 5PF,TR11 ,FALMOUTH,CORNWALL,CORNWALL
2.3,3.1,TR11 5PF,TR11 ,FALMOUTH,CORNWALL,CORNWALL
2.3,3.1,TR11 5PF,TR11 ,FALMOUTH,CORNWALL,CORNWALL
2.3,3.1,TR11 5PF,TR11 ,FALMOUTH,CORNWALL,CORNWALL
2.3,3.1,TR11 5PF,TR11 ,FALMOUTH,CORNWALL,CORNWALL
28.5,62.2,TR11 5RH,TR11 ,FALMOUTH,CORNWALL,CORNWALL
28.5,62.2,TR11 5RH,TR11 ,FALMOUTH,CORNWALL,CORNWALL
28.5,62.2,TR11 5RH,TR11 ,FALMOUTH,CORNWALL,CORNWALL
2,2.7,TR11 5SR,TR11 ,FALMOUTH,CORNWALL,CORNWALL
2,2.7,TR11 5SR,TR11 ,FALMOUTH,CORNWALL,CORNWALL
13.5,61.4,TR11 5ST,TR11 ,FALMOUTH,CORNWALL,CORNWALL
22.2,78.8,TR11 5TR,TR11 ,FALMOUTH,CORNWALL,CORNWALL
22.2,78.8,TR11 5TR,TR11 ,FALMOUTH,CORNWALL,CORNWALL
22.2,78.8,TR11 5TR,TR11 ,FALMOUTH,CORNWALL,CORNWALL
22.2,78.8,TR11 5TR,TR11 ,FALMOUTH,CORNWALL,CORNWALL
22.2,78.8,TR11 5TR,TR11 ,FALMOUTH,CORNWALL,CORNWALL
22.2,78.8,TR11 5TR,TR11 ,FALMOUTH,CORNWALL,CORNWALL
22.2,78.8,TR11 5TR,TR11 ,FALMOUTH,CORNWALL,CORNWALL
31.7,80,TR1 1SS,TR1 1,TRURO,CORNWALL,CORNWALL
19.9,40.5,TR1 1TQ,TR1 1,TRURO,CORNWALL,CORNWALL
29.7,70.4,TR12 6PL,TR12 ,HELSTON,CORNWALL,CORNWALL
29.7,70.4,TR12 6PL,TR12 ,HELSTON,CORNWALL,CORNWALL
14,27.4,TR12 6RP,TR12 ,HELSTON,CORNWALL,CORNWALL
14,27.4,TR12 6RP,TR12 ,HELSTON,CORNWALL,CORNWALL
3.6,5,TR12 6SA,TR12 ,HELSTON,CORNWALL,CORNWALL
3.6,5,TR12 6SA,TR12 ,HELSTON,CORNWALL,CORNWALL
4.3,4.3,TR12 6TJ,TR12 ,HELSTON,CORNWALL,CORNWALL
44.1,79.9,TR12 7BW,TR12 ,HELSTON,CORNWALL,CORNWALL
44.1,79.9,TR12 7BW,TR12 ,HELSTON,CORNWALL,CORNWALL
44.1,79.9,TR12 7BW,TR12 ,HELSTON,CORNWALL,CORNWALL
44.1,79.9,TR12 7BW,TR12 ,HELSTON,CORNWALL,CORNWALL
44.1,79.9,TR12 7BW,TR12 ,HELSTON,CORNWALL,CORNWALL
31.6,69.7,TR12 7DH,TR12 ,HELSTON,CORNWALL,CORNWALL
40.1,80,TR12 7EN,TR12 ,HELSTON,CORNWALL,CORNWALL
52.8,80,TR12 7HQ,TR12 ,HELSTON,CORNWALL,CORNWALL
28.5,80,TR12 7JA,TR12 ,HELSTON,CORNWALL,CORNWALL
12.4,44.8,TR12 7JU,TR12 ,HELSTON,CORNWALL,CORNWALL
29,52.8,TR12 7NN,TR12 ,HELSTON,CORNWALL,CORNWALL
29,52.8,TR12 7NN,TR12 ,HELSTON,CORNWALL,CORNWALL
29,52.8,TR12 7NN,TR12 ,HELSTON,CORNWALL,CORNWALL
29,52.8,TR12 7NN,TR12 ,HELSTON,CORNWALL,CORNWALL
29,52.8,TR12 7NN,TR12 ,HELSTON,CORNWALL,CORNWALL
13.4,40,TR1 2XN,TR1 2,TRURO,CORNWALL,CORNWALL
11.2,16.5,TR13 0EY,TR13 ,HELSTON,CORNWALL,CORNWALL
4.1,24,TR13 0JE,TR13 ,HELSTON,CORNWALL,CORNWALL
4.1,24,TR13 0JE,TR13 ,HELSTON,CORNWALL,CORNWALL
4.6,21.5,TR13 0NW,TR13 ,HELSTON,CORNWALL,CORNWALL
13.8,21.9,TR13 0RU,TR13 ,HELSTON,CORNWALL,CORNWALL
13.8,21.9,TR13 0RU,TR13 ,HELSTON,CORNWALL,CORNWALL
13.8,21.9,TR13 0RU,TR13 ,HELSTON,CORNWALL,CORNWALL
5.9,13.1,TR13 0RX,TR13 ,HELSTON,CORNWALL,CORNWALL
22.4,55,TR13 9DE,TR13 ,HELSTON,CORNWALL,CORNWALL
3.9,5.6,TR13 9DR,TR13 ,HELSTON,CORNWALL,CORNWALL
5.7,6.1,TR13 9DY,TR13 ,HELSTON,CORNWALL,CORNWALL
5.7,6.1,TR13 9DY,TR13 ,HELSTON,CORNWALL,CORNWALL
16.8,62.9,TR13 9EL,TR13 ,HELSTON,CORNWALL,CORNWALL
46.8,80,TR13 9ET,TR13 ,HELSTON,CORNWALL,CORNWALL
4.8,7,TR13 9HJ,TR13 ,HELSTON,CORNWALL,CORNWALL
3.7,4.9,TR13 9JE,TR13 ,HELSTON,CORNWALL,CORNWALL
3.7,4.9,TR13 9JE,TR13 ,HELSTON,CORNWALL,CORNWALL
3.7,4.9,TR13 9JE,TR13 ,HELSTON,CORNWALL,CORNWALL
3.7,4.9,TR13 9JE,TR13 ,HELSTON,CORNWALL,CORNWALL
2.8,4,TR13 9JR,TR13 ,HELSTON,CORNWALL,CORNWALL
3.5,8.1,TR13 9JS,TR13 ,HELSTON,CORNWALL,CORNWALL
3.1,3.1,TR13 9PQ,TR13 ,HELSTON,CORNWALL,CORNWALL
48.1,80,TR14 0FB,TR14 ,CAMBORNE,CORNWALL,CORNWALL
48.1,80,TR14 0FB,TR14 ,CAMBORNE,CORNWALL,CORNWALL
31.4,61.8,TR14 0LU,TR14 ,CAMBORNE,CORNWALL,CORNWALL
29.3,79.9,TR14 8FB,TR14 ,CAMBORNE,CORNWALL,CORNWALL
29.3,79.9,TR14 8FB,TR14 ,CAMBORNE,CORNWALL,CORNWALL
29.3,79.9,TR14 8FB,TR14 ,CAMBORNE,CORNWALL,CORNWALL
8.5,40,TR14 8NH,TR14 ,CAMBORNE,CORNWALL,CORNWALL
11.4,66.9,TR14 8PF,TR14 ,CAMBORNE,CORNWALL,CORNWALL
11.4,66.9,TR14 8PF,TR14 ,CAMBORNE,CORNWALL,CORNWALL
11.4,66.9,TR14 8PF,TR14 ,CAMBORNE,CORNWALL,CORNWALL
11.4,66.9,TR14 8PF,TR14 ,CAMBORNE,CORNWALL,CORNWALL
11.4,66.9,TR14 8PF,TR14 ,CAMBORNE,CORNWALL,CORNWALL
11.4,66.9,TR14 8PF,TR14 ,CAMBORNE,CORNWALL,CORNWALL
11.4,66.9,TR14 8PF,TR14 ,CAMBORNE,CORNWALL,CORNWALL
11.4,66.9,TR14 8PF,TR14 ,CAMBORNE,CORNWALL,CORNWALL
11.4,66.9,TR14 8PF,TR14 ,CAMBORNE,CORNWALL,CORNWALL
11.4,66.9,TR14 8PF,TR14 ,CAMBORNE,CORNWALL,CORNWALL
11.4,66.9,TR14 8PF,TR14 ,CAMBORNE,CORNWALL,CORNWALL
4.2,6.3,TR14 8QL,TR14 ,CAMBORNE,CORNWALL,CORNWALL
4.2,6.3,TR14 8QL,TR14 ,CAMBORNE,CORNWALL,CORNWALL
18.5,38.5,TR14 9AB,TR14 ,CAMBORNE,CORNWALL,CORNWALL
2.5,4.7,TR14 9ES,TR14 ,CAMBORNE,CORNWALL,CORNWALL
2.5,4.7,TR14 9ES,TR14 ,CAMBORNE,CORNWALL,CORNWALL
28.9,46.5,TR15 3DY,TR15 ,REDRUTH,CORNWALL,CORNWALL
28.9,46.5,TR15 3DY,TR15 ,REDRUTH,CORNWALL,CORNWALL
26.6,70.1,TR15 3ES,TR15 ,REDRUTH,CORNWALL,CORNWALL
48.7,79.9,TR15 3JX,TR15 ,REDRUTH,CORNWALL,CORNWALL
29.6,44.9,TR15 3NJ,TR15 ,REDRUTH,CORNWALL,CORNWALL
32.3,40,TR15 3NN,TR15 ,REDRUTH,CORNWALL,CORNWALL
32.3,40,TR15 3NN,TR15 ,REDRUTH,CORNWALL,CORNWALL
32.3,40,TR15 3NN,TR15 ,REDRUTH,CORNWALL,CORNWALL
34.6,80,TR15 3PB,TR15 ,REDRUTH,CORNWALL,CORNWALL
34.6,80,TR15 3PB,TR15 ,REDRUTH,CORNWALL,CORNWALL
34.6,80,TR15 3PB,TR15 ,REDRUTH,CORNWALL,CORNWALL
34.6,80,TR15 3PB,TR15 ,REDRUTH,CORNWALL,CORNWALL
34.6,80,TR15 3PB,TR15 ,REDRUTH,CORNWALL,CORNWALL
34.6,80,TR15 3PB,TR15 ,REDRUTH,CORNWALL,CORNWALL
34.6,80,TR15 3PB,TR15 ,REDRUTH,CORNWALL,CORNWALL
34.6,80,TR15 3PB,TR15 ,REDRUTH,CORNWALL,CORNWALL
34.6,80,TR15 3PB,TR15 ,REDRUTH,CORNWALL,CORNWALL
34.6,80,TR15 3PB,TR15 ,REDRUTH,CORNWALL,CORNWALL
34.6,80,TR15 3PB,TR15 ,REDRUTH,CORNWALL,CORNWALL
19.3,39.8,TR15 3PT,TR15 ,REDRUTH,CORNWALL,CORNWALL
19.3,39.8,TR15 3PT,TR15 ,REDRUTH,CORNWALL,CORNWALL
19.3,39.8,TR15 3PT,TR15 ,REDRUTH,CORNWALL,CORNWALL
43.5,80,TR15 3PU,TR15 ,REDRUTH,CORNWALL,CORNWALL
43.5,80,TR15 3PU,TR15 ,REDRUTH,CORNWALL,CORNWALL
3.4,4.6,TR15 3SN,TR15 ,REDRUTH,CORNWALL,CORNWALL
3.4,4.6,TR15 3SN,TR15 ,REDRUTH,CORNWALL,CORNWALL
3.4,4.6,TR15 3SN,TR15 ,REDRUTH,CORNWALL,CORNWALL
3.4,4.6,TR15 3SN,TR15 ,REDRUTH,CORNWALL,CORNWALL
8.9,39.5,TR15 3ST,TR15 ,REDRUTH,CORNWALL,CORNWALL
8.9,39.5,TR15 3ST,TR15 ,REDRUTH,CORNWALL,CORNWALL
43.8,79.8,TR16 4AF,TR16 ,REDRUTH,CORNWALL,CORNWALL
7.2,20.7,TR16 4AX,TR16 ,REDRUTH,CORNWALL,CORNWALL
7.2,20.7,TR16 4AX,TR16 ,REDRUTH,CORNWALL,CORNWALL
19.9,41.4,TR16 4DF,TR16 ,REDRUTH,CORNWALL,CORNWALL
50.4,79.9,TR16 4DT,TR16 ,REDRUTH,CORNWALL,CORNWALL
34.7,78.2,TR16 4EA,TR16 ,REDRUTH,CORNWALL,CORNWALL
54.5,75.2,TR16 4LA,TR16 ,REDRUTH,CORNWALL,CORNWALL
36,79,TR16 4LS,TR16 ,REDRUTH,CORNWALL,CORNWALL
41.5,80,TR16 4NA,TR16 ,REDRUTH,CORNWALL,CORNWALL
41.5,80,TR16 4NA,TR16 ,REDRUTH,CORNWALL,CORNWALL
41.5,80,TR16 4NA,TR16 ,REDRUTH,CORNWALL,CORNWALL
40.1,77.6,TR16 4NE,TR16 ,REDRUTH,CORNWALL,CORNWALL
40.1,77.6,TR16 4NE,TR16 ,REDRUTH,CORNWALL,CORNWALL
46.9,80,TR16 4NG,TR16 ,REDRUTH,CORNWALL,CORNWALL
31.1,73.9,TR16 4NR,TR16 ,REDRUTH,CORNWALL,CORNWALL
31.1,73.9,TR16 4NR,TR16 ,REDRUTH,CORNWALL,CORNWALL
22.7,39.7,TR16 4NS,TR16 ,REDRUTH,CORNWALL,CORNWALL
22.7,39.7,TR16 4NS,TR16 ,REDRUTH,CORNWALL,CORNWALL
27.1,79.9,TR16 4PB,TR16 ,REDRUTH,CORNWALL,CORNWALL
27.1,79.9,TR16 4PB,TR16 ,REDRUTH,CORNWALL,CORNWALL
47,80,TR16 4PE,TR16 ,REDRUTH,CORNWALL,CORNWALL
47,80,TR16 4PE,TR16 ,REDRUTH,CORNWALL,CORNWALL
47,80,TR16 4PE,TR16 ,REDRUTH,CORNWALL,CORNWALL
47,80,TR16 4PE,TR16 ,REDRUTH,CORNWALL,CORNWALL
47,80,TR16 4PE,TR16 ,REDRUTH,CORNWALL,CORNWALL
47,80,TR16 4PE,TR16 ,REDRUTH,CORNWALL,CORNWALL
47,80,TR16 4PE,TR16 ,REDRUTH,CORNWALL,CORNWALL
47,80,TR16 4PE,TR16 ,REDRUTH,CORNWALL,CORNWALL
47,80,TR16 4PE,TR16 ,REDRUTH,CORNWALL,CORNWALL
47,80,TR16 4PE,TR16 ,REDRUTH,CORNWALL,CORNWALL
47,80,TR16 4PE,TR16 ,REDRUTH,CORNWALL,CORNWALL
47,80,TR16 4PE,TR16 ,REDRUTH,CORNWALL,CORNWALL
47,80,TR16 4PE,TR16 ,REDRUTH,CORNWALL,CORNWALL
47,80,TR16 4PE,TR16 ,REDRUTH,CORNWALL,CORNWALL
47,80,TR16 4PE,TR16 ,REDRUTH,CORNWALL,CORNWALL
47,80,TR16 4PE,TR16 ,REDRUTH,CORNWALL,CORNWALL
47,80,TR16 4PE,TR16 ,REDRUTH,CORNWALL,CORNWALL
47,80,TR16 4PE,TR16 ,REDRUTH,CORNWALL,CORNWALL
47,80,TR16 4PE,TR16 ,REDRUTH,CORNWALL,CORNWALL
47,80,TR16 4PE,TR16 ,REDRUTH,CORNWALL,CORNWALL
47,80,TR16 4PE,TR16 ,REDRUTH,CORNWALL,CORNWALL
47,80,TR16 4PE,TR16 ,REDRUTH,CORNWALL,CORNWALL
47,80,TR16 4PE,TR16 ,REDRUTH,CORNWALL,CORNWALL
36,73.3,TR16 4SW,TR16 ,REDRUTH,CORNWALL,CORNWALL
13.1,52.6,TR16 5HY,TR16 ,REDRUTH,CORNWALL,CORNWALL
41.4,79.9,TR16 5JU,TR16 ,REDRUTH,CORNWALL,CORNWALL
41.4,79.9,TR16 5NH,TR16 ,REDRUTH,CORNWALL,CORNWALL
34,76.7,TR16 5QS,TR16 ,REDRUTH,CORNWALL,CORNWALL
34,76.7,TR16 5QS,TR16 ,REDRUTH,CORNWALL,CORNWALL
40.4,78,TR16 5SJ,TR16 ,REDRUTH,CORNWALL,CORNWALL
25.1,54.3,TR16 5TP,TR16 ,REDRUTH,CORNWALL,CORNWALL
31.6,79.4,TR16 6DU,TR16 ,REDRUTH,CORNWALL,CORNWALL
40.3,79.9,TR16 6LP,TR16 ,REDRUTH,CORNWALL,CORNWALL
40.3,79.9,TR16 6LP,TR16 ,REDRUTH,CORNWALL,CORNWALL
53.8,80,TR16 6LR,TR16 ,REDRUTH,CORNWALL,CORNWALL
7.7,14.9,TR16 6NP,TR16 ,REDRUTH,CORNWALL,CORNWALL
9.9,26.8,TR16 6QZ,TR16 ,REDRUTH,CORNWALL,CORNWALL
9.9,26.8,TR16 6QZ,TR16 ,REDRUTH,CORNWALL,CORNWALL
10.3,24.6,TR16 6SN,TR16 ,REDRUTH,CORNWALL,CORNWALL
10.3,24.6,TR16 6SN,TR16 ,REDRUTH,CORNWALL,CORNWALL
10.3,24.6,TR16 6SN,TR16 ,REDRUTH,CORNWALL,CORNWALL
10.3,24.6,TR16 6SN,TR16 ,REDRUTH,CORNWALL,CORNWALL
10.3,24.6,TR16 6SN,TR16 ,REDRUTH,CORNWALL,CORNWALL
18,35.1,TR18 3DD,TR18 ,PENZANCE,CORNWALL,CORNWALL
22.5,63.2,TR18 3DP,TR18 ,PENZANCE,CORNWALL,CORNWALL
22.5,63.2,TR18 3DP,TR18 ,PENZANCE,CORNWALL,CORNWALL
22.5,63.2,TR18 3DP,TR18 ,PENZANCE,CORNWALL,CORNWALL
22.5,63.2,TR18 3DP,TR18 ,PENZANCE,CORNWALL,CORNWALL
38.7,80,TR18 3DW,TR18 ,PENZANCE,CORNWALL,CORNWALL
38.7,80,TR18 3DW,TR18 ,PENZANCE,CORNWALL,CORNWALL
38.7,80,TR18 3DW,TR18 ,PENZANCE,CORNWALL,CORNWALL
38.7,80,TR18 3DW,TR18 ,PENZANCE,CORNWALL,CORNWALL
38.7,80,TR18 3DW,TR18 ,PENZANCE,CORNWALL,CORNWALL
38.7,80,TR18 3DW,TR18 ,PENZANCE,CORNWALL,CORNWALL
7.7,12.6,TR18 3HL,TR18 ,PENZANCE,CORNWALL,CORNWALL
7.7,12.6,TR18 3HL,TR18 ,PENZANCE,CORNWALL,CORNWALL
7.1,12,TR18 3LB,TR18 ,PENZANCE,CORNWALL,CORNWALL
21.9,40.1,TR18 3LX,TR18 ,PENZANCE,CORNWALL,CORNWALL
17.1,40,TR18 3LY,TR18 ,PENZANCE,CORNWALL,CORNWALL
17.1,40,TR18 3LY,TR18 ,PENZANCE,CORNWALL,CORNWALL
17.1,40,TR18 3LY,TR18 ,PENZANCE,CORNWALL,CORNWALL
17.1,40,TR18 3LY,TR18 ,PENZANCE,CORNWALL,CORNWALL
6.9,11.9,TR18 5AJ,TR18 ,PENZANCE,CORNWALL,CORNWALL
6.9,11.9,TR18 5AJ,TR18 ,PENZANCE,CORNWALL,CORNWALL
6.9,11.9,TR18 5AJ,TR18 ,PENZANCE,CORNWALL,CORNWALL
6.9,11.9,TR18 5AJ,TR18 ,PENZANCE,CORNWALL,CORNWALL
9.2,9.9,TR18 5BB,TR18 ,PENZANCE,CORNWALL,CORNWALL
9.7,14.4,TR18 5BG,TR18 ,PENZANCE,CORNWALL,CORNWALL
9.7,14.4,TR18 5BG,TR18 ,PENZANCE,CORNWALL,CORNWALL
4.7,7.2,TR18 5EF,TR18 ,PENZANCE,CORNWALL,CORNWALL
19.9,72.4,TR18 5JP,TR18 ,PENZANCE,CORNWALL,CORNWALL
38.6,71.8,TR18 5JX,TR18 ,PENZANCE,CORNWALL,CORNWALL
17.8,58.6,TR18 5QH,TR18 ,PENZANCE,CORNWALL,CORNWALL
5.4,6.6,TR19 6AE,TR19 ,PENZANCE,CORNWALL,CORNWALL
5.4,6.6,TR19 6AE,TR19 ,PENZANCE,CORNWALL,CORNWALL
1.8,2.3,TR19 6AX,TR19 ,PENZANCE,CORNWALL,CORNWALL
1.8,2.3,TR19 6AX,TR19 ,PENZANCE,CORNWALL,CORNWALL
1.8,2.3,TR19 6AX,TR19 ,PENZANCE,CORNWALL,CORNWALL
16.8,20.6,TR19 6DB,TR19 ,PENZANCE,CORNWALL,CORNWALL
16.8,20.6,TR19 6DB,TR19 ,PENZANCE,CORNWALL,CORNWALL
16.8,20.6,TR19 6DB,TR19 ,PENZANCE,CORNWALL,CORNWALL
16.8,20.6,TR19 6DB,TR19 ,PENZANCE,CORNWALL,CORNWALL
16.8,20.6,TR19 6DB,TR19 ,PENZANCE,CORNWALL,CORNWALL
14,17.6,TR19 6DR,TR19 ,PENZANCE,CORNWALL,CORNWALL
2.4,8.8,TR19 6JU,TR19 ,PENZANCE,CORNWALL,CORNWALL
2.4,8.8,TR19 6JU,TR19 ,PENZANCE,CORNWALL,CORNWALL
2.8,14.3,TR19 6JY,TR19 ,PENZANCE,CORNWALL,CORNWALL
2.8,14.3,TR19 6JY,TR19 ,PENZANCE,CORNWALL,CORNWALL
2.8,14.3,TR19 6JY,TR19 ,PENZANCE,CORNWALL,CORNWALL
24.2,40,TR19 6PT,TR19 ,PENZANCE,CORNWALL,CORNWALL
24.2,40,TR19 6PT,TR19 ,PENZANCE,CORNWALL,CORNWALL
24.2,40,TR19 6PT,TR19 ,PENZANCE,CORNWALL,CORNWALL
24.2,40,TR19 6PT,TR19 ,PENZANCE,CORNWALL,CORNWALL
43.6,72.8,TR19 6QG,TR19 ,PENZANCE,CORNWALL,CORNWALL
43.6,72.8,TR19 6QG,TR19 ,PENZANCE,CORNWALL,CORNWALL
19.4,44,TR19 6QX,TR19 ,PENZANCE,CORNWALL,CORNWALL
19.4,44,TR19 6QX,TR19 ,PENZANCE,CORNWALL,CORNWALL
19.4,44,TR19 6QX,TR19 ,PENZANCE,CORNWALL,CORNWALL
19.2,20.2,TR19 6RP,TR19 ,PENZANCE,CORNWALL,CORNWALL
42.9,70,TR19 6RU,TR19 ,PENZANCE,CORNWALL,CORNWALL
42.9,70,TR19 6RU,TR19 ,PENZANCE,CORNWALL,CORNWALL
53.3,80,TR19 6TS,TR19 ,PENZANCE,CORNWALL,CORNWALL
53.3,80,TR19 6TS,TR19 ,PENZANCE,CORNWALL,CORNWALL
53.3,80,TR19 6TS,TR19 ,PENZANCE,CORNWALL,CORNWALL
55.2,80,TR19 6UF,TR19 ,PENZANCE,CORNWALL,CORNWALL
54.6,80,TR19 6US,TR19 ,PENZANCE,CORNWALL,CORNWALL
15.9,55,TR19 7AX,TR19 ,PENZANCE,CORNWALL,CORNWALL
15.9,55,TR19 7AX,TR19 ,PENZANCE,CORNWALL,CORNWALL
15.9,55,TR19 7AX,TR19 ,PENZANCE,CORNWALL,CORNWALL
34.9,54,TR19 7DT,TR19 ,PENZANCE,CORNWALL,CORNWALL
34.9,54,TR19 7DT,TR19 ,PENZANCE,CORNWALL,CORNWALL
49.1,80,TR19 7HE,TR19 ,PENZANCE,CORNWALL,CORNWALL
54.6,80,TR19 7HH,TR19 ,PENZANCE,CORNWALL,CORNWALL
54.6,80,TR19 7HH,TR19 ,PENZANCE,CORNWALL,CORNWALL
29.6,78.8,TR19 7HJ,TR19 ,PENZANCE,CORNWALL,CORNWALL
17.3,39.2,TR19 7HX,TR19 ,PENZANCE,CORNWALL,CORNWALL
17.3,39.2,TR19 7HX,TR19 ,PENZANCE,CORNWALL,CORNWALL
21,22.9,TR19 7JB,TR19 ,PENZANCE,CORNWALL,CORNWALL
42.6,80,TR19 7JX,TR19 ,PENZANCE,CORNWALL,CORNWALL
42.6,80,TR19 7JX,TR19 ,PENZANCE,CORNWALL,CORNWALL
30.4,79.4,TR19 7JZ,TR19 ,PENZANCE,CORNWALL,CORNWALL
30.4,79.4,TR19 7JZ,TR19 ,PENZANCE,CORNWALL,CORNWALL
30.4,79.4,TR19 7JZ,TR19 ,PENZANCE,CORNWALL,CORNWALL
30.4,79.4,TR19 7JZ,TR19 ,PENZANCE,CORNWALL,CORNWALL
29,71.9,TR19 7LA,TR19 ,PENZANCE,CORNWALL,CORNWALL
29,71.9,TR19 7LA,TR19 ,PENZANCE,CORNWALL,CORNWALL
37.4,68.4,TR19 7LS,TR19 ,PENZANCE,CORNWALL,CORNWALL
32.1,80,TR19 7LU,TR19 ,PENZANCE,CORNWALL,CORNWALL
33.6,77.9,TR19 7QH,TR19 ,PENZANCE,CORNWALL,CORNWALL
21.3,40,TR19 7RD,TR19 ,PENZANCE,CORNWALL,CORNWALL
40.8,62.7,TR20 8AL,TR20 ,PENZANCE,CORNWALL,CORNWALL
40.8,62.7,TR20 8AL,TR20 ,PENZANCE,CORNWALL,CORNWALL
28.9,62.1,TR20 8AZ,TR20 ,PENZANCE,CORNWALL,CORNWALL
36.2,76.7,TR20 8BZ,TR20 ,PENZANCE,CORNWALL,CORNWALL
25.8,70.3,TR20 8DU,TR20 ,PENZANCE,CORNWALL,CORNWALL
25.8,70.3,TR20 8DU,TR20 ,PENZANCE,CORNWALL,CORNWALL
41.1,70.4,TR20 8EU,TR20 ,PENZANCE,CORNWALL,CORNWALL
20.7,27.4,TR20 8HB,TR20 ,PENZANCE,CORNWALL,CORNWALL
1.9,2.8,TR20 8NN,TR20 ,PENZANCE,CORNWALL,CORNWALL
14,30,TR20 8SP,TR20 ,PENZANCE,CORNWALL,CORNWALL
33.9,80,TR20 8SW,TR20 ,PENZANCE,CORNWALL,CORNWALL
19.5,40,TR20 8TL,TR20 ,PENZANCE,CORNWALL,CORNWALL
19.5,40,TR20 8TL,TR20 ,PENZANCE,CORNWALL,CORNWALL
19.5,40,TR20 8TL,TR20 ,PENZANCE,CORNWALL,CORNWALL
19.5,40,TR20 8TL,TR20 ,PENZANCE,CORNWALL,CORNWALL
14.7,40,TR20 8XG,TR20 ,PENZANCE,CORNWALL,CORNWALL
4.6,9.5,TR20 8XX,TR20 ,PENZANCE,CORNWALL,CORNWALL
16.1,74.6,TR20 8YN,TR20 ,PENZANCE,CORNWALL,CORNWALL
16.1,74.6,TR20 8YN,TR20 ,PENZANCE,CORNWALL,CORNWALL
16.1,74.6,TR20 8YN,TR20 ,PENZANCE,CORNWALL,CORNWALL
16.1,74.6,TR20 8YN,TR20 ,PENZANCE,CORNWALL,CORNWALL
16.1,74.6,TR20 8YN,TR20 ,PENZANCE,CORNWALL,CORNWALL
16.1,74.6,TR20 8YN,TR20 ,PENZANCE,CORNWALL,CORNWALL
16.1,74.6,TR20 8YN,TR20 ,PENZANCE,CORNWALL,CORNWALL
16.1,74.6,TR20 8YN,TR20 ,PENZANCE,CORNWALL,CORNWALL
16.1,74.6,TR20 8YN,TR20 ,PENZANCE,CORNWALL,CORNWALL
16.1,74.6,TR20 8YN,TR20 ,PENZANCE,CORNWALL,CORNWALL
16.1,74.6,TR20 8YN,TR20 ,PENZANCE,CORNWALL,CORNWALL
16.1,74.6,TR20 8YN,TR20 ,PENZANCE,CORNWALL,CORNWALL
16.1,74.6,TR20 8YN,TR20 ,PENZANCE,CORNWALL,CORNWALL
16.1,74.6,TR20 8YN,TR20 ,PENZANCE,CORNWALL,CORNWALL
16.1,74.6,TR20 8YN,TR20 ,PENZANCE,CORNWALL,CORNWALL
16.1,74.6,TR20 8YN,TR20 ,PENZANCE,CORNWALL,CORNWALL
16.1,74.6,TR20 8YN,TR20 ,PENZANCE,CORNWALL,CORNWALL
16.1,74.6,TR20 8YN,TR20 ,PENZANCE,CORNWALL,CORNWALL
16.1,74.6,TR20 8YN,TR20 ,PENZANCE,CORNWALL,CORNWALL
16.1,74.6,TR20 8YN,TR20 ,PENZANCE,CORNWALL,CORNWALL
16.1,74.6,TR20 8YN,TR20 ,PENZANCE,CORNWALL,CORNWALL
16.1,74.6,TR20 8YN,TR20 ,PENZANCE,CORNWALL,CORNWALL
16.1,74.6,TR20 8YN,TR20 ,PENZANCE,CORNWALL,CORNWALL
16.1,74.6,TR20 8YN,TR20 ,PENZANCE,CORNWALL,CORNWALL
49.9,73.4,TR20 9JJ,TR20 ,PENZANCE,CORNWALL,CORNWALL
31,80,TR20 9JY,TR20 ,PENZANCE,CORNWALL,CORNWALL
31,80,TR20 9JY,TR20 ,PENZANCE,CORNWALL,CORNWALL
43.5,66.9,TR20 9JZ,TR20 ,PENZANCE,CORNWALL,CORNWALL
15,54,TR20 9LD,TR20 ,PENZANCE,CORNWALL,CORNWALL
44.8,80,TR20 9LG,TR20 ,PENZANCE,CORNWALL,CORNWALL
44.8,80,TR20 9LG,TR20 ,PENZANCE,CORNWALL,CORNWALL
48.3,80,TR20 9LN,TR20 ,PENZANCE,CORNWALL,CORNWALL
24.6,63.4,TR20 9PU,TR20 ,PENZANCE,CORNWALL,CORNWALL
15.2,21.6,TR20 9ST,TR20 ,PENZANCE,CORNWALL,CORNWALL
15.2,21.6,TR20 9ST,TR20 ,PENZANCE,CORNWALL,CORNWALL
14.9,23.8,TR20 9SY,TR20 ,PENZANCE,CORNWALL,CORNWALL
14.9,23.8,TR20 9SY,TR20 ,PENZANCE,CORNWALL,CORNWALL
20.5,74,TR20 9TP,TR20 ,PENZANCE,CORNWALL,CORNWALL
20.5,74,TR20 9TP,TR20 ,PENZANCE,CORNWALL,CORNWALL
20.5,74,TR20 9TP,TR20 ,PENZANCE,CORNWALL,CORNWALL
20.5,74,TR20 9TP,TR20 ,PENZANCE,CORNWALL,CORNWALL
20.5,74,TR20 9TP,TR20 ,PENZANCE,CORNWALL,CORNWALL
80,80,TR2 4DN,TR2 4,TRURO,CORNWALL,CORNWALL
13.7,16.7,TR2 4EE,TR2 4,TRURO,CORNWALL,CORNWALL
13.7,16.7,TR2 4EE,TR2 4,TRURO,CORNWALL,CORNWALL
13.7,16.7,TR2 4EE,TR2 4,TRURO,CORNWALL,CORNWALL
13.7,16.7,TR2 4EE,TR2 4,TRURO,CORNWALL,CORNWALL
13.7,16.7,TR2 4EE,TR2 4,TRURO,CORNWALL,CORNWALL
13.7,16.7,TR2 4EE,TR2 4,TRURO,CORNWALL,CORNWALL
13.7,16.7,TR2 4EE,TR2 4,TRURO,CORNWALL,CORNWALL
53.4,80,TR2 4JL,TR2 4,TRURO,CORNWALL,CORNWALL
53.4,80,TR2 4JL,TR2 4,TRURO,CORNWALL,CORNWALL
29.2,54.9,TR2 4JX,TR2 4,TRURO,CORNWALL,CORNWALL
45.5,80,TR2 4LD,TR2 4,TRURO,CORNWALL,CORNWALL
43.2,80,TR2 4LG,TR2 4,TRURO,CORNWALL,CORNWALL
43.2,80,TR2 4LG,TR2 4,TRURO,CORNWALL,CORNWALL
40.8,80,TR2 4LH,TR2 4,TRURO,CORNWALL,CORNWALL
40.8,80,TR2 4LH,TR2 4,TRURO,CORNWALL,CORNWALL
40.8,80,TR2 4LH,TR2 4,TRURO,CORNWALL,CORNWALL
50.5,133.8,TR2 4LQ,TR2 4,TRURO,CORNWALL,CORNWALL
47.9,71.3,TR2 4QP,TR2 4,TRURO,CORNWALL,CORNWALL
47.9,71.3,TR2 4QP,TR2 4,TRURO,CORNWALL,CORNWALL
52.7,80,TR2 4RS,TR2 4,TRURO,CORNWALL,CORNWALL
51.1,80,TR2 4SB,TR2 4,TRURO,CORNWALL,CORNWALL
32.3,53.3,TR2 5BG,TR2 5,TRURO,CORNWALL,CORNWALL
32.3,53.3,TR2 5BG,TR2 5,TRURO,CORNWALL,CORNWALL
42.4,79.2,TR2 5BP,TR2 5,TRURO,CORNWALL,CORNWALL
42.4,79.2,TR2 5BP,TR2 5,TRURO,CORNWALL,CORNWALL
42.4,79.2,TR2 5BP,TR2 5,TRURO,CORNWALL,CORNWALL
42.4,79.2,TR2 5BP,TR2 5,TRURO,CORNWALL,CORNWALL
36.3,55,TR2 5BS,TR2 5,TRURO,CORNWALL,CORNWALL
36.3,55,TR2 5BS,TR2 5,TRURO,CORNWALL,CORNWALL
54.3,79.9,TR2 5DG,TR2 5,TRURO,CORNWALL,CORNWALL
63.3,80,TR2 5DJ,TR2 5,TRURO,CORNWALL,CORNWALL
33,79.9,TR2 5DN,TR2 5,TRURO,CORNWALL,CORNWALL
18.1,45.7,TR2 5HE,TR2 5,TRURO,CORNWALL,CORNWALL
25.1,40,TR2 5HH,TR2 5,TRURO,CORNWALL,CORNWALL
25.1,40,TR2 5HH,TR2 5,TRURO,CORNWALL,CORNWALL
25.6,79.9,TR2 5HZ,TR2 5,TRURO,CORNWALL,CORNWALL
25.6,79.9,TR2 5HZ,TR2 5,TRURO,CORNWALL,CORNWALL
15.6,16.5,TR2 5NH,TR2 5,TRURO,CORNWALL,CORNWALL
15.6,16.5,TR2 5NH,TR2 5,TRURO,CORNWALL,CORNWALL
15.6,16.5,TR2 5NH,TR2 5,TRURO,CORNWALL,CORNWALL
15.6,16.5,TR2 5NH,TR2 5,TRURO,CORNWALL,CORNWALL
15.6,16.5,TR2 5NH,TR2 5,TRURO,CORNWALL,CORNWALL
15.6,16.5,TR2 5NH,TR2 5,TRURO,CORNWALL,CORNWALL
15.6,16.5,TR2 5NH,TR2 5,TRURO,CORNWALL,CORNWALL
15.6,16.5,TR2 5NH,TR2 5,TRURO,CORNWALL,CORNWALL
15.6,16.5,TR2 5NH,TR2 5,TRURO,CORNWALL,CORNWALL
15.6,16.5,TR2 5NH,TR2 5,TRURO,CORNWALL,CORNWALL
15.6,16.5,TR2 5NH,TR2 5,TRURO,CORNWALL,CORNWALL
15.6,16.5,TR2 5NH,TR2 5,TRURO,CORNWALL,CORNWALL
15.6,16.5,TR2 5NH,TR2 5,TRURO,CORNWALL,CORNWALL
15.6,16.5,TR2 5NH,TR2 5,TRURO,CORNWALL,CORNWALL
15.6,16.5,TR2 5NH,TR2 5,TRURO,CORNWALL,CORNWALL
15.6,16.5,TR2 5NH,TR2 5,TRURO,CORNWALL,CORNWALL
15.6,16.5,TR2 5NH,TR2 5,TRURO,CORNWALL,CORNWALL
15.6,16.5,TR2 5NH,TR2 5,TRURO,CORNWALL,CORNWALL
15.6,16.5,TR2 5NH,TR2 5,TRURO,CORNWALL,CORNWALL
15.6,16.5,TR2 5NH,TR2 5,TRURO,CORNWALL,CORNWALL
15.6,16.5,TR2 5NH,TR2 5,TRURO,CORNWALL,CORNWALL
30.5,73.9,TR2 5NZ,TR2 5,TRURO,CORNWALL,CORNWALL
31.7,80,TR2 5RW,TR2 5,TRURO,CORNWALL,CORNWALL
21.5,47.4,TR2 5TE,TR2 5,TRURO,CORNWALL,CORNWALL
32.9,80,TR26 2FG,TR26 ,ST IVES,CORNWALL,CORNWALL
32.9,80,TR26 2FG,TR26 ,ST IVES,CORNWALL,CORNWALL
32.9,80,TR26 2FG,TR26 ,ST IVES,CORNWALL,CORNWALL
32.9,80,TR26 2FG,TR26 ,ST IVES,CORNWALL,CORNWALL
32.9,80,TR26 2FG,TR26 ,ST IVES,CORNWALL,CORNWALL
32.9,80,TR26 2FG,TR26 ,ST IVES,CORNWALL,CORNWALL
32.9,80,TR26 2FG,TR26 ,ST IVES,CORNWALL,CORNWALL
32.9,80,TR26 2FG,TR26 ,ST IVES,CORNWALL,CORNWALL
32.9,80,TR26 2FG,TR26 ,ST IVES,CORNWALL,CORNWALL
32.9,80,TR26 2FG,TR26 ,ST IVES,CORNWALL,CORNWALL
32.9,80,TR26 2FG,TR26 ,ST IVES,CORNWALL,CORNWALL
32.9,80,TR26 2FG,TR26 ,ST IVES,CORNWALL,CORNWALL
32.9,80,TR26 2FG,TR26 ,ST IVES,CORNWALL,CORNWALL
32.9,80,TR26 2FG,TR26 ,ST IVES,CORNWALL,CORNWALL
32.9,80,TR26 2FG,TR26 ,ST IVES,CORNWALL,CORNWALL
32.9,80,TR26 2FG,TR26 ,ST IVES,CORNWALL,CORNWALL
34.7,55,TR26 2FL,TR26 ,ST IVES,CORNWALL,CORNWALL
34.7,55,TR26 2FL,TR26 ,ST IVES,CORNWALL,CORNWALL
29.7,77.5,TR26 2FN,TR26 ,ST IVES,CORNWALL,CORNWALL
29.7,77.5,TR26 2FN,TR26 ,ST IVES,CORNWALL,CORNWALL
29.7,77.5,TR26 2FN,TR26 ,ST IVES,CORNWALL,CORNWALL
42,79.7,TR26 2FZ,TR26 ,ST IVES,CORNWALL,CORNWALL
42,79.7,TR26 2FZ,TR26 ,ST IVES,CORNWALL,CORNWALL
42,79.7,TR26 2FZ,TR26 ,ST IVES,CORNWALL,CORNWALL
42,79.7,TR26 2FZ,TR26 ,ST IVES,CORNWALL,CORNWALL
42,79.7,TR26 2FZ,TR26 ,ST IVES,CORNWALL,CORNWALL
26.7,76.2,TR26 2JS,TR26 ,ST IVES,CORNWALL,CORNWALL
26.7,76.2,TR26 2JS,TR26 ,ST IVES,CORNWALL,CORNWALL
26.7,76.2,TR26 2JS,TR26 ,ST IVES,CORNWALL,CORNWALL
26.7,76.2,TR26 2JS,TR26 ,ST IVES,CORNWALL,CORNWALL
26.7,76.2,TR26 2JS,TR26 ,ST IVES,CORNWALL,CORNWALL
26.7,76.2,TR26 2JS,TR26 ,ST IVES,CORNWALL,CORNWALL
26.7,76.2,TR26 2JS,TR26 ,ST IVES,CORNWALL,CORNWALL
26.7,76.2,TR26 2JS,TR26 ,ST IVES,CORNWALL,CORNWALL
26.7,76.2,TR26 2JS,TR26 ,ST IVES,CORNWALL,CORNWALL
26.7,76.2,TR26 2JS,TR26 ,ST IVES,CORNWALL,CORNWALL
25.6,79.9,TR26 2JT,TR26 ,ST IVES,CORNWALL,CORNWALL
25.6,79.9,TR26 2JT,TR26 ,ST IVES,CORNWALL,CORNWALL
27.7,78,TR26 2JX,TR26 ,ST IVES,CORNWALL,CORNWALL
45.8,80,TR26 2LJ,TR26 ,ST IVES,CORNWALL,CORNWALL
33,72.9,TR26 2NQ,TR26 ,ST IVES,CORNWALL,CORNWALL
33,72.9,TR26 2NQ,TR26 ,ST IVES,CORNWALL,CORNWALL
25.3,78.9,TR26 2NR,TR26 ,ST IVES,CORNWALL,CORNWALL
25.3,78.9,TR26 2NR,TR26 ,ST IVES,CORNWALL,CORNWALL
25.3,78.9,TR26 2NR,TR26 ,ST IVES,CORNWALL,CORNWALL
25.3,78.9,TR26 2NR,TR26 ,ST IVES,CORNWALL,CORNWALL
25.3,78.9,TR26 2NR,TR26 ,ST IVES,CORNWALL,CORNWALL
25.3,78.9,TR26 2NR,TR26 ,ST IVES,CORNWALL,CORNWALL
36.2,79.9,TR26 2NS,TR26 ,ST IVES,CORNWALL,CORNWALL
28.6,69.1,TR26 2NU,TR26 ,ST IVES,CORNWALL,CORNWALL
28.6,69.1,TR26 2NU,TR26 ,ST IVES,CORNWALL,CORNWALL
28.6,69.1,TR26 2NU,TR26 ,ST IVES,CORNWALL,CORNWALL
28.6,69.1,TR26 2NU,TR26 ,ST IVES,CORNWALL,CORNWALL
28.6,69.1,TR26 2NU,TR26 ,ST IVES,CORNWALL,CORNWALL
28.6,69.1,TR26 2NU,TR26 ,ST IVES,CORNWALL,CORNWALL
28.6,69.1,TR26 2NU,TR26 ,ST IVES,CORNWALL,CORNWALL
28.6,69.1,TR26 2NU,TR26 ,ST IVES,CORNWALL,CORNWALL
28.6,69.1,TR26 2NU,TR26 ,ST IVES,CORNWALL,CORNWALL
28.6,69.1,TR26 2NU,TR26 ,ST IVES,CORNWALL,CORNWALL
28.6,69.1,TR26 2NU,TR26 ,ST IVES,CORNWALL,CORNWALL
33.8,79.9,TR26 2NZ,TR26 ,ST IVES,CORNWALL,CORNWALL
25.5,76.6,TR26 2PB,TR26 ,ST IVES,CORNWALL,CORNWALL
25.5,76.6,TR26 2PB,TR26 ,ST IVES,CORNWALL,CORNWALL
25.5,76.6,TR26 2PB,TR26 ,ST IVES,CORNWALL,CORNWALL
18.5,72.8,TR26 2PD,TR26 ,ST IVES,CORNWALL,CORNWALL
20.4,51.3,TR26 2PE,TR26 ,ST IVES,CORNWALL,CORNWALL
20.4,51.3,TR26 2PE,TR26 ,ST IVES,CORNWALL,CORNWALL
20.4,51.3,TR26 2PE,TR26 ,ST IVES,CORNWALL,CORNWALL
31,74.5,TR26 2PH,TR26 ,ST IVES,CORNWALL,CORNWALL
31,74.5,TR26 2PH,TR26 ,ST IVES,CORNWALL,CORNWALL
31,74.5,TR26 2PH,TR26 ,ST IVES,CORNWALL,CORNWALL
31,74.5,TR26 2PH,TR26 ,ST IVES,CORNWALL,CORNWALL
31,74.5,TR26 2PH,TR26 ,ST IVES,CORNWALL,CORNWALL
31,74.5,TR26 2PH,TR26 ,ST IVES,CORNWALL,CORNWALL
31,74.5,TR26 2PH,TR26 ,ST IVES,CORNWALL,CORNWALL
31,74.5,TR26 2PH,TR26 ,ST IVES,CORNWALL,CORNWALL
31,74.5,TR26 2PH,TR26 ,ST IVES,CORNWALL,CORNWALL
31,74.5,TR26 2PH,TR26 ,ST IVES,CORNWALL,CORNWALL
31,74.5,TR26 2PH,TR26 ,ST IVES,CORNWALL,CORNWALL
31,74.5,TR26 2PH,TR26 ,ST IVES,CORNWALL,CORNWALL
31,74.5,TR26 2PH,TR26 ,ST IVES,CORNWALL,CORNWALL
31,74.5,TR26 2PH,TR26 ,ST IVES,CORNWALL,CORNWALL
31,74.5,TR26 2PH,TR26 ,ST IVES,CORNWALL,CORNWALL
31,74.5,TR26 2PH,TR26 ,ST IVES,CORNWALL,CORNWALL
31,74.5,TR26 2PH,TR26 ,ST IVES,CORNWALL,CORNWALL
31,74.5,TR26 2PH,TR26 ,ST IVES,CORNWALL,CORNWALL
31,74.5,TR26 2PH,TR26 ,ST IVES,CORNWALL,CORNWALL
31,74.5,TR26 2PH,TR26 ,ST IVES,CORNWALL,CORNWALL
46.3,80,TR26 2PT,TR26 ,ST IVES,CORNWALL,CORNWALL
25.9,79.9,TR26 2PU,TR26 ,ST IVES,CORNWALL,CORNWALL
25.9,79.9,TR26 2PU,TR26 ,ST IVES,CORNWALL,CORNWALL
25.9,79.9,TR26 2PU,TR26 ,ST IVES,CORNWALL,CORNWALL
25.9,79.9,TR26 2PU,TR26 ,ST IVES,CORNWALL,CORNWALL
25.9,79.9,TR26 2PU,TR26 ,ST IVES,CORNWALL,CORNWALL
25.9,79.9,TR26 2PU,TR26 ,ST IVES,CORNWALL,CORNWALL
25.9,79.9,TR26 2PU,TR26 ,ST IVES,CORNWALL,CORNWALL
25.9,79.9,TR26 2PU,TR26 ,ST IVES,CORNWALL,CORNWALL
25.9,79.9,TR26 2PU,TR26 ,ST IVES,CORNWALL,CORNWALL
52.7,80,TR26 2PY,TR26 ,ST IVES,CORNWALL,CORNWALL
21,40,TR26 2QH,TR26 ,ST IVES,CORNWALL,CORNWALL
21,40,TR26 2QH,TR26 ,ST IVES,CORNWALL,CORNWALL
50.3,80,TR26 2QR,TR26 ,ST IVES,CORNWALL,CORNWALL
46.8,80,TR26 2QS,TR26 ,ST IVES,CORNWALL,CORNWALL
46.8,80,TR26 2QS,TR26 ,ST IVES,CORNWALL,CORNWALL
46.8,80,TR26 2QS,TR26 ,ST IVES,CORNWALL,CORNWALL
46.8,80,TR26 2QS,TR26 ,ST IVES,CORNWALL,CORNWALL
46.8,80,TR26 2QS,TR26 ,ST IVES,CORNWALL,CORNWALL
33.6,76.6,TR26 2RE,TR26 ,ST IVES,CORNWALL,CORNWALL
26.8,79.9,TR26 2RP,TR26 ,ST IVES,CORNWALL,CORNWALL
26.8,79.9,TR26 2RP,TR26 ,ST IVES,CORNWALL,CORNWALL
26.8,79.9,TR26 2RP,TR26 ,ST IVES,CORNWALL,CORNWALL
26.8,79.9,TR26 2RP,TR26 ,ST IVES,CORNWALL,CORNWALL
48.6,79.9,TR26 2RS,TR26 ,ST IVES,CORNWALL,CORNWALL
36.9,80,TR26 2RT,TR26 ,ST IVES,CORNWALL,CORNWALL
36.9,80,TR26 2RT,TR26 ,ST IVES,CORNWALL,CORNWALL
36.9,80,TR26 2RT,TR26 ,ST IVES,CORNWALL,CORNWALL
36.9,80,TR26 2RT,TR26 ,ST IVES,CORNWALL,CORNWALL
44.2,80,TR26 2SF,TR26 ,ST IVES,CORNWALL,CORNWALL
44.2,80,TR26 2SF,TR26 ,ST IVES,CORNWALL,CORNWALL
44.2,80,TR26 2SF,TR26 ,ST IVES,CORNWALL,CORNWALL
44.2,80,TR26 2SF,TR26 ,ST IVES,CORNWALL,CORNWALL
44.2,80,TR26 2SF,TR26 ,ST IVES,CORNWALL,CORNWALL
44.2,80,TR26 2SF,TR26 ,ST IVES,CORNWALL,CORNWALL
44.2,80,TR26 2SF,TR26 ,ST IVES,CORNWALL,CORNWALL
44.2,80,TR26 2SF,TR26 ,ST IVES,CORNWALL,CORNWALL
44.2,80,TR26 2SF,TR26 ,ST IVES,CORNWALL,CORNWALL
44.2,80,TR26 2SF,TR26 ,ST IVES,CORNWALL,CORNWALL
44.2,80,TR26 2SF,TR26 ,ST IVES,CORNWALL,CORNWALL
44.2,80,TR26 2SF,TR26 ,ST IVES,CORNWALL,CORNWALL
44.2,80,TR26 2SF,TR26 ,ST IVES,CORNWALL,CORNWALL
32.3,68.7,TR26 2SW,TR26 ,ST IVES,CORNWALL,CORNWALL
39.5,80,TR26 2SX,TR26 ,ST IVES,CORNWALL,CORNWALL
39.5,80,TR26 2SX,TR26 ,ST IVES,CORNWALL,CORNWALL
39.5,80,TR26 2SX,TR26 ,ST IVES,CORNWALL,CORNWALL
39.5,80,TR26 2SX,TR26 ,ST IVES,CORNWALL,CORNWALL
39.5,80,TR26 2SX,TR26 ,ST IVES,CORNWALL,CORNWALL
23.1,40,TR26 2TE,TR26 ,ST IVES,CORNWALL,CORNWALL
51,79.9,TR26 3DP,TR26 ,ST IVES,CORNWALL,CORNWALL
15.3,39.9,TR26 3EJ,TR26 ,ST IVES,CORNWALL,CORNWALL
15.3,39.9,TR26 3EJ,TR26 ,ST IVES,CORNWALL,CORNWALL
33.3,80,TR26 3HW,TR26 ,ST IVES,CORNWALL,CORNWALL
33.3,80,TR26 3HW,TR26 ,ST IVES,CORNWALL,CORNWALL
33.3,80,TR26 3HW,TR26 ,ST IVES,CORNWALL,CORNWALL
33.3,80,TR26 3HW,TR26 ,ST IVES,CORNWALL,CORNWALL
33.3,80,TR26 3HW,TR26 ,ST IVES,CORNWALL,CORNWALL
33.3,80,TR26 3HW,TR26 ,ST IVES,CORNWALL,CORNWALL
33.3,80,TR26 3HW,TR26 ,ST IVES,CORNWALL,CORNWALL
33.3,80,TR26 3HW,TR26 ,ST IVES,CORNWALL,CORNWALL
33.3,80,TR26 3HW,TR26 ,ST IVES,CORNWALL,CORNWALL
33.3,80,TR26 3HW,TR26 ,ST IVES,CORNWALL,CORNWALL
33.3,80,TR26 3HW,TR26 ,ST IVES,CORNWALL,CORNWALL
51.5,79.9,TR26 3JP,TR26 ,ST IVES,CORNWALL,CORNWALL
51.5,79.9,TR26 3JP,TR26 ,ST IVES,CORNWALL,CORNWALL
51.5,79.9,TR26 3JP,TR26 ,ST IVES,CORNWALL,CORNWALL
44.1,79.8,TR26 3LJ,TR26 ,ST IVES,CORNWALL,CORNWALL
6.9,9.7,TR27 4PN,TR27 ,HAYLE,CORNWALL,CORNWALL
15.1,38.2,TR27 5AA,TR27 ,HAYLE,CORNWALL,CORNWALL
7.9,11.7,TR27 5AE,TR27 ,HAYLE,CORNWALL,CORNWALL
47.8,80,TR27 5AF,TR27 ,HAYLE,CORNWALL,CORNWALL
47.8,80,TR27 5AF,TR27 ,HAYLE,CORNWALL,CORNWALL
47.8,80,TR27 5AF,TR27 ,HAYLE,CORNWALL,CORNWALL
47.8,80,TR27 5AF,TR27 ,HAYLE,CORNWALL,CORNWALL
47.8,80,TR27 5AF,TR27 ,HAYLE,CORNWALL,CORNWALL
47.8,80,TR27 5AF,TR27 ,HAYLE,CORNWALL,CORNWALL
47.8,80,TR27 5AF,TR27 ,HAYLE,CORNWALL,CORNWALL
47.8,80,TR27 5AF,TR27 ,HAYLE,CORNWALL,CORNWALL
47.8,80,TR27 5AF,TR27 ,HAYLE,CORNWALL,CORNWALL
47.8,80,TR27 5AF,TR27 ,HAYLE,CORNWALL,CORNWALL
47.8,80,TR27 5AF,TR27 ,HAYLE,CORNWALL,CORNWALL
47.8,80,TR27 5AF,TR27 ,HAYLE,CORNWALL,CORNWALL
47.8,80,TR27 5AF,TR27 ,HAYLE,CORNWALL,CORNWALL
47.8,80,TR27 5AF,TR27 ,HAYLE,CORNWALL,CORNWALL
47.8,80,TR27 5AF,TR27 ,HAYLE,CORNWALL,CORNWALL
47.8,80,TR27 5AF,TR27 ,HAYLE,CORNWALL,CORNWALL
47.8,80,TR27 5AF,TR27 ,HAYLE,CORNWALL,CORNWALL
47.8,80,TR27 5AF,TR27 ,HAYLE,CORNWALL,CORNWALL
47.8,80,TR27 5AF,TR27 ,HAYLE,CORNWALL,CORNWALL
47.8,80,TR27 5AF,TR27 ,HAYLE,CORNWALL,CORNWALL
47.8,80,TR27 5AF,TR27 ,HAYLE,CORNWALL,CORNWALL
47.8,80,TR27 5AF,TR27 ,HAYLE,CORNWALL,CORNWALL
47.8,80,TR27 5AF,TR27 ,HAYLE,CORNWALL,CORNWALL
47.8,80,TR27 5AF,TR27 ,HAYLE,CORNWALL,CORNWALL
47.8,80,TR27 5AF,TR27 ,HAYLE,CORNWALL,CORNWALL
47.8,80,TR27 5AF,TR27 ,HAYLE,CORNWALL,CORNWALL
47.8,80,TR27 5AF,TR27 ,HAYLE,CORNWALL,CORNWALL
47.8,80,TR27 5AF,TR27 ,HAYLE,CORNWALL,CORNWALL
47.8,80,TR27 5AF,TR27 ,HAYLE,CORNWALL,CORNWALL
47.8,80,TR27 5AF,TR27 ,HAYLE,CORNWALL,CORNWALL
47.8,80,TR27 5AF,TR27 ,HAYLE,CORNWALL,CORNWALL
47.8,80,TR27 5AF,TR27 ,HAYLE,CORNWALL,CORNWALL
47.8,80,TR27 5AF,TR27 ,HAYLE,CORNWALL,CORNWALL
47.8,80,TR27 5AF,TR27 ,HAYLE,CORNWALL,CORNWALL
47.8,80,TR27 5AF,TR27 ,HAYLE,CORNWALL,CORNWALL
47.8,80,TR27 5AF,TR27 ,HAYLE,CORNWALL,CORNWALL
47.8,80,TR27 5AF,TR27 ,HAYLE,CORNWALL,CORNWALL
47.8,80,TR27 5AF,TR27 ,HAYLE,CORNWALL,CORNWALL
47.8,80,TR27 5AF,TR27 ,HAYLE,CORNWALL,CORNWALL
47.8,80,TR27 5AF,TR27 ,HAYLE,CORNWALL,CORNWALL
47.8,80,TR27 5AF,TR27 ,HAYLE,CORNWALL,CORNWALL
47.8,80,TR27 5AF,TR27 ,HAYLE,CORNWALL,CORNWALL
47.8,80,TR27 5AF,TR27 ,HAYLE,CORNWALL,CORNWALL
47.8,80,TR27 5AF,TR27 ,HAYLE,CORNWALL,CORNWALL
47.8,80,TR27 5AF,TR27 ,HAYLE,CORNWALL,CORNWALL
47.8,80,TR27 5AF,TR27 ,HAYLE,CORNWALL,CORNWALL
47.8,80,TR27 5AF,TR27 ,HAYLE,CORNWALL,CORNWALL
47.8,80,TR27 5AF,TR27 ,HAYLE,CORNWALL,CORNWALL
47.8,80,TR27 5AF,TR27 ,HAYLE,CORNWALL,CORNWALL
47.8,80,TR27 5AF,TR27 ,HAYLE,CORNWALL,CORNWALL
47.8,80,TR27 5AF,TR27 ,HAYLE,CORNWALL,CORNWALL
47.8,80,TR27 5AF,TR27 ,HAYLE,CORNWALL,CORNWALL
47.8,80,TR27 5AF,TR27 ,HAYLE,CORNWALL,CORNWALL
47.8,80,TR27 5AF,TR27 ,HAYLE,CORNWALL,CORNWALL
47.8,80,TR27 5AF,TR27 ,HAYLE,CORNWALL,CORNWALL
47.8,80,TR27 5AF,TR27 ,HAYLE,CORNWALL,CORNWALL
5.7,8.2,TR27 5BA,TR27 ,HAYLE,CORNWALL,CORNWALL
5.7,8.2,TR27 5BA,TR27 ,HAYLE,CORNWALL,CORNWALL
5.7,8.2,TR27 5BA,TR27 ,HAYLE,CORNWALL,CORNWALL
5.7,8.2,TR27 5BA,TR27 ,HAYLE,CORNWALL,CORNWALL
5.7,8.2,TR27 5BA,TR27 ,HAYLE,CORNWALL,CORNWALL
5.7,8.2,TR27 5BA,TR27 ,HAYLE,CORNWALL,CORNWALL
33,54.9,TR27 5DA,TR27 ,HAYLE,CORNWALL,CORNWALL
33,54.9,TR27 5DA,TR27 ,HAYLE,CORNWALL,CORNWALL
31.5,79.9,TR27 5EP,TR27 ,HAYLE,CORNWALL,CORNWALL
7.3,8.1,TR27 5ER,TR27 ,HAYLE,CORNWALL,CORNWALL
41,80,TR27 5HA,TR27 ,HAYLE,CORNWALL,CORNWALL
20.1,38.8,TR27 5HZ,TR27 ,HAYLE,CORNWALL,CORNWALL
35.5,44.1,TR27 5JJ,TR27 ,HAYLE,CORNWALL,CORNWALL
15.3,33.8,TR27 6AL,TR27 ,HAYLE,CORNWALL,CORNWALL
28.6,44,TR27 6AR,TR27 ,HAYLE,CORNWALL,CORNWALL
34.1,80,TR27 6BA,TR27 ,HAYLE,CORNWALL,CORNWALL
4.3,5.7,TR27 6EE,TR27 ,HAYLE,CORNWALL,CORNWALL
34.1,40,TR27 6HA,TR27 ,HAYLE,CORNWALL,CORNWALL
34.1,40,TR27 6HA,TR27 ,HAYLE,CORNWALL,CORNWALL
10.7,16.2,TR27 6HG,TR27 ,HAYLE,CORNWALL,CORNWALL
10.7,16.2,TR27 6HG,TR27 ,HAYLE,CORNWALL,CORNWALL
10.7,16.2,TR27 6HG,TR27 ,HAYLE,CORNWALL,CORNWALL
10.7,16.2,TR27 6HG,TR27 ,HAYLE,CORNWALL,CORNWALL
10.7,16.2,TR27 6HG,TR27 ,HAYLE,CORNWALL,CORNWALL
10.7,16.2,TR27 6HG,TR27 ,HAYLE,CORNWALL,CORNWALL
10.7,16.2,TR27 6HG,TR27 ,HAYLE,CORNWALL,CORNWALL
10.7,16.2,TR27 6HG,TR27 ,HAYLE,CORNWALL,CORNWALL
10.7,16.2,TR27 6HG,TR27 ,HAYLE,CORNWALL,CORNWALL
10.7,16.2,TR27 6HG,TR27 ,HAYLE,CORNWALL,CORNWALL
10.7,16.2,TR27 6HG,TR27 ,HAYLE,CORNWALL,CORNWALL
10.7,16.2,TR27 6HG,TR27 ,HAYLE,CORNWALL,CORNWALL
10.7,16.2,TR27 6HG,TR27 ,HAYLE,CORNWALL,CORNWALL
10.7,16.2,TR27 6HG,TR27 ,HAYLE,CORNWALL,CORNWALL
10.7,16.2,TR27 6HG,TR27 ,HAYLE,CORNWALL,CORNWALL
10.7,16.2,TR27 6HG,TR27 ,HAYLE,CORNWALL,CORNWALL
10.7,16.2,TR27 6HG,TR27 ,HAYLE,CORNWALL,CORNWALL
10.7,16.2,TR27 6HG,TR27 ,HAYLE,CORNWALL,CORNWALL
10.7,16.2,TR27 6HG,TR27 ,HAYLE,CORNWALL,CORNWALL
10.7,16.2,TR27 6HG,TR27 ,HAYLE,CORNWALL,CORNWALL
10.7,16.2,TR27 6HG,TR27 ,HAYLE,CORNWALL,CORNWALL
10.7,16.2,TR27 6HG,TR27 ,HAYLE,CORNWALL,CORNWALL
10.7,16.2,TR27 6HG,TR27 ,HAYLE,CORNWALL,CORNWALL
10.7,16.2,TR27 6HG,TR27 ,HAYLE,CORNWALL,CORNWALL
10.7,16.2,TR27 6HG,TR27 ,HAYLE,CORNWALL,CORNWALL
10.7,16.2,TR27 6HG,TR27 ,HAYLE,CORNWALL,CORNWALL
10.7,16.2,TR27 6HG,TR27 ,HAYLE,CORNWALL,CORNWALL
10.7,16.2,TR27 6HG,TR27 ,HAYLE,CORNWALL,CORNWALL
10.7,16.2,TR27 6HG,TR27 ,HAYLE,CORNWALL,CORNWALL
10.7,16.2,TR27 6HG,TR27 ,HAYLE,CORNWALL,CORNWALL
10.7,16.2,TR27 6HG,TR27 ,HAYLE,CORNWALL,CORNWALL
10.7,16.2,TR27 6HG,TR27 ,HAYLE,CORNWALL,CORNWALL
10.7,16.2,TR27 6HG,TR27 ,HAYLE,CORNWALL,CORNWALL
10.7,16.2,TR27 6HG,TR27 ,HAYLE,CORNWALL,CORNWALL
10.7,16.2,TR27 6HG,TR27 ,HAYLE,CORNWALL,CORNWALL
10.7,16.2,TR27 6HG,TR27 ,HAYLE,CORNWALL,CORNWALL
10.7,16.2,TR27 6HG,TR27 ,HAYLE,CORNWALL,CORNWALL
10.7,16.2,TR27 6HG,TR27 ,HAYLE,CORNWALL,CORNWALL
10.7,16.2,TR27 6HG,TR27 ,HAYLE,CORNWALL,CORNWALL
10.7,16.2,TR27 6HG,TR27 ,HAYLE,CORNWALL,CORNWALL
10.7,16.2,TR27 6HG,TR27 ,HAYLE,CORNWALL,CORNWALL
10.7,16.2,TR27 6HG,TR27 ,HAYLE,CORNWALL,CORNWALL
10.7,16.2,TR27 6HG,TR27 ,HAYLE,CORNWALL,CORNWALL
10.7,16.2,TR27 6HG,TR27 ,HAYLE,CORNWALL,CORNWALL
10.7,16.2,TR27 6HG,TR27 ,HAYLE,CORNWALL,CORNWALL
10.7,16.2,TR27 6HG,TR27 ,HAYLE,CORNWALL,CORNWALL
10.7,16.2,TR27 6HG,TR27 ,HAYLE,CORNWALL,CORNWALL
10.7,16.2,TR27 6HG,TR27 ,HAYLE,CORNWALL,CORNWALL
10.7,16.2,TR27 6HG,TR27 ,HAYLE,CORNWALL,CORNWALL
10.7,16.2,TR27 6HG,TR27 ,HAYLE,CORNWALL,CORNWALL
10.7,16.2,TR27 6HG,TR27 ,HAYLE,CORNWALL,CORNWALL
10.7,16.2,TR27 6HG,TR27 ,HAYLE,CORNWALL,CORNWALL
10.7,16.2,TR27 6HG,TR27 ,HAYLE,CORNWALL,CORNWALL
10.7,16.2,TR27 6HG,TR27 ,HAYLE,CORNWALL,CORNWALL
10.7,16.2,TR27 6HG,TR27 ,HAYLE,CORNWALL,CORNWALL
10.7,16.2,TR27 6HG,TR27 ,HAYLE,CORNWALL,CORNWALL
10.7,16.2,TR27 6HG,TR27 ,HAYLE,CORNWALL,CORNWALL
38.9,79.9,TR27 6HT,TR27 ,HAYLE,CORNWALL,CORNWALL
38.9,79.9,TR27 6HT,TR27 ,HAYLE,CORNWALL,CORNWALL
38.9,79.9,TR27 6HT,TR27 ,HAYLE,CORNWALL,CORNWALL
25.1,79.9,TR27 6JW,TR27 ,HAYLE,CORNWALL,CORNWALL
12.6,19.8,TR27 6NF,TR27 ,HAYLE,CORNWALL,CORNWALL
12.6,19.8,TR27 6NF,TR27 ,HAYLE,CORNWALL,CORNWALL
12.6,19.8,TR27 6NF,TR27 ,HAYLE,CORNWALL,CORNWALL
79.2,80,TR27 6PR,TR27 ,HAYLE,CORNWALL,CORNWALL
79.2,80,TR27 6PR,TR27 ,HAYLE,CORNWALL,CORNWALL
79.2,80,TR27 6PR,TR27 ,HAYLE,CORNWALL,CORNWALL
34.1,79.9,TR3 6BD,TR3 6,TRURO,CORNWALL,CORNWALL
46.8,80,TR3 6DY,TR3 6,TRURO,CORNWALL,CORNWALL
36,80,TR3 6EP,TR3 6,TRURO,CORNWALL,CORNWALL
36,80,TR3 6EP,TR3 6,TRURO,CORNWALL,CORNWALL
36,80,TR3 6EP,TR3 6,TRURO,CORNWALL,CORNWALL
36,80,TR3 6EP,TR3 6,TRURO,CORNWALL,CORNWALL
54.6,80,TR3 6HH,TR3 6,TRURO,CORNWALL,CORNWALL
43.6,79.9,TR3 6HJ,TR3 6,TRURO,CORNWALL,CORNWALL
33.8,76.6,TR3 6JH,TR3 6,TRURO,CORNWALL,CORNWALL
19.4,24.3,TR3 6LE,TR3 6,TRURO,CORNWALL,CORNWALL
19.4,24.3,TR3 6LE,TR3 6,TRURO,CORNWALL,CORNWALL
19.4,24.3,TR3 6LE,TR3 6,TRURO,CORNWALL,CORNWALL
19.4,24.3,TR3 6LE,TR3 6,TRURO,CORNWALL,CORNWALL
25.8,80,TR3 6LN,TR3 6,TRURO,CORNWALL,CORNWALL
45.6,79.9,TR3 6PA,TR3 6,TRURO,CORNWALL,CORNWALL
46.2,80,TR3 6QY,TR3 6,TRURO,CORNWALL,CORNWALL
46.2,80,TR3 6QY,TR3 6,TRURO,CORNWALL,CORNWALL
46.2,80,TR3 6QY,TR3 6,TRURO,CORNWALL,CORNWALL
46.2,80,TR3 6QY,TR3 6,TRURO,CORNWALL,CORNWALL
46.2,80,TR3 6QY,TR3 6,TRURO,CORNWALL,CORNWALL
46.2,80,TR3 6QY,TR3 6,TRURO,CORNWALL,CORNWALL
17,65.5,TR3 6RU,TR3 6,TRURO,CORNWALL,CORNWALL
30.7,47,TR3 7AN,TR3 7,TRURO,CORNWALL,CORNWALL
17.1,40,TR3 7AP,TR3 7,TRURO,CORNWALL,CORNWALL
17.1,40,TR3 7AP,TR3 7,TRURO,CORNWALL,CORNWALL
43.3,79.9,TR3 7AY,TR3 7,TRURO,CORNWALL,CORNWALL
43.3,79.9,TR3 7AY,TR3 7,TRURO,CORNWALL,CORNWALL
43.3,79.9,TR3 7AY,TR3 7,TRURO,CORNWALL,CORNWALL
43.3,79.9,TR3 7AY,TR3 7,TRURO,CORNWALL,CORNWALL
48.5,80,TR3 7BD,TR3 7,TRURO,CORNWALL,CORNWALL
48.5,80,TR3 7BD,TR3 7,TRURO,CORNWALL,CORNWALL
48.5,80,TR3 7BD,TR3 7,TRURO,CORNWALL,CORNWALL
27.1,54.9,TR3 7BT,TR3 7,TRURO,CORNWALL,CORNWALL
27.1,54.9,TR3 7BT,TR3 7,TRURO,CORNWALL,CORNWALL
27.1,54.9,TR3 7BT,TR3 7,TRURO,CORNWALL,CORNWALL
33.1,76.7,TR3 7BU,TR3 7,TRURO,CORNWALL,CORNWALL
33.1,76.7,TR3 7BU,TR3 7,TRURO,CORNWALL,CORNWALL
44.9,76.2,TR3 7EP,TR3 7,TRURO,CORNWALL,CORNWALL
44.9,76.2,TR3 7EP,TR3 7,TRURO,CORNWALL,CORNWALL
13.3,38.4,TR3 7JR,TR3 7,TRURO,CORNWALL,CORNWALL
13.3,38.4,TR3 7JR,TR3 7,TRURO,CORNWALL,CORNWALL
13.3,38.4,TR3 7JR,TR3 7,TRURO,CORNWALL,CORNWALL
13.3,38.4,TR3 7JR,TR3 7,TRURO,CORNWALL,CORNWALL
13.3,38.4,TR3 7JR,TR3 7,TRURO,CORNWALL,CORNWALL
13.3,38.4,TR3 7JR,TR3 7,TRURO,CORNWALL,CORNWALL
13.3,38.4,TR3 7JR,TR3 7,TRURO,CORNWALL,CORNWALL
13.3,38.4,TR3 7JR,TR3 7,TRURO,CORNWALL,CORNWALL
13.3,38.4,TR3 7JR,TR3 7,TRURO,CORNWALL,CORNWALL
13.3,38.4,TR3 7JR,TR3 7,TRURO,CORNWALL,CORNWALL
13.3,38.4,TR3 7JR,TR3 7,TRURO,CORNWALL,CORNWALL
13.3,38.4,TR3 7JR,TR3 7,TRURO,CORNWALL,CORNWALL
13.3,38.4,TR3 7JR,TR3 7,TRURO,CORNWALL,CORNWALL
38.8,73.6,TR3 7JY,TR3 7,TRURO,CORNWALL,CORNWALL
38.8,73.6,TR3 7JY,TR3 7,TRURO,CORNWALL,CORNWALL
32.1,42.3,TR3 7LL,TR3 7,TRURO,CORNWALL,CORNWALL
47.1,79.9,TR3 7NL,TR3 7,TRURO,CORNWALL,CORNWALL
47.1,79.9,TR3 7NL,TR3 7,TRURO,CORNWALL,CORNWALL
47.1,79.9,TR3 7NL,TR3 7,TRURO,CORNWALL,CORNWALL
47.1,79.9,TR3 7NL,TR3 7,TRURO,CORNWALL,CORNWALL
47.1,79.9,TR3 7NL,TR3 7,TRURO,CORNWALL,CORNWALL
59,79.9,TR3 7NN,TR3 7,TRURO,CORNWALL,CORNWALL
31.6,46.9,TR3 7PB,TR3 7,TRURO,CORNWALL,CORNWALL
31.3,67.3,TR4 8AE,TR4 8,TRURO,CORNWALL,CORNWALL
31.3,67.3,TR4 8AE,TR4 8,TRURO,CORNWALL,CORNWALL
31.3,67.3,TR4 8AE,TR4 8,TRURO,CORNWALL,CORNWALL
27.7,53.2,TR4 8AP,TR4 8,TRURO,CORNWALL,CORNWALL
27.7,53.2,TR4 8AP,TR4 8,TRURO,CORNWALL,CORNWALL
27.7,53.2,TR4 8AP,TR4 8,TRURO,CORNWALL,CORNWALL
27.7,53.2,TR4 8AP,TR4 8,TRURO,CORNWALL,CORNWALL
27.7,53.2,TR4 8AP,TR4 8,TRURO,CORNWALL,CORNWALL
27.7,53.2,TR4 8AP,TR4 8,TRURO,CORNWALL,CORNWALL
27.7,53.2,TR4 8AP,TR4 8,TRURO,CORNWALL,CORNWALL
27.7,53.2,TR4 8AP,TR4 8,TRURO,CORNWALL,CORNWALL
23.2,79.9,TR4 8AW,TR4 8,TRURO,CORNWALL,CORNWALL
23.2,79.9,TR4 8AW,TR4 8,TRURO,CORNWALL,CORNWALL
21,23.9,TR4 8AX,TR4 8,TRURO,CORNWALL,CORNWALL
21,23.9,TR4 8AX,TR4 8,TRURO,CORNWALL,CORNWALL
21,23.9,TR4 8AX,TR4 8,TRURO,CORNWALL,CORNWALL
7.5,33.5,TR4 8DU,TR4 8,TRURO,CORNWALL,CORNWALL
23.4,52.6,TR4 8HH,TR4 8,TRURO,CORNWALL,CORNWALL
23.4,52.6,TR4 8HH,TR4 8,TRURO,CORNWALL,CORNWALL
23.4,52.6,TR4 8HH,TR4 8,TRURO,CORNWALL,CORNWALL
23.4,52.6,TR4 8HH,TR4 8,TRURO,CORNWALL,CORNWALL
23.4,52.6,TR4 8HH,TR4 8,TRURO,CORNWALL,CORNWALL
41.3,75.9,TR4 8LN,TR4 8,TRURO,CORNWALL,CORNWALL
52.2,76.6,TR4 8LP,TR4 8,TRURO,CORNWALL,CORNWALL
41,76.5,TR4 8LW,TR4 8,TRURO,CORNWALL,CORNWALL
41,76.5,TR4 8LW,TR4 8,TRURO,CORNWALL,CORNWALL
29.4,79.9,TR4 8NH,TR4 8,TRURO,CORNWALL,CORNWALL
29.4,79.9,TR4 8NH,TR4 8,TRURO,CORNWALL,CORNWALL
47,79.9,TR4 8PH,TR4 8,TRURO,CORNWALL,CORNWALL
47,79.9,TR4 8PH,TR4 8,TRURO,CORNWALL,CORNWALL
47,79.9,TR4 8PH,TR4 8,TRURO,CORNWALL,CORNWALL
36.3,79.9,TR4 8QH,TR4 8,TRURO,CORNWALL,CORNWALL
14.8,76.6,TR4 8SE,TR4 8,TRURO,CORNWALL,CORNWALL
13.7,18,TR4 8TY,TR4 8,TRURO,CORNWALL,CORNWALL
29.8,72.3,TR4 8TZ,TR4 8,TRURO,CORNWALL,CORNWALL
42.3,79.9,TR4 9EY,TR4 9,TRURO,CORNWALL,CORNWALL
42.3,79.9,TR4 9EY,TR4 9,TRURO,CORNWALL,CORNWALL
42.3,79.9,TR4 9EY,TR4 9,TRURO,CORNWALL,CORNWALL
42.3,79.9,TR4 9EY,TR4 9,TRURO,CORNWALL,CORNWALL
16.9,47.5,TR4 9JL,TR4 9,TRURO,CORNWALL,CORNWALL
6.7,75.4,TR4 9LD,TR4 9,TRURO,CORNWALL,CORNWALL
1.6,2.1,TR4 9NY,TR4 9,TRURO,CORNWALL,CORNWALL
13.4,16.2,TR4 9PA,TR4 9,TRURO,CORNWALL,CORNWALL
30.7,58.5,TR5 0UY,TR5 0,ST AGNES,CORNWALL,CORNWALL
18.2,58.6,TR6 0AU,TR6 0,PERRANPORTH,CORNWALL,CORNWALL
13.9,45.2,TR6 0DH,TR6 0,PERRANPORTH,CORNWALL,CORNWALL
19.8,55,TR6 0DQ,TR6 0,PERRANPORTH,CORNWALL,CORNWALL
19.8,55,TR6 0DQ,TR6 0,PERRANPORTH,CORNWALL,CORNWALL
19.8,55,TR6 0DQ,TR6 0,PERRANPORTH,CORNWALL,CORNWALL
19.8,55,TR6 0DQ,TR6 0,PERRANPORTH,CORNWALL,CORNWALL
19.8,55,TR6 0DQ,TR6 0,PERRANPORTH,CORNWALL,CORNWALL
21.7,40,TR6 0HT,TR6 0,PERRANPORTH,CORNWALL,CORNWALL
28.5,67.3,TR7 3DR,TR7 3,NEWQUAY,CORNWALL,CORNWALL
28.5,67.3,TR7 3DR,TR7 3,NEWQUAY,CORNWALL,CORNWALL
28.5,67.3,TR7 3DR,TR7 3,NEWQUAY,CORNWALL,CORNWALL
28.5,67.3,TR7 3DR,TR7 3,NEWQUAY,CORNWALL,CORNWALL
28.5,67.3,TR7 3DR,TR7 3,NEWQUAY,CORNWALL,CORNWALL
21.4,55,TR7 3FG,TR7 3,NEWQUAY,CORNWALL,CORNWALL
36.9,70,TR7 3LR,TR7 3,NEWQUAY,CORNWALL,CORNWALL
36.9,70,TR7 3LR,TR7 3,NEWQUAY,CORNWALL,CORNWALL
36.9,70,TR7 3LR,TR7 3,NEWQUAY,CORNWALL,CORNWALL
36.9,70,TR7 3LR,TR7 3,NEWQUAY,CORNWALL,CORNWALL
36.9,70,TR7 3LR,TR7 3,NEWQUAY,CORNWALL,CORNWALL
36.9,70,TR7 3LR,TR7 3,NEWQUAY,CORNWALL,CORNWALL
36.9,70,TR7 3LR,TR7 3,NEWQUAY,CORNWALL,CORNWALL
36.9,70,TR7 3LR,TR7 3,NEWQUAY,CORNWALL,CORNWALL
24.9,59.7,TR7 3NE,TR7 3,NEWQUAY,CORNWALL,CORNWALL
24.9,59.7,TR7 3NE,TR7 3,NEWQUAY,CORNWALL,CORNWALL
24.9,59.7,TR7 3NE,TR7 3,NEWQUAY,CORNWALL,CORNWALL
17.9,73.7,TR7 3NT,TR7 3,NEWQUAY,CORNWALL,CORNWALL
6.2,51,TR8 4EQ,TR8 4,NEWQUAY,CORNWALL,CORNWALL
13.7,41.4,TR8 4HB,TR8 4,NEWQUAY,CORNWALL,CORNWALL
13.7,41.4,TR8 4HB,TR8 4,NEWQUAY,CORNWALL,CORNWALL
13.7,41.4,TR8 4HB,TR8 4,NEWQUAY,CORNWALL,CORNWALL
37.2,80,TR8 4LA,TR8 4,NEWQUAY,CORNWALL,CORNWALL
21,48.8,TR8 4NH,TR8 4,NEWQUAY,CORNWALL,CORNWALL
13.4,21.9,TR8 4NX,TR8 4,NEWQUAY,CORNWALL,CORNWALL
14.9,20.8,TR8 5BQ,TR8 5,NEWQUAY,CORNWALL,CORNWALL
31.2,57.8,TR8 5DN,TR8 5,NEWQUAY,CORNWALL,CORNWALL
31.2,57.8,TR8 5DN,TR8 5,NEWQUAY,CORNWALL,CORNWALL
31.2,57.8,TR8 5DN,TR8 5,NEWQUAY,CORNWALL,CORNWALL
24.2,45.8,TR8 5DP,TR8 5,NEWQUAY,CORNWALL,CORNWALL
23.5,38.2,TR8 5DX,TR8 5,NEWQUAY,CORNWALL,CORNWALL
2.9,3.3,TR8 5NZ,TR8 5,NEWQUAY,CORNWALL,CORNWALL
2.9,3.3,TR8 5NZ,TR8 5,NEWQUAY,CORNWALL,CORNWALL
27.7,55,TR8 5RG,TR8 5,NEWQUAY,CORNWALL,CORNWALL
27.7,55,TR8 5RG,TR8 5,NEWQUAY,CORNWALL,CORNWALL
18.4,24.4,TR8 5RR,TR8 5,NEWQUAY,CORNWALL,CORNWALL
42.2,69.5,TR8 5SQ,TR8 5,NEWQUAY,CORNWALL,CORNWALL
42.2,69.5,TR8 5SQ,TR8 5,NEWQUAY,CORNWALL,CORNWALL
19.2,31,TR8 5TA,TR8 5,NEWQUAY,CORNWALL,CORNWALL
40.2,80,TR9 6GE,TR9 6,ST COLUMB,CORNWALL,CORNWALL
40.2,80,TR9 6GE,TR9 6,ST COLUMB,CORNWALL,CORNWALL
44.4,79.9,TR9 6HG,TR9 6,ST COLUMB,CORNWALL,CORNWALL
44.4,79.9,TR9 6HG,TR9 6,ST COLUMB,CORNWALL,CORNWALL
39.8,80,TR9 6HN,TR9 6,ST COLUMB,CORNWALL,CORNWALL
39.8,80,TR9 6HN,TR9 6,ST COLUMB,CORNWALL,CORNWALL
29.5,42.1,TR9 6JY,TR9 6,ST COLUMB,CORNWALL,CORNWALL
38,80,TR9 6LX,TR9 6,ST COLUMB,CORNWALL,CORNWALL
38,80,TR9 6LX,TR9 6,ST COLUMB,CORNWALL,CORNWALL
38,80,TR9 6LX,TR9 6,ST COLUMB,CORNWALL,CORNWALL
38,80,TR9 6LX,TR9 6,ST COLUMB,CORNWALL,CORNWALL
55.3,79.7,TR9 6NG,TR9 6,ST COLUMB,CORNWALL,CORNWALL
63.1,80,TR9 6QA,TR9 6,ST COLUMB,CORNWALL,CORNWALL
63.1,80,TR9 6QA,TR9 6,ST COLUMB,CORNWALL,CORNWALL
42.6,80,TR9 6QF,TR9 6,ST COLUMB,CORNWALL,CORNWALL
